{
"type": "FeatureCollection",
"features": [
{ "type": "Feature", "properties": { "id": 706680676, "name": "Clínica Dental Dr R. Sánchez UCR", "amenity": "hospital" }, "geometry": { "type": "Point", "coordinates": [ -84.1200635, 10.0130712 ] } },
{ "type": "Feature", "properties": { "id": 761790774, "name": "EBAIS", "amenity": "hospital" }, "geometry": { "type": "Point", "coordinates": [ -84.0556779, 9.9072534 ] } },
{ "type": "Feature", "properties": { "id": 772399137, "name": "Clínica Axis (Quiropractica)", "amenity": "hospital" }, "geometry": { "type": "Point", "coordinates": [ -84.3142895, 10.0637731 ] } },
{ "type": "Feature", "properties": { "id": 772402823, "name": "Clínica Odontologica Dra Carmen Bolanos", "amenity": "hospital" }, "geometry": { "type": "Point", "coordinates": [ -84.3281659, 10.0368056 ] } },
{ "type": "Feature", "properties": { "id": 1136529989, "name": "EBAIS de Guadalupe", "amenity": "hospital" }, "geometry": { "type": "Point", "coordinates": [ -83.9339858, 9.8630329 ] } },
{ "type": "Feature", "properties": { "id": 1172707595, "name": "Clínica Santa Rosa", "amenity": "hospital" }, "geometry": { "type": "Point", "coordinates": [ -84.5247582, 10.6206341 ] } },
{ "type": "Feature", "properties": { "id": 1224521127, "name": "Ebais San Antonio", "amenity": "clinic" }, "geometry": { "type": "Point", "coordinates": [ -84.055496, 9.8990441 ] } },
{ "type": "Feature", "properties": { "id": 1241642373, "name": "Ebais Puerto Carrillo", "amenity": "clinic" }, "geometry": { "type": "Point", "coordinates": [ -85.4798963, 9.8647916 ] } },
{ "type": "Feature", "properties": { "id": 1255807433, "name": "Ebais de Guatuso", "amenity": "clinic" }, "geometry": { "type": "Point", "coordinates": [ -84.037258, 9.8713323 ] } },
{ "type": "Feature", "properties": { "id": 1257778189, "name": "Clínica CCSS Guayabo", "amenity": "clinic" }, "geometry": { "type": "Point", "coordinates": [ -85.2247317, 10.7055755 ] } },
{ "type": "Feature", "properties": { "id": 1263107049, "name": "Ebais Tacares", "amenity": "clinic" }, "geometry": { "type": "Point", "coordinates": [ -84.2967866, 10.0244415 ] } },
{ "type": "Feature", "properties": { "id": 1331754915, "name": "Ebais Finca 2", "amenity": "clinic" }, "geometry": { "type": "Point", "coordinates": [ -83.8827453, 10.3556283 ] } },
{ "type": "Feature", "properties": { "id": 1367297002, "name": "Clínica CCSS Roxana", "amenity": "clinic" }, "geometry": { "type": "Point", "coordinates": [ -83.7528559, 10.2707805 ] } },
{ "type": "Feature", "properties": { "id": 1433880712, "name": "Ebais Santa Clara", "amenity": "clinic" }, "geometry": { "type": "Point", "coordinates": [ -85.093088, 10.9235557 ] } },
{ "type": "Feature", "properties": { "id": 1562455251, "name": "Ebais del Llano", "amenity": "clinic" }, "geometry": { "type": "Point", "coordinates": [ -84.0601321, 9.8598607 ] } },
{ "type": "Feature", "properties": { "id": 1761891266, "name": "Ebais", "amenity": "hospital" }, "geometry": { "type": "Point", "coordinates": [ -84.0624793, 9.4630356 ] } },
{ "type": "Feature", "properties": { "id": 1833709973, "name": "Clínica Hospital Santa Catalina", "amenity": "hospital" }, "geometry": { "type": "Point", "coordinates": [ -84.0610951, 9.8977996 ] } },
{ "type": "Feature", "properties": { "id": 2002787294, "name": "Ebais Santa Lucía", "amenity": "hospital" }, "geometry": { "type": "Point", "coordinates": [ -84.1177544, 10.0148766 ] } },
{ "type": "Feature", "properties": { "id": 2341675025, "name": "Clínica Dental Dra. Vanessa Morales", "amenity": "hospital" }, "geometry": { "type": "Point", "coordinates": [ -84.0433766, 9.9307714 ] } },
{ "type": "Feature", "properties": { "id": 2341675028, "name": "Clínica FisioSalud", "amenity": "clinic" }, "geometry": { "type": "Point", "coordinates": [ -84.042884, 9.94239 ] } },
{ "type": "Feature", "properties": { "id": 2427549505, "name": "Ebais Taras", "amenity": "hospital" }, "geometry": { "type": "Point", "coordinates": [ -83.9328951, 9.875919 ] } },
{ "type": "Feature", "properties": { "id": 2431392791, "name": "EBAIS San Martín", "amenity": "clinic" }, "geometry": { "type": "Point", "coordinates": [ -85.4592894, 10.1520446 ] } },
{ "type": "Feature", "properties": { "id": 2539343551, "name": "Ebais Bijagua", "amenity": "clinic" }, "geometry": { "type": "Point", "coordinates": [ -85.058978, 10.7298443 ] } },
{ "type": "Feature", "properties": { "id": 3286388574, "name": "Consultorio Médico Dr.Armando Carvajal.", "amenity": "clinic" }, "geometry": { "type": "Point", "coordinates": [ -84.2115071, 10.0167993 ] } },
{ "type": "Feature", "properties": { "id": 3297936053, "name": "Ebais San Miguel", "amenity": "clinic" }, "geometry": { "type": "Point", "coordinates": [ -84.6969761, 10.014504 ] } },
{ "type": "Feature", "properties": { "id": 3448132653, "name": "Ebais Ipís - Zetillal", "amenity": "clinic" }, "geometry": { "type": "Point", "coordinates": [ -84.0132963, 9.9668376 ] } },
{ "type": "Feature", "properties": { "id": 3501765203, "name": "Ebais Santa Ana", "amenity": "clinic" }, "geometry": { "type": "Point", "coordinates": [ -84.1819687, 9.9306876 ] } },
{ "type": "Feature", "properties": { "id": 3507858989, "name": "Centro Médico Torre Fuerte", "amenity": "hospital" }, "geometry": { "type": "Point", "coordinates": [ -84.1819668, 9.9333397 ] } },
{ "type": "Feature", "properties": { "id": 3674091929, "name": "Clínica de Cesación de Tabaco de IAFA Moravia", "amenity": "clinic" }, "geometry": { "type": "Point", "coordinates": [ -84.0519577, 9.9537949 ] } },
{ "type": "Feature", "properties": { "id": 3740432973, "name": "Ebais San Isidro", "amenity": "clinic" }, "geometry": { "type": "Point", "coordinates": [ -84.4182645, 9.9913765 ] } },
{ "type": "Feature", "properties": { "id": 3813907007, "name": "San Miguel", "amenity": "clinic" }, "geometry": { "type": "Point", "coordinates": [ -84.2168596, 10.0170816 ] } },
{ "type": "Feature", "properties": { "id": 3818084388, "name": "Clínica Norza", "amenity": "clinic" }, "geometry": { "type": "Point", "coordinates": [ -84.2136986, 10.0116824 ] } },
{ "type": "Feature", "properties": { "id": 3828831406, "name": "Clínica Especialistas", "amenity": "clinic" }, "geometry": { "type": "Point", "coordinates": [ -84.0785501, 9.9310503 ] } },
{ "type": "Feature", "properties": { "id": 3830025975, "name": "Consultorio Medico", "amenity": "clinic" }, "geometry": { "type": "Point", "coordinates": [ -84.0774297, 9.9595279 ] } },
{ "type": "Feature", "properties": { "id": 3831505598, "name": "Centro Medico Tibás", "amenity": "clinic" }, "geometry": { "type": "Point", "coordinates": [ -84.0759339, 9.9621399 ] } },
{ "type": "Feature", "properties": { "id": 3841751130, "name": "Ciudad Blanca", "amenity": "clinic" }, "geometry": { "type": "Point", "coordinates": [ -85.43588, 10.6305785 ] } },
{ "type": "Feature", "properties": { "id": 3886593915, "name": "Ebais San Luis", "amenity": "clinic" }, "geometry": { "type": "Point", "coordinates": [ -83.6608915, 10.2459582 ] } },
{ "type": "Feature", "properties": { "id": 3892246041, "name": "Ebais Finca 5", "amenity": "clinic" }, "geometry": { "type": "Point", "coordinates": [ -83.8582493, 10.3355091 ] } },
{ "type": "Feature", "properties": { "id": 3892595051, "name": "Ebais", "amenity": "clinic" }, "geometry": { "type": "Point", "coordinates": [ -84.3849933, 10.4038211 ] } },
{ "type": "Feature", "properties": { "id": 3919299332, "name": "Centro Radiografico del Norte", "amenity": "clinic" }, "geometry": { "type": "Point", "coordinates": [ -84.0802326, 9.9631735 ] } },
{ "type": "Feature", "properties": { "id": 3924592204, "name": "PITAGUACHILE", "amenity": "hospital" }, "geometry": { "type": "Point", "coordinates": [ -84.3366897, 10.4066401 ] } },
{ "type": "Feature", "properties": { "id": 3929431859, "name": "Laboratorio Clinico Santa Ana", "amenity": "clinic" }, "geometry": { "type": "Point", "coordinates": [ -84.1812221, 9.9337466 ] } },
{ "type": "Feature", "properties": { "id": 3930869011, "name": "Clínica Zhen", "amenity": "clinic" }, "geometry": { "type": "Point", "coordinates": [ -84.0849876, 9.8962273 ] } },
{ "type": "Feature", "properties": { "id": 3931069793, "name": "Laboratorio Clinico Sebi", "amenity": "clinic" }, "geometry": { "type": "Point", "coordinates": [ -84.1012857, 9.9031039 ] } },
{ "type": "Feature", "properties": { "id": 3931232222, "name": "Salud Clínica Sin Fronteras", "amenity": "clinic" }, "geometry": { "type": "Point", "coordinates": [ -84.1187513, 9.9214712 ] } },
{ "type": "Feature", "properties": { "id": 3931244048, "name": "Laboratorios Labin", "amenity": "clinic" }, "geometry": { "type": "Point", "coordinates": [ -84.13681, 9.9216879 ] } },
{ "type": "Feature", "properties": { "id": 3931292213, "name": "Clinca Escazu", "amenity": "clinic" }, "geometry": { "type": "Point", "coordinates": [ -84.1389531, 9.9200603 ] } },
{ "type": "Feature", "properties": { "id": 3932988408, "name": "Centro Médico Gravilias", "amenity": "clinic" }, "geometry": { "type": "Point", "coordinates": [ -84.0621795, 9.8910808 ] } },
{ "type": "Feature", "properties": { "id": 3934453158, "name": "Clínica CCSS La Fortuna", "amenity": "clinic" }, "geometry": { "type": "Point", "coordinates": [ -85.2023241, 10.6739791 ] } },
{ "type": "Feature", "properties": { "id": 3940728460, "name": "Synapsis Medical", "amenity": "clinic" }, "geometry": { "type": "Point", "coordinates": [ -83.7904312, 10.2165207 ] } },
{ "type": "Feature", "properties": { "id": 3942395168, "name": "Dictamen Médico", "amenity": "clinic" }, "geometry": { "type": "Point", "coordinates": [ -84.0923839, 9.9476467 ] } },
{ "type": "Feature", "properties": { "id": 3944628167, "name": null, "amenity": "clinic" }, "geometry": { "type": "Point", "coordinates": [ -84.1898572, 9.9522219 ] } },
{ "type": "Feature", "properties": { "id": 3946452701, "name": "Clínica", "amenity": "clinic" }, "geometry": { "type": "Point", "coordinates": [ -84.1100971, 9.9396574 ] } },
{ "type": "Feature", "properties": { "id": 3948414996, "name": "Ebais de de San Buenaventura", "amenity": "clinic" }, "geometry": { "type": "Point", "coordinates": [ -85.1541032, 10.1883962 ] } },
{ "type": "Feature", "properties": { "id": 3948929368, "name": "Anti Aging and Wellness Clinic", "amenity": "clinic" }, "geometry": { "type": "Point", "coordinates": [ -84.1514322, 9.9376867 ] } },
{ "type": "Feature", "properties": { "id": 3948954240, "name": "Laboratorio Clinico Echandi", "amenity": "clinic" }, "geometry": { "type": "Point", "coordinates": [ -84.1519155, 9.9387723 ] } },
{ "type": "Feature", "properties": { "id": 3957466928, "name": "La Casa del Pie", "amenity": "clinic" }, "geometry": { "type": "Point", "coordinates": [ -84.1126239, 10.0002541 ] } },
{ "type": "Feature", "properties": { "id": 3957466930, "name": "Laboratorios Paez", "amenity": "clinic" }, "geometry": { "type": "Point", "coordinates": [ -84.1126157, 10.00039 ] } },
{ "type": "Feature", "properties": { "id": 3957475665, "name": "Quiropractica Pozo", "amenity": "clinic" }, "geometry": { "type": "Point", "coordinates": [ -83.916485, 9.8641026 ] } },
{ "type": "Feature", "properties": { "id": 3960312041, "name": "Ebais de Patarrá", "amenity": "hospital" }, "geometry": { "type": "Point", "coordinates": [ -84.0349044, 9.8837724 ] } },
{ "type": "Feature", "properties": { "id": 3960327857, "name": "Ebais Fátima", "amenity": "clinic" }, "geometry": { "type": "Point", "coordinates": [ -84.0424547, 9.8884264 ] } },
{ "type": "Feature", "properties": { "id": 3960456902, "name": "Sáenz Renauld Laboratorios Clinicos", "amenity": "clinic" }, "geometry": { "type": "Point", "coordinates": [ -84.0103677, 9.9093671 ] } },
{ "type": "Feature", "properties": { "id": 3962206018, "name": "International Cooperation Ciences Institute ICIC", "amenity": "hospital" }, "geometry": { "type": "Point", "coordinates": [ -84.1156667, 9.9481809 ] } },
{ "type": "Feature", "properties": { "id": 3966968883, "name": "Laboratorio Clínico Biotech", "amenity": "clinic" }, "geometry": { "type": "Point", "coordinates": [ -83.6854492, 9.9037716 ] } },
{ "type": "Feature", "properties": { "id": 3974760632, "name": "Laboratorio Clinico Medico", "amenity": "clinic" }, "geometry": { "type": "Point", "coordinates": [ -84.0103491, 9.9760954 ] } },
{ "type": "Feature", "properties": { "id": 3976286994, "name": null, "amenity": "clinic" }, "geometry": { "type": "Point", "coordinates": [ -84.0346958, 9.9507452 ] } },
{ "type": "Feature", "properties": { "id": 3976505114, "name": "Laboratorio Clinico", "amenity": "clinic" }, "geometry": { "type": "Point", "coordinates": [ -83.0308478, 9.9943439 ] } },
{ "type": "Feature", "properties": { "id": 3976648584, "name": "Clínica Balance", "amenity": "clinic" }, "geometry": { "type": "Point", "coordinates": [ -84.0622882, 9.9195503 ] } },
{ "type": "Feature", "properties": { "id": 3976906546, "name": "Laboratorios Clinicos Cartago", "amenity": "clinic" }, "geometry": { "type": "Point", "coordinates": [ -83.9223263, 9.8641876 ] } },
{ "type": "Feature", "properties": { "id": 3984849498, "name": "Clínica CEDCAS", "amenity": "clinic" }, "geometry": { "type": "Point", "coordinates": [ -84.1181226, 9.9744131 ] } },
{ "type": "Feature", "properties": { "id": 3984923881, "name": "Centro Prenatal", "amenity": "clinic" }, "geometry": { "type": "Point", "coordinates": [ -84.619753, 9.6108891 ] } },
{ "type": "Feature", "properties": { "id": 3986998475, "name": "Clínica Full Salud Cartago", "amenity": "clinic" }, "geometry": { "type": "Point", "coordinates": [ -83.9207318, 9.8681885 ] } },
{ "type": "Feature", "properties": { "id": 4000060096, "name": "Ebais Puente Salas", "amenity": "clinic" }, "geometry": { "type": "Point", "coordinates": [ -84.1306786, 10.0368405 ] } },
{ "type": "Feature", "properties": { "id": 4084080628, "name": "EBAIS", "amenity": "clinic" }, "geometry": { "type": "Point", "coordinates": [ -83.9615619, 9.9867105 ] } },
{ "type": "Feature", "properties": { "id": 4120972338, "name": "Hospital Universal", "amenity": "hospital" }, "geometry": { "type": "Point", "coordinates": [ -83.9218989, 9.8598916 ] } },
{ "type": "Feature", "properties": { "id": 4193092392, "name": "Ebais Vargas Araya - Lourdes", "amenity": "clinic" }, "geometry": { "type": "Point", "coordinates": [ -84.0429566, 9.9338404 ] } },
{ "type": "Feature", "properties": { "id": 4207616256, "name": "Ebais Río Jesús", "amenity": "clinic" }, "geometry": { "type": "Point", "coordinates": [ -84.5149174, 10.0316821 ] } },
{ "type": "Feature", "properties": { "id": 4207621152, "name": "Coopesana CCSS Emergencias", "amenity": "hospital" }, "geometry": { "type": "Point", "coordinates": [ -84.1815333, 9.9345728 ] } },
{ "type": "Feature", "properties": { "id": 4207621158, "name": "EBAIS Especialidades médicas", "amenity": "hospital" }, "geometry": { "type": "Point", "coordinates": [ -84.181204, 9.9345817 ] } },
{ "type": "Feature", "properties": { "id": 4300775221, "name": null, "amenity": "hospital" }, "geometry": { "type": "Point", "coordinates": [ -83.9151783, 9.8661127 ] } },
{ "type": "Feature", "properties": { "id": 4300775224, "name": null, "amenity": "hospital" }, "geometry": { "type": "Point", "coordinates": [ -83.9122547, 9.8662343 ] } },
{ "type": "Feature", "properties": { "id": 4311772241, "name": "Ebais La Guaria", "amenity": "clinic" }, "geometry": { "type": "Point", "coordinates": [ -84.0271588, 10.4542753 ] } },
{ "type": "Feature", "properties": { "id": 4398384686, "name": "Farmacia Santiago", "amenity": "hospital" }, "geometry": { "type": "Point", "coordinates": [ -83.9969505, 9.8946533 ] } },
{ "type": "Feature", "properties": { "id": 4413699589, "name": "LHS Belén", "amenity": "clinic" }, "geometry": { "type": "Point", "coordinates": [ -84.1862153, 9.9852551 ] } },
{ "type": "Feature", "properties": { "id": 4467189424, "name": "Clínica OyeMas", "amenity": "clinic" }, "geometry": { "type": "Point", "coordinates": [ -84.0321749, 9.9160228 ] } },
{ "type": "Feature", "properties": { "id": 4472215221, "name": "Laboratorios Labín", "amenity": "clinic" }, "geometry": { "type": "Point", "coordinates": [ -84.056935, 9.9096329 ] } },
{ "type": "Feature", "properties": { "id": 4483044589, "name": "Clínica Dental", "amenity": "clinic" }, "geometry": { "type": "Point", "coordinates": [ -84.4568543, 10.4728712 ] } },
{ "type": "Feature", "properties": { "id": 4483283107, "name": "Star Medical", "amenity": "clinic" }, "geometry": { "type": "Point", "coordinates": [ -84.0340824, 9.9149685 ] } },
{ "type": "Feature", "properties": { "id": 4485784114, "name": "Ebais", "amenity": "clinic" }, "geometry": { "type": "Point", "coordinates": [ -82.9546733, 9.5187293 ] } },
{ "type": "Feature", "properties": { "id": 4490864296, "name": "Ebais Llano Azul", "amenity": "clinic" }, "geometry": { "type": "Point", "coordinates": [ -84.9999387, 10.8491641 ] } },
{ "type": "Feature", "properties": { "id": 4496042589, "name": "Ebais El Recreo", "amenity": "clinic" }, "geometry": { "type": "Point", "coordinates": [ -84.9777612, 10.839889 ] } },
{ "type": "Feature", "properties": { "id": 4501508589, "name": "Acuaterapia", "amenity": "clinic" }, "geometry": { "type": "Point", "coordinates": [ -84.1246737, 9.994038 ] } },
{ "type": "Feature", "properties": { "id": 4535259553, "name": "Labín", "amenity": "clinic" }, "geometry": { "type": "Point", "coordinates": [ -84.0215467, 9.9211195 ] } },
{ "type": "Feature", "properties": { "id": 4542435136, "name": "Laboratorio Labín", "amenity": "clinic" }, "geometry": { "type": "Point", "coordinates": [ -84.0272471, 9.9319815 ] } },
{ "type": "Feature", "properties": { "id": 4580188593, "name": "Asembis", "amenity": "clinic" }, "geometry": { "type": "Point", "coordinates": [ -83.7930782, 10.2160164 ] } },
{ "type": "Feature", "properties": { "id": 4587784275, "name": "Clínica Santa Fe", "amenity": "clinic" }, "geometry": { "type": "Point", "coordinates": [ -84.1217272, 10.0000457 ] } },
{ "type": "Feature", "properties": { "id": 4587957342, "name": "Clínica Saint Joseph", "amenity": "clinic" }, "geometry": { "type": "Point", "coordinates": [ -84.1207944, 10.0004966 ] } },
{ "type": "Feature", "properties": { "id": 4689213712, "name": "Centro Medico Mansay", "amenity": "clinic" }, "geometry": { "type": "Point", "coordinates": [ -84.12294, 10.01884 ] } },
{ "type": "Feature", "properties": { "id": 4692922640, "name": "Centro de La Familia Cristiana", "amenity": "clinic" }, "geometry": { "type": "Point", "coordinates": [ -83.979826, 9.9285115 ] } },
{ "type": "Feature", "properties": { "id": 4713705095, "name": "Clínica de Oftalmología", "amenity": "clinic" }, "geometry": { "type": "Point", "coordinates": [ -83.0323134, 9.9986585 ] } },
{ "type": "Feature", "properties": { "id": 4775188430, "name": "Ebais Río Cuarto", "amenity": "clinic" }, "geometry": { "type": "Point", "coordinates": [ -84.2258441, 10.3473986 ] } },
{ "type": "Feature", "properties": { "id": 4781654736, "name": "Ebais Iroquois", "amenity": "clinic" }, "geometry": { "type": "Point", "coordinates": [ -83.6203665, 10.180763 ] } },
{ "type": "Feature", "properties": { "id": 4831043057, "name": "Ebais Santa Marta", "amenity": "clinic" }, "geometry": { "type": "Point", "coordinates": [ -85.4323796, 9.9269119 ] } },
{ "type": "Feature", "properties": { "id": 4831190896, "name": "Ebais Lajas", "amenity": "clinic" }, "geometry": { "type": "Point", "coordinates": [ -85.4502923, 9.9939848 ] } },
{ "type": "Feature", "properties": { "id": 4833212685, "name": "Ebais Monte Romo", "amenity": "clinic" }, "geometry": { "type": "Point", "coordinates": [ -85.3848148, 10.0006728 ] } },
{ "type": "Feature", "properties": { "id": 4833440746, "name": "Ebais Huacas", "amenity": "clinic" }, "geometry": { "type": "Point", "coordinates": [ -85.3636651, 10.0227915 ] } },
{ "type": "Feature", "properties": { "id": 4853876041, "name": "Ebais El Peje", "amenity": "clinic" }, "geometry": { "type": "Point", "coordinates": [ -83.5208695, 10.1722786 ] } },
{ "type": "Feature", "properties": { "id": 4888014374, "name": "Ebais Lepanto", "amenity": "clinic" }, "geometry": { "type": "Point", "coordinates": [ -85.0331718, 9.9483276 ] } },
{ "type": "Feature", "properties": { "id": 4933537753, "name": "EBAIS Linda Vista", "amenity": "clinic" }, "geometry": { "type": "Point", "coordinates": [ -83.5718242, 9.9891608 ] } },
{ "type": "Feature", "properties": { "id": 4974284935, "name": "Ebais Guayabo", "amenity": "clinic" }, "geometry": { "type": "Point", "coordinates": [ -84.2620246, 9.8613931 ] } },
{ "type": "Feature", "properties": { "id": 4987421523, "name": null, "amenity": "clinic" }, "geometry": { "type": "Point", "coordinates": [ -85.6650236, 9.9452067 ] } },
{ "type": "Feature", "properties": { "id": 5056664390, "name": "Clínica Hacienda Pinilla", "amenity": "clinic" }, "geometry": { "type": "Point", "coordinates": [ -85.8105682, 10.2688154 ] } },
{ "type": "Feature", "properties": { "id": 5080188423, "name": "AV DENTAL", "amenity": "clinic" }, "geometry": { "type": "Point", "coordinates": [ -84.1866692, 9.940772 ] } },
{ "type": "Feature", "properties": { "id": 5087066924, "name": "Ebais Katira 1", "amenity": "clinic" }, "geometry": { "type": "Point", "coordinates": [ -84.9143681, 10.742005 ] } },
{ "type": "Feature", "properties": { "id": 5093604427, "name": "Ebais", "amenity": "clinic" }, "geometry": { "type": "Point", "coordinates": [ -84.5084041, 10.3597741 ] } },
{ "type": "Feature", "properties": { "id": 5138132023, "name": "Cruz Roja Leon XII", "amenity": "hospital" }, "geometry": { "type": "Point", "coordinates": [ -84.0945251, 9.9588395 ] } },
{ "type": "Feature", "properties": { "id": 5150896278, "name": "Ebais Bajo Coen", "amenity": "clinic" }, "geometry": { "type": "Point", "coordinates": [ -83.0112504, 9.5344659 ] } },
{ "type": "Feature", "properties": { "id": 5162577870, "name": "Clínica CCSS Corina Rodríguez", "amenity": "clinic" }, "geometry": { "type": "Point", "coordinates": [ -84.1146451, 9.9175843 ] } },
{ "type": "Feature", "properties": { "id": 5175989978, "name": "Ebais Golfito", "amenity": "clinic" }, "geometry": { "type": "Point", "coordinates": [ -84.0904898, 10.5933532 ] } },
{ "type": "Feature", "properties": { "id": 5182838393, "name": "Ebais Colonia Carvajal", "amenity": "clinic" }, "geometry": { "type": "Point", "coordinates": [ -84.1533426, 10.3182474 ] } },
{ "type": "Feature", "properties": { "id": 5184463591, "name": "Ebais Colonia Cubujuquí", "amenity": "clinic" }, "geometry": { "type": "Point", "coordinates": [ -83.9390319, 10.2676565 ] } },
{ "type": "Feature", "properties": { "id": 5184627388, "name": "Ebais El Mortero", "amenity": "clinic" }, "geometry": { "type": "Point", "coordinates": [ -83.9797792, 10.3918866 ] } },
{ "type": "Feature", "properties": { "id": 5184886164, "name": "Ebais El Palmar", "amenity": "clinic" }, "geometry": { "type": "Point", "coordinates": [ -83.932131, 10.4087804 ] } },
{ "type": "Feature", "properties": { "id": 5209487744, "name": "Ebais", "amenity": "clinic" }, "geometry": { "type": "Point", "coordinates": [ -84.0787549, 9.404314 ] } },
{ "type": "Feature", "properties": { "id": 5222451176, "name": "Clínica CCSS San Francisco de Río Tinoco", "amenity": "clinic" }, "geometry": { "type": "Point", "coordinates": [ -83.3767055, 8.8914532 ] } },
{ "type": "Feature", "properties": { "id": 5224002090, "name": "Ebais Piedras Blancas", "amenity": "clinic" }, "geometry": { "type": "Point", "coordinates": [ -83.2383613, 8.7814679 ] } },
{ "type": "Feature", "properties": { "id": 5234911054, "name": "Ebais San Josecito", "amenity": "clinic" }, "geometry": { "type": "Point", "coordinates": [ -84.0388045, 10.0187096 ] } },
{ "type": "Feature", "properties": { "id": 5242991981, "name": "Ebais Tirrases", "amenity": "clinic" }, "geometry": { "type": "Point", "coordinates": [ -84.0258304, 9.8996699 ] } },
{ "type": "Feature", "properties": { "id": 5247606778, "name": "Clínica CCSS La Reforma", "amenity": "clinic" }, "geometry": { "type": "Point", "coordinates": [ -84.2220926, 9.9526238 ] } },
{ "type": "Feature", "properties": { "id": 5250669998, "name": "Ebais Granadilla Norte", "amenity": "clinic" }, "geometry": { "type": "Point", "coordinates": [ -84.0150678, 9.9326976 ] } },
{ "type": "Feature", "properties": { "id": 5370575586, "name": "EBAIS", "amenity": "clinic" }, "geometry": { "type": "Point", "coordinates": [ -83.2004888, 8.9377028 ] } },
{ "type": "Feature", "properties": { "id": 5370778821, "name": "Ortopédica Garbanzo", "amenity": "clinic" }, "geometry": { "type": "Point", "coordinates": [ -84.0761713, 9.9297709 ] } },
{ "type": "Feature", "properties": { "id": 5384640995, "name": "Ebais Bernardo Benavides - La Esperanza", "amenity": "clinic" }, "geometry": { "type": "Point", "coordinates": [ -84.1197958, 9.9904389 ] } },
{ "type": "Feature", "properties": { "id": 5473298121, "name": "Laboratorio Clínico Biomed del Este", "amenity": "clinic" }, "geometry": { "type": "Point", "coordinates": [ -83.9875397, 9.9083773 ] } },
{ "type": "Feature", "properties": { "id": 5538902181, "name": "Ebais Matambú", "amenity": "clinic" }, "geometry": { "type": "Point", "coordinates": [ -85.4199511, 10.0884945 ] } },
{ "type": "Feature", "properties": { "id": 5572239722, "name": "Ebais Porvenir", "amenity": "clinic" }, "geometry": { "type": "Point", "coordinates": [ -83.8180937, 10.4463321 ] } },
{ "type": "Feature", "properties": { "id": 5605130633, "name": "Ebais El Charco", "amenity": "clinic" }, "geometry": { "type": "Point", "coordinates": [ -84.8546049, 10.7848534 ] } },
{ "type": "Feature", "properties": { "id": 5605146048, "name": "Ebais Costa Ana", "amenity": "clinic" }, "geometry": { "type": "Point", "coordinates": [ -84.8268212, 10.7814159 ] } },
{ "type": "Feature", "properties": { "id": 5605163570, "name": "Ebais Katira 2", "amenity": "clinic" }, "geometry": { "type": "Point", "coordinates": [ -84.8631619, 10.7507966 ] } },
{ "type": "Feature", "properties": { "id": 5605362188, "name": "Ebais Pejibaye", "amenity": "clinic" }, "geometry": { "type": "Point", "coordinates": [ -84.8673046, 10.6223291 ] } },
{ "type": "Feature", "properties": { "id": 5605450469, "name": "Ebais Maquencal", "amenity": "clinic" }, "geometry": { "type": "Point", "coordinates": [ -84.9136974, 10.6903663 ] } },
{ "type": "Feature", "properties": { "id": 5605629267, "name": "Ebais Jomusa", "amenity": "clinic" }, "geometry": { "type": "Point", "coordinates": [ -85.148256, 11.0089428 ] } },
{ "type": "Feature", "properties": { "id": 5609738378, "name": "Ebais Lagunilla - Las Flores", "amenity": "clinic" }, "geometry": { "type": "Point", "coordinates": [ -84.1179856, 9.9639453 ] } },
{ "type": "Feature", "properties": { "id": 5657493022, "name": "Villa Sueno", "amenity": "hospital" }, "geometry": { "type": "Point", "coordinates": [ -85.7619904, 10.453653 ] } },
{ "type": "Feature", "properties": { "id": 5787792914, "name": "Policlínico San Bosco", "amenity": "clinic" }, "geometry": { "type": "Point", "coordinates": [ -84.0899646, 9.9334098 ] } },
{ "type": "Feature", "properties": { "id": 5832939569, "name": "Ebais El Roble", "amenity": "clinic" }, "geometry": { "type": "Point", "coordinates": [ -84.2432421, 9.9864852 ] } },
{ "type": "Feature", "properties": { "id": 5844557896, "name": "Ebais Rincón de Zaragoza", "amenity": "clinic" }, "geometry": { "type": "Point", "coordinates": [ -84.4414896, 10.0379262 ] } },
{ "type": "Feature", "properties": { "id": 5898467685, "name": "clinics medica Kop", "amenity": "clinic" }, "geometry": { "type": "Point", "coordinates": [ -84.1288957, 9.9322243 ] } },
{ "type": "Feature", "properties": { "id": 5909069678, "name": "Ebais Rincòn Herrera", "amenity": "clinic" }, "geometry": { "type": "Point", "coordinates": [ -84.2404904, 9.9805261 ] } },
{ "type": "Feature", "properties": { "id": 5940940030, "name": "Ebais Costa de Pájaros", "amenity": "clinic" }, "geometry": { "type": "Point", "coordinates": [ -84.9988152, 10.1047036 ] } },
{ "type": "Feature", "properties": { "id": 5940946534, "name": "Ebais Aranjuez", "amenity": "clinic" }, "geometry": { "type": "Point", "coordinates": [ -84.7967578, 10.0554033 ] } },
{ "type": "Feature", "properties": { "id": 5941553312, "name": "Ebais Guacimal", "amenity": "clinic" }, "geometry": { "type": "Point", "coordinates": [ -84.846602, 10.2049447 ] } },
{ "type": "Feature", "properties": { "id": 5944210540, "name": "Ebais Sardinal", "amenity": "clinic" }, "geometry": { "type": "Point", "coordinates": [ -84.8270068, 10.1176986 ] } },
{ "type": "Feature", "properties": { "id": 5945041425, "name": "Ebais Bajo Caliente", "amenity": "clinic" }, "geometry": { "type": "Point", "coordinates": [ -84.7227313, 10.2043847 ] } },
{ "type": "Feature", "properties": { "id": 5945384171, "name": "Ebais San Rafael", "amenity": "clinic" }, "geometry": { "type": "Point", "coordinates": [ -84.6983631, 10.2292117 ] } },
{ "type": "Feature", "properties": { "id": 5945442586, "name": "Ebais Corazón de Jesús", "amenity": "clinic" }, "geometry": { "type": "Point", "coordinates": [ -84.6874469, 10.2401293 ] } },
{ "type": "Feature", "properties": { "id": 6058824569, "name": "Clínica de San juan Sur CCSS", "amenity": "clinic" }, "geometry": { "type": "Point", "coordinates": [ -84.0679455, 9.7913751 ] } },
{ "type": "Feature", "properties": { "id": 6058824570, "name": "San Juan Bautista", "amenity": "clinic" }, "geometry": { "type": "Point", "coordinates": [ -84.0682834, 9.7887577 ] } },
{ "type": "Feature", "properties": { "id": 6058848958, "name": "Ebais de San Juan Norte", "amenity": "clinic" }, "geometry": { "type": "Point", "coordinates": [ -84.0699169, 9.7979637 ] } },
{ "type": "Feature", "properties": { "id": 6058870829, "name": "Ebais de Jericó", "amenity": "clinic" }, "geometry": { "type": "Point", "coordinates": [ -84.0610335, 9.8306492 ] } },
{ "type": "Feature", "properties": { "id": 6122194269, "name": "Ebais Piedades - Brasil", "amenity": "clinic" }, "geometry": { "type": "Point", "coordinates": [ -84.2188687, 9.9330136 ] } },
{ "type": "Feature", "properties": { "id": 6124330534, "name": "Consultorio de Cirugía Plástica Dr. Chacón", "amenity": "clinic" }, "geometry": { "type": "Point", "coordinates": [ -84.1094884, 9.9375881 ] } },
{ "type": "Feature", "properties": { "id": 6195420031, "name": "Ebais Bijagual", "amenity": "clinic" }, "geometry": { "type": "Point", "coordinates": [ -84.5681125, 9.7277686 ] } },
{ "type": "Feature", "properties": { "id": 6196431145, "name": "Ebais San Gabriel", "amenity": "clinic" }, "geometry": { "type": "Point", "coordinates": [ -84.4996973, 9.6758993 ] } },
{ "type": "Feature", "properties": { "id": 6276911636, "name": "Ebais San Pedro", "amenity": "clinic" }, "geometry": { "type": "Point", "coordinates": [ -84.3273144, 10.1120887 ] } },
{ "type": "Feature", "properties": { "id": 6286188994, "name": "Clínica Prenatal", "amenity": "clinic" }, "geometry": { "type": "Point", "coordinates": [ -85.4421238, 10.6304057 ] } },
{ "type": "Feature", "properties": { "id": 6422035615, "name": "Ebais El Roble", "amenity": "clinic" }, "geometry": { "type": "Point", "coordinates": [ -84.1572623, 10.0722604 ] } },
{ "type": "Feature", "properties": { "id": 6423449380, "name": "Ebais Los Ángeles", "amenity": "clinic" }, "geometry": { "type": "Point", "coordinates": [ -84.1839399, 10.3871832 ] } },
{ "type": "Feature", "properties": { "id": 6424350092, "name": "Ebais Pangola", "amenity": "clinic" }, "geometry": { "type": "Point", "coordinates": [ -84.1424592, 10.5688002 ] } },
{ "type": "Feature", "properties": { "id": 6424351572, "name": "Ebais Los Ángeles", "amenity": "clinic" }, "geometry": { "type": "Point", "coordinates": [ -83.974888, 10.6851001 ] } },
{ "type": "Feature", "properties": { "id": 6550685888, "name": "Odontología AB", "amenity": "clinic" }, "geometry": { "type": "Point", "coordinates": [ -84.2816766, 10.0895464 ] } },
{ "type": "Feature", "properties": { "id": 6557965487, "name": "Ebais Cuatro Bocas", "amenity": "clinic" }, "geometry": { "type": "Point", "coordinates": [ -85.1920741, 10.9105047 ] } },
{ "type": "Feature", "properties": { "id": 6558553865, "name": "Ebais Valle Verde", "amenity": "clinic" }, "geometry": { "type": "Point", "coordinates": [ -85.2425395, 10.8354542 ] } },
{ "type": "Feature", "properties": { "id": 6558587121, "name": "Ebais Colonia La Libertad", "amenity": "clinic" }, "geometry": { "type": "Point", "coordinates": [ -85.2434787, 10.863152 ] } },
{ "type": "Feature", "properties": { "id": 6616399454, "name": "Ebais Río Azul", "amenity": "clinic" }, "geometry": { "type": "Point", "coordinates": [ -84.0336766, 9.8915722 ] } },
{ "type": "Feature", "properties": { "id": 6616424973, "name": "Ebais Linda Vista", "amenity": "clinic" }, "geometry": { "type": "Point", "coordinates": [ -84.0273676, 9.8850531 ] } },
{ "type": "Feature", "properties": { "id": 6643775037, "name": "Ebais San Rafael Abajo", "amenity": "clinic" }, "geometry": { "type": "Point", "coordinates": [ -84.0851987, 9.8940245 ] } },
{ "type": "Feature", "properties": { "id": 6714839678, "name": "Ebais San Antonio", "amenity": "clinic" }, "geometry": { "type": "Point", "coordinates": [ -84.1324974, 9.90472 ] } },
{ "type": "Feature", "properties": { "id": 6714864303, "name": "Ebais Corazón de Jesús", "amenity": "clinic" }, "geometry": { "type": "Point", "coordinates": [ -84.1475392, 9.9141629 ] } },
{ "type": "Feature", "properties": { "id": 6714893093, "name": "Ebais Guachipelín", "amenity": "clinic" }, "geometry": { "type": "Point", "coordinates": [ -84.1530566, 9.9378697 ] } },
{ "type": "Feature", "properties": { "id": 6714893213, "name": "Ebais Pozos - Lindora - La Chispa", "amenity": "clinic" }, "geometry": { "type": "Point", "coordinates": [ -84.1908431, 9.9500163 ] } },
{ "type": "Feature", "properties": { "id": 6714895604, "name": "Ebais Anonos", "amenity": "clinic" }, "geometry": { "type": "Point", "coordinates": [ -84.1258093, 9.9319304 ] } },
{ "type": "Feature", "properties": { "id": 6714901136, "name": "Ebais San Rafael", "amenity": "clinic" }, "geometry": { "type": "Point", "coordinates": [ -84.1733786, 9.930198 ] } },
{ "type": "Feature", "properties": { "id": 6714908115, "name": "Ebais Uruca", "amenity": "clinic" }, "geometry": { "type": "Point", "coordinates": [ -84.1922284, 9.933684 ] } },
{ "type": "Feature", "properties": { "id": 6714963768, "name": "Ebais Llano Grande", "amenity": "clinic" }, "geometry": { "type": "Point", "coordinates": [ -84.3587565, 9.8908708 ] } },
{ "type": "Feature", "properties": { "id": 6714971284, "name": "Ebais Tabarcia", "amenity": "clinic" }, "geometry": { "type": "Point", "coordinates": [ -84.2338857, 9.8500017 ] } },
{ "type": "Feature", "properties": { "id": 6717733784, "name": "Ebais Llano Grande", "amenity": "clinic" }, "geometry": { "type": "Point", "coordinates": [ -83.9114594, 9.9406793 ] } },
{ "type": "Feature", "properties": { "id": 6816338827, "name": "Ebais Ojo de Agua", "amenity": "clinic" }, "geometry": { "type": "Point", "coordinates": [ -83.5391746, 8.9833246 ] } },
{ "type": "Feature", "properties": { "id": 6831592791, "name": "Ebais San Luis", "amenity": "clinic" }, "geometry": { "type": "Point", "coordinates": [ -85.3419422, 10.9313959 ] } },
{ "type": "Feature", "properties": { "id": 6831657124, "name": "Ebais El Porvenir", "amenity": "clinic" }, "geometry": { "type": "Point", "coordinates": [ -85.2375447, 10.9270255 ] } },
{ "type": "Feature", "properties": { "id": 6848837077, "name": "Ebais Bocana", "amenity": "clinic" }, "geometry": { "type": "Point", "coordinates": [ -85.1181057, 10.0899958 ] } },
{ "type": "Feature", "properties": { "id": 6852423780, "name": "Antiguo Hospital", "amenity": "hospital" }, "geometry": { "type": "Point", "coordinates": [ -84.1661561, 9.4240369 ] } },
{ "type": "Feature", "properties": { "id": 6898648512, "name": "Ebais San Isidro", "amenity": "clinic" }, "geometry": { "type": "Point", "coordinates": [ -84.9657149, 10.9231506 ] } },
{ "type": "Feature", "properties": { "id": 6898760015, "name": "Ebais México", "amenity": "clinic" }, "geometry": { "type": "Point", "coordinates": [ -85.0643664, 10.9968093 ] } },
{ "type": "Feature", "properties": { "id": 6898795743, "name": "Ebais Delicias", "amenity": "clinic" }, "geometry": { "type": "Point", "coordinates": [ -85.026716, 10.9524704 ] } },
{ "type": "Feature", "properties": { "id": 7245315801, "name": "Ebais San Martín", "amenity": "clinic" }, "geometry": { "type": "Point", "coordinates": [ -83.0908514, 8.5995637 ] } },
{ "type": "Feature", "properties": { "id": 7297915655, "name": "Clinica Odontologica", "amenity": "clinic" }, "geometry": { "type": "Point", "coordinates": [ -84.0755677, 9.927043 ] } },
{ "type": "Feature", "properties": { "id": 7307678101, "name": "Ebais Rincón de Salas", "amenity": "clinic" }, "geometry": { "type": "Point", "coordinates": [ -84.3288994, 10.0296297 ] } },
{ "type": "Feature", "properties": { "id": 7581374154, "name": "Clinica de Cirugia Plastica Dr. Bernardo Peralta Mantilla", "amenity": "clinic" }, "geometry": { "type": "Point", "coordinates": [ -84.1182758, 9.9415415 ] } },
{ "type": "Feature", "properties": { "id": 7817976319, "name": "Rodríguez Surgical", "amenity": "clinic" }, "geometry": { "type": "Point", "coordinates": [ -84.217737, 10.0251057 ] } },
{ "type": "Feature", "properties": { "id": 7882458378, "name": "Consultorio Integral Esperanza", "amenity": "clinic" }, "geometry": { "type": "Point", "coordinates": [ -84.0027841, 9.9009565 ] } },
{ "type": "Feature", "properties": { "id": 8458314626, "name": "Ebais Juanito Mora", "amenity": "clinic" }, "geometry": { "type": "Point", "coordinates": [ -84.7261718, 9.9744774 ] } },
{ "type": "Feature", "properties": { "id": 8599949718, "name": "clínica integral", "amenity": "clinic" }, "geometry": { "type": "Point", "coordinates": [ -82.8528162, 9.626941 ] } },
{ "type": "Feature", "properties": { "id": 8698419549, "name": "Ebais Santa Marta", "amenity": "clinic" }, "geometry": { "type": "Point", "coordinates": [ -83.3183908, 10.1216953 ] } },
{ "type": "Feature", "properties": { "id": 8756454891, "name": "Ebais Delta", "amenity": "clinic" }, "geometry": { "type": "Point", "coordinates": [ -83.7392009, 10.733512 ] } },
{ "type": "Feature", "properties": { "id": 8780136617, "name": "Centro de Salud San Pedro", "amenity": "clinic" }, "geometry": { "type": "Point", "coordinates": [ -83.5519808, 9.2806388 ] } },
{ "type": "Feature", "properties": { "id": 8780136717, "name": "Bonanza Medical Red", "amenity": "clinic" }, "geometry": { "type": "Point", "coordinates": [ -84.0797858, 9.934753 ] } },
{ "type": "Feature", "properties": { "id": 8780136718, "name": "Centro de Salud Santa Cecilia", "amenity": "clinic" }, "geometry": { "type": "Point", "coordinates": [ -83.5259876, 9.2511495 ] } },
{ "type": "Feature", "properties": { "id": 8812789017, "name": "Ebais Bajo Baley", "amenity": "clinic" }, "geometry": { "type": "Point", "coordinates": [ -83.212433, 9.6043393 ] } },
{ "type": "Feature", "properties": { "id": 8818867755, "name": "Ebais Tujankir", "amenity": "clinic" }, "geometry": { "type": "Point", "coordinates": [ -84.8903407, 10.7667459 ] } },
{ "type": "Feature", "properties": { "id": 9125296507, "name": "ASEMBIS", "amenity": "clinic" }, "geometry": { "type": "Point", "coordinates": [ -84.0839872, 9.9339258 ] } },
{ "type": "Feature", "properties": { "id": 9125325116, "name": "Clínica Orlich", "amenity": "clinic" }, "geometry": { "type": "Point", "coordinates": [ -84.0855023, 9.934769 ] } },
{ "type": "Feature", "properties": { "id": 9130369291, "name": "Ebais Escobal", "amenity": "clinic" }, "geometry": { "type": "Point", "coordinates": [ -84.1953854, 9.9733684 ] } },
{ "type": "Feature", "properties": { "id": 9130476173, "name": "Ebais Santa Cecilia", "amenity": "clinic" }, "geometry": { "type": "Point", "coordinates": [ -84.1391293, 9.9885622 ] } },
{ "type": "Feature", "properties": { "id": 9130656639, "name": "Ebais La Lilliana - Imas - UNA", "amenity": "clinic" }, "geometry": { "type": "Point", "coordinates": [ -84.1206163, 10.0010223 ] } },
{ "type": "Feature", "properties": { "id": 9137959676, "name": "Ebais San Cristóbal Norte", "amenity": "clinic" }, "geometry": { "type": "Point", "coordinates": [ -84.006735, 9.7696265 ] } },
{ "type": "Feature", "properties": { "id": 9146728610, "name": "Ebais El Rosario", "amenity": "clinic" }, "geometry": { "type": "Point", "coordinates": [ -84.0864955, 9.7918308 ] } },
{ "type": "Feature", "properties": { "id": 9146766692, "name": "Ebais San Gabriel", "amenity": "clinic" }, "geometry": { "type": "Point", "coordinates": [ -84.1066888, 9.7882582 ] } },
{ "type": "Feature", "properties": { "id": 9146908566, "name": "Ebais Plazoleta 1 y 2", "amenity": "clinic" }, "geometry": { "type": "Point", "coordinates": [ -84.0587418, 9.8991454 ] } },
{ "type": "Feature", "properties": { "id": 9149596494, "name": "Ebais San Rafael Arriba", "amenity": "clinic" }, "geometry": { "type": "Point", "coordinates": [ -84.0770962, 9.8734561 ] } },
{ "type": "Feature", "properties": { "id": 9181026501, "name": "Ebais Los Ángeles", "amenity": "clinic" }, "geometry": { "type": "Point", "coordinates": [ -84.3158278, 10.0948918 ] } },
{ "type": "Feature", "properties": { "id": 9181026502, "name": "Ebais San Juan", "amenity": "clinic" }, "geometry": { "type": "Point", "coordinates": [ -84.3171885, 10.1016496 ] } },
{ "type": "Feature", "properties": { "id": 9181026503, "name": "Ebais San Roque", "amenity": "clinic" }, "geometry": { "type": "Point", "coordinates": [ -84.3017099, 10.0965344 ] } },
{ "type": "Feature", "properties": { "id": 9183528453, "name": "Ebais La Luisa", "amenity": "clinic" }, "geometry": { "type": "Point", "coordinates": [ -84.3392689, 10.1212389 ] } },
{ "type": "Feature", "properties": { "id": 9183528476, "name": "Ebais Sabanilla", "amenity": "clinic" }, "geometry": { "type": "Point", "coordinates": [ -84.3492761, 10.1241674 ] } },
{ "type": "Feature", "properties": { "id": 9183540570, "name": "Ebais Trojas", "amenity": "clinic" }, "geometry": { "type": "Point", "coordinates": [ -84.3191748, 10.1385926 ] } },
{ "type": "Feature", "properties": { "id": 9201099487, "name": "Ebais Huetares", "amenity": "clinic" }, "geometry": { "type": "Point", "coordinates": [ -83.917378, 10.2702984 ] } },
{ "type": "Feature", "properties": { "id": 9201099488, "name": "Ebais La Esperanza", "amenity": "clinic" }, "geometry": { "type": "Point", "coordinates": [ -83.9146801, 10.2561251 ] } },
{ "type": "Feature", "properties": { "id": 9201267170, "name": "Ebais Finca Chávez", "amenity": "clinic" }, "geometry": { "type": "Point", "coordinates": [ -83.9454411, 10.3839027 ] } },
{ "type": "Feature", "properties": { "id": 9208172525, "name": "Ebais Vista de Mar", "amenity": "clinic" }, "geometry": { "type": "Point", "coordinates": [ -83.9896869, 9.9676071 ] } },
{ "type": "Feature", "properties": { "id": 9228576935, "name": "Ebais Birmania", "amenity": "clinic" }, "geometry": { "type": "Point", "coordinates": [ -85.2705589, 10.9816294 ] } },
{ "type": "Feature", "properties": { "id": 9228602635, "name": "Ebais El Progreso", "amenity": "clinic" }, "geometry": { "type": "Point", "coordinates": [ -85.2433083, 10.9857891 ] } },
{ "type": "Feature", "properties": { "id": 9230587026, "name": "Ebais Villa Nueva", "amenity": "clinic" }, "geometry": { "type": "Point", "coordinates": [ -85.2012422, 11.0082499 ] } },
{ "type": "Feature", "properties": { "id": 9236038020, "name": "Ebais La Victoria", "amenity": "clinic" }, "geometry": { "type": "Point", "coordinates": [ -85.1159378, 10.9988251 ] } },
{ "type": "Feature", "properties": { "id": 9238284168, "name": "Ebais San Jorge", "amenity": "clinic" }, "geometry": { "type": "Point", "coordinates": [ -84.9145996, 10.8764315 ] } },
{ "type": "Feature", "properties": { "id": 9238316512, "name": "Ebais San Gabriel", "amenity": "clinic" }, "geometry": { "type": "Point", "coordinates": [ -84.9323135, 10.8527077 ] } },
{ "type": "Feature", "properties": { "id": 9238907472, "name": "Ebais San Luis", "amenity": "clinic" }, "geometry": { "type": "Point", "coordinates": [ -84.938849, 10.7844134 ] } },
{ "type": "Feature", "properties": { "id": 9238959278, "name": "Ebais Jazmines A", "amenity": "clinic" }, "geometry": { "type": "Point", "coordinates": [ -84.9338406, 10.8184332 ] } },
{ "type": "Feature", "properties": { "id": 9238959280, "name": "Ebais Jazmines B", "amenity": "clinic" }, "geometry": { "type": "Point", "coordinates": [ -84.9114596, 10.8194563 ] } },
{ "type": "Feature", "properties": { "id": 9238974933, "name": "Ebais Colonia Puntarenas", "amenity": "clinic" }, "geometry": { "type": "Point", "coordinates": [ -84.9629023, 10.8328673 ] } },
{ "type": "Feature", "properties": { "id": 9239014116, "name": "Ebais Santa Rosa", "amenity": "clinic" }, "geometry": { "type": "Point", "coordinates": [ -84.9763624, 10.7995946 ] } },
{ "type": "Feature", "properties": { "id": 9239158236, "name": "Ebais Santa Cecilia", "amenity": "clinic" }, "geometry": { "type": "Point", "coordinates": [ -85.0539374, 10.8800936 ] } },
{ "type": "Feature", "properties": { "id": 9241338854, "name": "Ebais Cuatro Cruces", "amenity": "clinic" }, "geometry": { "type": "Point", "coordinates": [ -84.9977691, 10.8337363 ] } },
{ "type": "Feature", "properties": { "id": 9241928203, "name": "Ebais Canalete", "amenity": "clinic" }, "geometry": { "type": "Point", "coordinates": [ -85.0415461, 10.8382587 ] } },
{ "type": "Feature", "properties": { "id": 9242106237, "name": "Ebais Armenias", "amenity": "clinic" }, "geometry": { "type": "Point", "coordinates": [ -85.1231629, 10.8180456 ] } },
{ "type": "Feature", "properties": { "id": 9242106573, "name": "Ebais San Cristóbal", "amenity": "clinic" }, "geometry": { "type": "Point", "coordinates": [ -85.0986335, 10.7929342 ] } },
{ "type": "Feature", "properties": { "id": 9243882919, "name": "Ebais Zapote", "amenity": "clinic" }, "geometry": { "type": "Point", "coordinates": [ -85.0721146, 10.7561341 ] } },
{ "type": "Feature", "properties": { "id": 9243946871, "name": "Ebais Higuerón", "amenity": "clinic" }, "geometry": { "type": "Point", "coordinates": [ -85.0455491, 10.8051173 ] } },
{ "type": "Feature", "properties": { "id": 9243985334, "name": "Ebais Las Flores", "amenity": "clinic" }, "geometry": { "type": "Point", "coordinates": [ -85.02606, 10.7618873 ] } },
{ "type": "Feature", "properties": { "id": 9243985360, "name": "Ebais San Miguel", "amenity": "clinic" }, "geometry": { "type": "Point", "coordinates": [ -85.0045076, 10.7478578 ] } },
{ "type": "Feature", "properties": { "id": 9244000053, "name": "Ebais El Salto", "amenity": "clinic" }, "geometry": { "type": "Point", "coordinates": [ -85.0145729, 10.7813104 ] } },
{ "type": "Feature", "properties": { "id": 9244002906, "name": "Ebais Santo Domingo", "amenity": "clinic" }, "geometry": { "type": "Point", "coordinates": [ -84.964387, 10.7506683 ] } },
{ "type": "Feature", "properties": { "id": 9244050034, "name": "Ebais El Pilón", "amenity": "clinic" }, "geometry": { "type": "Point", "coordinates": [ -84.990942, 10.7191335 ] } },
{ "type": "Feature", "properties": { "id": 9261223834, "name": "Ebais Tobosi", "amenity": "clinic" }, "geometry": { "type": "Point", "coordinates": [ -83.9831626, 9.8382577 ] } },
{ "type": "Feature", "properties": { "id": 9297684066, "name": "Ebais Río de Oro", "amenity": "clinic" }, "geometry": { "type": "Point", "coordinates": [ -85.3546838, 9.9991183 ] } },
{ "type": "Feature", "properties": { "id": 9379922054, "name": "Ebais Birrisito", "amenity": "clinic" }, "geometry": { "type": "Point", "coordinates": [ -83.8431504, 9.8479066 ] } },
{ "type": "Feature", "properties": { "id": 9407985844, "name": "Misión Médica International", "amenity": "clinic" }, "geometry": { "type": "Point", "coordinates": [ -84.6247074, 9.6172881 ] } },
{ "type": "Feature", "properties": { "id": 9424279309, "name": "Ebais San Juanillo", "amenity": "clinic" }, "geometry": { "type": "Point", "coordinates": [ -84.39265, 10.1418708 ] } },
{ "type": "Feature", "properties": { "id": 9425828670, "name": null, "amenity": "clinic" }, "geometry": { "type": "Point", "coordinates": [ -83.7438651, 9.1757761 ] } },
{ "type": "Feature", "properties": { "id": 9432218926, "name": "Ebais Boca Letras", "amenity": "clinic" }, "geometry": { "type": "Point", "coordinates": [ -85.3134592, 10.1116791 ] } },
{ "type": "Feature", "properties": { "id": 9453311465, "name": "Ebais Santiago", "amenity": "clinic" }, "geometry": { "type": "Point", "coordinates": [ -83.7982739, 9.8689207 ] } },
{ "type": "Feature", "properties": { "id": 9518479087, "name": "Casa Medica del Pie y La Uña", "amenity": "hospital" }, "geometry": { "type": "Point", "coordinates": [ -84.07601, 9.926129 ] } },
{ "type": "Feature", "properties": { "id": 9652351612, "name": "Ebais Jesús María - Labrador", "amenity": "clinic" }, "geometry": { "type": "Point", "coordinates": [ -84.5906204, 9.9567243 ] } },
{ "type": "Feature", "properties": { "id": 9716278724, "name": "Ebais San José Este", "amenity": "clinic" }, "geometry": { "type": "Point", "coordinates": [ -84.0568824, 9.9321299 ] } },
{ "type": "Feature", "properties": { "id": 9721405485, "name": "Santa Fe Centro Medico", "amenity": "clinic" }, "geometry": { "type": "Point", "coordinates": [ -84.1622344, 9.4301396 ] } }
]
}
