{"version": 0.6, "generator": "Overpass API 0.7.57 93a4d346", "osm3s": {"timestamp_osm_base": "2022-04-13T04:40:56Z", "timestamp_areas_base": "2022-04-13T03:46:09Z", "copyright": "The data included in this document is from www.openstreetmap.org. The data is made available under ODbL."}, "elements": [{"type": "node", "id": 416885399, "lat": 41.1607731, "lon": -8.5922552, "tags": {"amenity": "restaurant", "name": "Scala"}}, {"type": "node", "id": 417992583, "lat": 41.160823, "lon": -8.5917705, "tags": {"amenity": "restaurant", "name": "Vit\u00f3ria"}}, {"type": "node", "id": 418091554, "lat": 41.1590503, "lon": -8.5975147, "tags": {"amenity": "restaurant", "name": "Barrigas"}}, {"type": "node", "id": 418198053, "lat": 41.166263, "lon": -8.5932339, "tags": {"amenity": "restaurant", "name": "Al Forno"}}, {"type": "node", "id": 418198057, "lat": 41.1656169, "lon": -8.5982894, "tags": {"addr:city": "Porto", "addr:housenumber": "524", "addr:postcode": "4200-211", "addr:street": "Rua de Costa Cabral", "amenity": "restaurant", "name": "Cidade", "website": "https://chcidadeporto.comportugal.com"}}, {"type": "node", "id": 495570478, "lat": 41.1514604, "lon": -8.6765313, "tags": {"amenity": "restaurant", "cuisine": "international", "name": "Cepa"}}, {"type": "node", "id": 773982500, "lat": 41.1668988, "lon": -8.5942605, "tags": {"amenity": "restaurant", "name": "Caf\u00e9 Barcarola"}}, {"type": "node", "id": 848506203, "lat": 41.1516948, "lon": -8.677531, "tags": {"amenity": "restaurant", "name": "Varanda do Sol"}}, {"type": "node", "id": 1277647420, "lat": 41.1409628, "lon": -8.6105907, "tags": {"amenity": "restaurant", "name": "Fish Fixe", "toilets:wheelchair": "no", "wheelchair": "limited"}}, {"type": "node", "id": 1277647424, "lat": 41.1408145, "lon": -8.610584, "tags": {"addr:city": "Porto", "addr:housenumber": "1; 2", "addr:street": "Cais da Ribeira", "alt_name": "Miradouro; Restaurante Miradouro; Restaurante Mira Douro", "amenity": "restaurant", "description": "Confeitaria, Pizzaria, Restaurante", "layer": "1", "name": "Mira Douro", "outdoor_seating": "yes", "payment:cash": "yes", "payment:credit_cards": "no", "payment:cryptocurrencies": "no", "payment:debit_cards": "no", "payment:electronic_purses": "no", "wheelchair": "no"}}, {"type": "node", "id": 1278037411, "lat": 41.1404192, "lon": -8.6143526, "tags": {"amenity": "restaurant", "name": "Farol da Boa Nova"}}, {"type": "node", "id": 1279324320, "lat": 41.1527924, "lon": -8.6743714, "tags": {"amenity": "restaurant", "name": "Paparazzi"}}, {"type": "node", "id": 1291504382, "lat": 41.163136, "lon": -8.5920332, "tags": {"amenity": "restaurant"}}, {"type": "node", "id": 1294005342, "lat": 41.1717462, "lon": -8.6880125, "tags": {"amenity": "restaurant", "wheelchair": "yes"}}, {"type": "node", "id": 1309194531, "lat": 41.1661133, "lon": -8.6873799, "tags": {"addr:housenumber": "810", "addr:postcode": "4150-518", "addr:street": "Avenida Montevideu", "amenity": "restaurant", "name": "Buhle", "website": "http://www.buhle.pt"}}, {"type": "node", "id": 1329457300, "lat": 41.1662738, "lon": -8.5876962, "tags": {"amenity": "restaurant", "cuisine": "regional", "name": "Casa Ferraz"}}, {"type": "node", "id": 1333616035, "lat": 41.1661513, "lon": -8.5881337, "tags": {"amenity": "restaurant", "cuisine": "regional", "name": "Restaurante Atleta"}}, {"type": "node", "id": 1334167594, "lat": 41.1654039, "lon": -8.5882672, "tags": {"amenity": "restaurant", "brand": "Pizza Hut", "brand:wikidata": "Q191615", "brand:wikipedia": "en:Pizza Hut", "cuisine": "pizza", "name": "Pizza Hut"}}, {"type": "node", "id": 1388998258, "lat": 41.1404543, "lon": -8.6149591, "tags": {"addr:city": "Porto", "addr:country": "PT", "addr:housenumber": "1", "addr:postcode": "4050-561", "addr:street": "Rua S\u00e3o Nicolau", "amenity": "restaurant", "cuisine": "regional", "name": "Adega S\u00e3o Nicolau", "phone": "+351 222 008232"}}, {"type": "node", "id": 1390706509, "lat": 41.148385, "lon": -8.5855181, "tags": {"amenity": "restaurant", "wheelchair": "yes"}}, {"type": "node", "id": 1402788353, "lat": 41.1825416, "lon": -8.5967911, "tags": {"amenity": "restaurant", "name": "Rep\u00fablica de Churrasco"}}, {"type": "node", "id": 1402790572, "lat": 41.1826663, "lon": -8.5968095, "tags": {"addr:street": "Rua da Arroteia", "amenity": "restaurant", "name": "Arraial"}}, {"type": "node", "id": 1487171479, "lat": 41.1566614, "lon": -8.6210111, "tags": {"amenity": "restaurant", "cuisine": "italian", "internet_access": "wlan", "internet_access:fee": "no", "name": "A Pasta - Boavista"}}, {"type": "node", "id": 1524059834, "lat": 41.1544512, "lon": -8.6309195, "tags": {"amenity": "restaurant", "cuisine": "regional", "name": "Conv\u00edvio", "wheelchair": "limited"}}, {"type": "node", "id": 1524077811, "lat": 41.170598, "lon": -8.6445732, "tags": {"amenity": "restaurant", "cuisine": "regional", "name": "Oficina"}}, {"type": "node", "id": 1670326389, "lat": 41.1435098, "lon": -8.6078107, "tags": {"amenity": "restaurant", "name": "Kanimambo", "source": "survey"}}, {"type": "node", "id": 1694880588, "lat": 41.1524498, "lon": -8.6304862, "tags": {"addr:city": "Porto", "addr:housenumber": "191", "addr:postcode": "4150-177", "addr:street": "Rua do Campo Alegre", "amenity": "restaurant", "cuisine": "regional", "email": "capanegra@capanegra.com", "name": "Restaurante Capa Negra II", "phone": "+351 226078380", "website": "http://www.capanegra.com/", "wheelchair": "yes"}}, {"type": "node", "id": 1837375441, "lat": 41.1804255, "lon": -8.5835897, "tags": {"amenity": "restaurant", "name": "Portuense"}}, {"type": "node", "id": 1837383577, "lat": 41.1810919, "lon": -8.5837628, "tags": {"amenity": "restaurant", "name": "A Sport"}}, {"type": "node", "id": 1838425886, "lat": 41.1785366, "lon": -8.5866426, "tags": {"amenity": "restaurant"}}, {"type": "node", "id": 2006347255, "lat": 41.1599726, "lon": -8.5923397, "tags": {"addr:housenumber": "1194", "amenity": "restaurant", "name": "Caetano", "phone": "+351 225 369350", "website": "www.restaurantecaetano.com"}}, {"type": "node", "id": 2044404400, "lat": 41.1616741, "lon": -8.602209, "tags": {"amenity": "restaurant", "cuisine": "chinese", "name": "Amizade", "phone": "22 551 0676"}}, {"type": "node", "id": 2196398258, "lat": 41.1468174, "lon": -8.6144802, "tags": {"addr:city": "Porto", "addr:country": "PT", "addr:housenumber": "40", "addr:postcode": "4050-284", "addr:street": "Rua das Galerias de Paris", "amenity": "restaurant", "contact:website": "www.laboheme.com.pt", "cuisine": "tapas", "name": "La Boh\u00e8me"}}, {"type": "node", "id": 2204099863, "lat": 41.1487203, "lon": -8.6100613, "tags": {"addr:street": "Rua de Rodrigues Sampaio", "amenity": "restaurant", "cuisine": "seafood", "name": "Aqu\u00e1rio Marisqueira"}}, {"type": "node", "id": 2204099919, "lat": 41.1470699, "lon": -8.6103031, "tags": {"addr:street": "Viela dos Congregados", "amenity": "restaurant", "name": "Flor dos Congregados", "opening_hours": "Tu-Sa 10:00-22:00; Mo 19:00-22:00", "wheelchair": "no"}}, {"type": "node", "id": 2204347238, "lat": 41.14058, "lon": -8.6120079, "tags": {"addr:city": "Porto", "addr:housenumber": "39A; 40;41;42", "addr:street": "Cais da Ribeira", "alt_name": "Casa-Filha da M\u00e3e-Preta; Peza Arroz; Filha da M\u00e3e Preta", "amenity": "restaurant", "name": "Peza Arroz - Filha da M\u00e3e Preta", "wheelchair": "limited"}}, {"type": "node", "id": 2204347240, "lat": 41.1401438, "lon": -8.615611, "tags": {"amenity": "restaurant", "contact:email": "malcozinhado@clix.pt", "contact:phone": "+351 222 081319", "contact:website": "http://www.malcozinhado.pt", "name": "Mal Cozinhado"}}, {"type": "node", "id": 2204347243, "lat": 41.1406911, "lon": -8.6134721, "tags": {"amenity": "restaurant", "name": "Postigo do Carv\u00e3o"}}, {"type": "node", "id": 2204347281, "lat": 41.1404967, "lon": -8.6139128, "tags": {"amenity": "restaurant", "name": "Ora Viva"}}, {"type": "node", "id": 2204347294, "lat": 41.1406328, "lon": -8.6115355, "tags": {"addr:city": "Porto", "addr:housenumber": "30", "addr:street": "Cais da Ribeira", "amenity": "restaurant", "name": "Av\u00f3 Maria"}}, {"type": "node", "id": 2204347295, "lat": 41.1408881, "lon": -8.6117051, "tags": {"amenity": "restaurant", "name": "Marina"}}, {"type": "node", "id": 2204347309, "lat": 41.14068, "lon": -8.6120914, "tags": {"amenity": "restaurant", "name": "Chez Lapin", "wheelchair": "limited"}}, {"type": "node", "id": 2204347318, "lat": 41.1407906, "lon": -8.6148368, "tags": {"amenity": "restaurant", "cuisine": "pizza", "name": "Mamma Nostra"}}, {"type": "node", "id": 2204347340, "lat": 41.1407688, "lon": -8.6117882, "tags": {"amenity": "restaurant", "name": "Armaz\u00e9m do Sal"}}, {"type": "node", "id": 2204347341, "lat": 41.1400216, "lon": -8.615406, "tags": {"amenity": "restaurant", "contact:email": "info@vinhasdalho.com", "contact:phone": "+351 222 012874", "contact:website": "http://www.vinhasdalho.com/", "name": "Vinas d'Alho"}}, {"type": "node", "id": 2204347348, "lat": 41.1405679, "lon": -8.6149754, "tags": {"amenity": "restaurant", "name": "A Grade"}}, {"type": "node", "id": 2204446934, "lat": 41.1419824, "lon": -8.6140455, "tags": {"amenity": "restaurant", "name": "Solar do P\u00e1tio"}}, {"type": "node", "id": 2204446936, "lat": 41.1415849, "lon": -8.61439, "tags": {"amenity": "restaurant", "name": "Churrascaria do Infante"}}, {"type": "node", "id": 2205076681, "lat": 41.1425293, "lon": -8.6119924, "tags": {"disused": "yes", "heritage": "2", "heritage:ref": "IIP", "heritage:since": "1933-10-11", "heritage:website:sipa": "http://www.monumentos.gov.pt/Site/APP_PagesUser/SIPA.aspx?id=5552", "historic": "pillory", "name": "Pelourinho do Porto", "ref:ipa": "5552", "start_date": "1945", "tourism": "attraction", "wikidata": "Q37255712"}}, {"type": "node", "id": 2206272565, "lat": 41.1408361, "lon": -8.6107881, "tags": {"amenity": "restaurant", "name": "D. Tonho"}}, {"type": "node", "id": 2206349261, "lat": 41.1412464, "lon": -8.6130276, "tags": {"amenity": "restaurant", "name": "Bzzz"}}, {"type": "node", "id": 2206402504, "lat": 41.1405372, "lon": -8.6126371, "tags": {"addr:city": "Porto", "addr:housenumber": "50; 52; 53", "addr:street": "Cais da Ribeira", "amenity": "restaurant", "name": "Buraquinho", "opening_hours": "Tu-Su 12:00-22:00"}}, {"type": "node", "id": 2207202594, "lat": 41.1430772, "lon": -8.614577, "tags": {"alt_name": "Restaurante Tra\u00e7a Carne", "amenity": "restaurant", "name": "Tra\u00e7a"}}, {"type": "node", "id": 2209115564, "lat": 41.1459404, "lon": -8.6111604, "tags": {"addr:city": "Porto", "addr:country": "PT", "addr:housenumber": "25", "addr:postcode": "4000-322", "addr:street": "Pra\u00e7a da Liberdade", "amenity": "restaurant", "cuisine": "portuguese", "internet_access": "wlan", "name": "Restaurante Ast\u00f3ria", "old_name": "Caf\u00e9 Ast\u00f3ria", "opening_hours": "Mo-Su 12:30-15:30,19:30-22:30", "outdoor_seating": "yes", "website": "https://astoriarestaurante.com", "wheelchair": "yes"}}, {"type": "node", "id": 2210724608, "lat": 41.1454375, "lon": -8.6130561, "tags": {"amenity": "restaurant", "name": "Fado das Castas"}}, {"type": "node", "id": 2210724609, "lat": 41.14284, "lon": -8.615627, "tags": {"amenity": "restaurant", "name": "Casa Mariazinha"}}, {"type": "node", "id": 2213211042, "lat": 41.1423108, "lon": -8.61744, "tags": {"amenity": "restaurant", "name": "O Fado"}}, {"type": "node", "id": 2243738313, "lat": 41.1470952, "lon": -8.6089589, "tags": {"amenity": "restaurant", "cuisine": "churrasqueria", "name": "Icara\u00ed"}}, {"type": "node", "id": 2245105109, "lat": 41.145986, "lon": -8.609722, "tags": {"amenity": "restaurant", "name": "O R\u00e1pido"}}, {"type": "node", "id": 2245250787, "lat": 41.1405715, "lon": -8.6134878, "tags": {"amenity": "restaurant", "name": "Paparocco"}}, {"type": "node", "id": 2245273257, "lat": 41.140882, "lon": -8.6118767, "tags": {"amenity": "restaurant", "name": "Porta Larga"}}, {"type": "node", "id": 2245273260, "lat": 41.1406253, "lon": -8.6120689, "tags": {"addr:city": "Porto", "addr:housenumber": "42", "addr:street": "Rua de Cima do Muro", "amenity": "restaurant", "layer": "1", "name": "Ribeira Restaurante Bar", "phone": "+351 223 284 427; +351 914 874 250", "wheelchair": "limited"}}, {"type": "node", "id": 2247361525, "lat": 41.1468578, "lon": -8.6171437, "tags": {"amenity": "restaurant", "name": "Z\u00e9 Bota"}}, {"type": "node", "id": 2247441963, "lat": 41.1441922, "lon": -8.616946, "tags": {"amenity": "restaurant", "name": "Rei dos Galos"}}, {"type": "node", "id": 2255804799, "lat": 41.1415336, "lon": -8.6181774, "tags": {"amenity": "restaurant", "name": "Verso em Pedra"}}, {"type": "node", "id": 2258298747, "lat": 41.1441785, "lon": -8.6222694, "tags": {"amenity": "restaurant", "name": "Azul"}}, {"type": "node", "id": 2268597615, "lat": 41.1427626, "lon": -8.6124322, "tags": {"addr:city": "Porto", "addr:housenumber": "25", "addr:postcode": "4050-568", "addr:street": "Rua de S\u00e3o Sebasti\u00e3o", "amenity": "restaurant", "email": "info@casadamariquinhas.pt", "name": "Casa da Mariquinhas", "opening_hours": "Tu-Th 20:00-01:00, Fr-Su 20:00-02:00", "phone": "+351 915613877", "website": "http://www.casadamariquinhas.pt"}}, {"type": "node", "id": 2321280046, "lat": 41.1468428, "lon": -8.6022745, "tags": {"addr:city": "Porto", "addr:housenumber": "310", "addr:postcode": "4000-465", "addr:street": "Rua de Santo Ildefonso", "amenity": "restaurant", "cuisine": "regional", "name": "Roma", "opening_hours": "Mo-Su 12:00-15:00,19:00-22:00", "operator": "Predicados Fidalgos, Rest. Unipessoal, Lda", "phone": "+351 225 361 489", "ref:vatin": "PT 513930353", "source": "local knowledge"}}, {"type": "node", "id": 2321280072, "lat": 41.1469845, "lon": -8.6024234, "tags": {"amenity": "restaurant", "name": "Paladar da Alma"}}, {"type": "node", "id": 2349195529, "lat": 41.1593323, "lon": -8.6383638, "tags": {"amenity": "restaurant", "cuisine": "beer", "name": "PortoBeer"}}, {"type": "node", "id": 2353819383, "lat": 41.1406941, "lon": -8.6119063, "tags": {"amenity": "restaurant", "name": "Canastra"}}, {"type": "node", "id": 2353971162, "lat": 41.1422342, "lon": -8.6181251, "tags": {"amenity": "restaurant", "name": "Cometa"}}, {"type": "node", "id": 2364507670, "lat": 41.1677884, "lon": -8.6456633, "tags": {"amenity": "restaurant", "name": "A Cunha Francesinhas", "phone": "226181820"}}, {"type": "node", "id": 2377725604, "lat": 41.1736286, "lon": -8.6553829, "tags": {"amenity": "restaurant", "cuisine": "regional", "name": "Casa Carvoeiro"}}, {"type": "node", "id": 2377725861, "lat": 41.1758392, "lon": -8.6565405, "tags": {"amenity": "restaurant", "cuisine": "regional", "name": "Caf\u00e9 Precioso"}}, {"type": "node", "id": 2377948776, "lat": 41.1490426, "lon": -8.6028075, "tags": {"amenity": "restaurant", "name": "Ca\u00e7ulinha"}}, {"type": "node", "id": 2377953834, "lat": 41.1475541, "lon": -8.6032688, "tags": {"amenity": "restaurant", "name": "O S\u00edtio"}}, {"type": "node", "id": 2377958695, "lat": 41.1472147, "lon": -8.60379, "tags": {"addr:housenumber": "44", "addr:postcode": "4000-032", "addr:street": "Rua da Alegria", "amenity": "restaurant", "name": "Mur\u00e7a no Potro", "opening_hours": "Mo-Sa 09:00-22:00", "phone": "+351222008795", "wheelchair": "no"}}, {"type": "node", "id": 2377958910, "lat": 41.1467522, "lon": -8.6037363, "tags": {"amenity": "restaurant", "name": "Maria Rita"}}, {"type": "node", "id": 2455241323, "lat": 41.1584586, "lon": -8.6333333, "tags": {"amenity": "restaurant", "cuisine": "portuguese", "name": "Restaurante Nova Europa"}}, {"type": "node", "id": 2460947527, "lat": 41.1746028, "lon": -8.5991878, "tags": {"amenity": "restaurant", "name": "Braza de Paranhos"}}, {"type": "node", "id": 2517562439, "lat": 41.1537036, "lon": -8.6077701, "tags": {"amenity": "restaurant", "cuisine": "breakfast;coffee_shop;portuguese;burger;pizza", "name": "Big Ben", "opening_hours": "24/7", "source": "OpenStreetBugs"}}, {"type": "node", "id": 2671549057, "lat": 41.1505863, "lon": -8.6312145, "tags": {"amenity": "restaurant", "name": "Cantina da FLUP", "opening_hours": "PH,Mo-Su 11:30-15:00", "wheelchair": "limited"}}, {"type": "node", "id": 2677898560, "lat": 41.1602093, "lon": -8.6006813, "tags": {"addr:city": "Porto", "addr:country": "PT", "addr:housename": "Caf\u00e9 Francesinha", "addr:housenumber": "946", "addr:postcode": "4000", "addr:street": "Rua da Alegria", "amenity": "restaurant", "cuisine": "regional", "name": "Francesinha Caf\u00e9", "phone": "+351 225 502722"}}, {"type": "node", "id": 2678006436, "lat": 41.152592, "lon": -8.6213595, "tags": {"addr:city": "Porto", "addr:country": "PT", "addr:housenumber": "219", "addr:postcode": "4050-613", "addr:street": "Rua da Torrinha", "amenity": "restaurant", "cuisine": "regional", "name": "O Afonso", "phone": "+351 222 000395"}}, {"type": "node", "id": 2678009709, "lat": 41.1620751, "lon": -8.6528135, "tags": {"addr:city": "Porto", "addr:country": "PT", "addr:housename": "Restaurante Marisqueira Cufra", "addr:housenumber": "2504", "addr:postcode": "4100-119", "addr:street": "Avenida da Boavista", "amenity": "restaurant", "cuisine": "regional", "name": "Restaurante Marisqueira Cufra", "opening_hours": "Tu-Su 12:00-02:00", "phone": "+351 226 172715", "website": "http://www.cufra.pt"}}, {"type": "node", "id": 2678013028, "lat": 41.1569675, "lon": -8.6418895, "tags": {"addr:city": "Porto", "addr:country": "PT", "addr:housename": "bbGourmet Maiorca", "addr:housenumber": "301", "addr:postcode": "4150", "addr:street": "Rua de Ant\u00f3nio Cardoso", "amenity": "restaurant", "cuisine": "regional", "name": "bbGourmet Maiorca", "phone": "+351 226 092003", "website": "https://www.bbgourmet.net/"}}, {"type": "node", "id": 2684412433, "lat": 41.1410032, "lon": -8.6127123, "tags": {"addr:housenumber": "11 12", "addr:postcode": "4050-513", "addr:street": "Praca da Ribeira", "amenity": "restaurant", "name": "Jim\u00e3o", "name:pt": "Jim\u00e3o tapas e Vinhos", "opening_hours": "We-Mo 12:00-22:00"}}, {"type": "node", "id": 2725099393, "lat": 41.1523484, "lon": -8.6155089, "tags": {"amenity": "restaurant", "name": "Cantina da Faculdade de Direito"}}, {"type": "node", "id": 2728364878, "lat": 41.1794054, "lon": -8.6435364, "tags": {"amenity": "restaurant", "name": "Churrasquera CL"}}, {"type": "node", "id": 2730057471, "lat": 41.146371, "lon": -8.6139359, "tags": {"amenity": "restaurant", "name": "Honorato", "wheelchair": "yes"}}, {"type": "node", "id": 2730062608, "lat": 41.1469606, "lon": -8.6136221, "tags": {"amenity": "restaurant", "name": "Real Indiana"}}, {"type": "node", "id": 2730418376, "lat": 41.1488896, "lon": -8.6150275, "tags": {"addr:housenumber": "36", "addr:street": "Rua das Oliveiras", "amenity": "restaurant", "name": "Aduela", "opening_hours": "Tu-Sa 13:00-02:00; Su 15:00-00:00"}}, {"type": "node", "id": 2730484782, "lat": 41.1503768, "lon": -8.6113595, "tags": {"amenity": "restaurant", "name": "Migalhas"}}, {"type": "node", "id": 2867237041, "lat": 41.1440089, "lon": -8.6171163, "tags": {"addr:city": "Porto", "addr:country": "PT", "addr:housenumber": "113", "addr:street": "Rua das Taipas", "amenity": "restaurant", "cuisine": "Mozambique", "name": "Tia Orlanda"}}, {"type": "node", "id": 2892484612, "lat": 41.1500073, "lon": -8.6146668, "tags": {"addr:housenumber": "106", "addr:street": "Rua da Concei\u00e7\u00e3o", "amenity": "restaurant", "name": "Nicolau"}}, {"type": "node", "id": 2893281179, "lat": 41.1512695, "lon": -8.61089, "tags": {"amenity": "restaurant", "closed": "yes"}}, {"type": "node", "id": 2914558094, "lat": 41.1526081, "lon": -8.6082276, "tags": {"amenity": "restaurant", "name": "D. Quixote"}}, {"type": "node", "id": 2937847569, "lat": 41.1521258, "lon": -8.6073585, "tags": {"amenity": "restaurant", "name": "Al\u00e9m-Mar"}}, {"type": "node", "id": 2937868638, "lat": 41.1504169, "lon": -8.6075335, "tags": {"addr:housenumber": "764", "addr:street": "Rua Fernandes Tom\u00e1s", "amenity": "restaurant", "name": "bbGourmet", "opening_hours": "Mo-Th, Su 08:00-23:00; Fr, Sa 08:00-02:00", "phone": "222 011 531", "website": "https://www.bbgourmet.net/"}}, {"type": "node", "id": 2939521053, "lat": 41.1525976, "lon": -8.6076958, "tags": {"amenity": "restaurant", "name": "Churrasqueira Pinh\u00e3o"}}, {"type": "node", "id": 2975779301, "lat": 41.1510544, "lon": -8.6058753, "tags": {"amenity": "restaurant", "name": "Pasticeria"}}, {"type": "node", "id": 2975779303, "lat": 41.1514002, "lon": -8.6062993, "tags": {"amenity": "restaurant", "name": "Dom Duarte"}}, {"type": "node", "id": 2975779305, "lat": 41.1508873, "lon": -8.6063369, "tags": {"addr:city": "Porto", "addr:country": "PT", "addr:housenumber": "489", "addr:street": "Rua da Firmeza", "amenity": "restaurant", "name": "Taberna do Doutor"}}, {"type": "node", "id": 2975779307, "lat": 41.1508832, "lon": -8.60594, "tags": {"amenity": "restaurant", "name": "Porto d'Aromas"}}, {"type": "node", "id": 3151730581, "lat": 41.1467117, "lon": -8.6173813, "tags": {"addr:city": "Porto", "addr:country": "PT", "addr:housenumber": "44", "addr:street": "Campo dos M\u00e1rtires da P\u00e1tria", "amenity": "restaurant", "cuisine": "regional", "name": "O Retiro do Jardim"}}, {"type": "node", "id": 3160719979, "lat": 41.1603604, "lon": -8.6054476, "tags": {"addr:city": "Porto", "addr:country": "PT", "addr:housenumber": "1143", "addr:postcode": "4000-133", "addr:street": "Rua do Bonjardim", "amenity": "restaurant", "cuisine": "indian", "name": "Portugandhi", "opening_hours": "Mo-Th 12:00-15:00,19:00-22:30; Fr-Sa 12:00-15:00,19:00-00:30; Su off", "phone": "+351 223 322554", "website": "http://www.portugandhi.com/"}}, {"type": "node", "id": 3161092338, "lat": 41.1587881, "lon": -8.6334779, "tags": {"addr:city": "Porto", "addr:country": "PT", "addr:housenumber": "840", "addr:postcode": "4100-112", "addr:street": "Avenida da Boavista", "amenity": "restaurant", "contact:facebook": "www.facebook.com/Teppan.sushi.teppanyaki", "cuisine": "sushi", "name": "Teppan - Sushi & Teppanyaki", "opening_hours": "Mo-Th 12:00-15:00,19:00-23:00;Fr-Sa 12:00-15:00,19:00-00:00;Su 12:00-15:00,19:00-23:00", "phone": "+351 229 559204", "smoking": "no"}}, {"type": "node", "id": 3170300767, "lat": 41.181443, "lon": -8.609582, "tags": {"addr:city": "Porto", "addr:country": "PT", "addr:housenumber": "971", "addr:postcode": "4200-491", "addr:street": "Rua de S\u00e3o Tom\u00e9", "amenity": "restaurant", "name": "Coche Real", "phone": "+351 228 325636"}}, {"type": "node", "id": 3210023820, "lat": 41.1455758, "lon": -8.6134407, "tags": {"addr:housenumber": "16", "addr:street": "Rua Arquitecto Nicolau Nasoni", "amenity": "restaurant", "name": "Casa Bragan\u00e7a", "opening_hours": "Mo-Sa 11:30-15:30, 18:30-22:00"}}, {"type": "node", "id": 3223953612, "lat": 41.1492774, "lon": -8.6240241, "tags": {"addr:city": "Porto", "addr:country": "PT", "addr:housenumber": "598", "addr:postcode": "4050-379", "addr:street": "Rua Miguel Bombarda", "amenity": "restaurant", "cuisine": "burger", "name": "Bugo Art Burgers", "opening_hours": "Mo-Tu 12:00-15:00,19:30-23:30;Fr 12:00-15:00,19:30-24:00;Sa 12:00-16:00,19:30-24:00", "phone": "+351 226 062179", "smoking": "no", "website": "http://bugo.com.pt/"}}, {"type": "node", "id": 3223968740, "lat": 41.1565094, "lon": -8.6211287, "tags": {"addr:city": "Porto", "addr:country": "PT", "addr:housenumber": "665", "addr:postcode": "4050", "addr:street": "Rua da Boavista", "amenity": "restaurant", "cuisine": "regional;francesinha", "name": "Cervejaria Diu", "opening_hours": "Mo-Sa 12:00-02:00", "phone": "+351 222 011680", "smoking": "separated", "website": "https://www.facebook.com/diuboavista"}}, {"type": "node", "id": 3354856943, "lat": 41.1400251, "lon": -8.6155914, "tags": {"amenity": "restaurant", "contact:email": "bacalhauporto@bacalhauporto.pt", "contact:phone": "+351 960 378883", "contact:website": "http://bacalhauporto.com", "name": "Bacalhau"}}, {"type": "node", "id": 3354856945, "lat": 41.1438807, "lon": -8.6182277, "tags": {"amenity": "restaurant", "cuisine": "portuguese", "name": "Virtudes"}}, {"type": "node", "id": 3411872393, "lat": 41.1459471, "lon": -8.6100446, "tags": {"addr:city": "Porto", "addr:country": "PT", "addr:housenumber": "222", "addr:postcode": "4000-330", "addr:street": "Rua da Madeira", "amenity": "restaurant", "contact:email": "tapabento.porto@gmail.com", "contact:website": "www.tapabento.com", "cuisine": "mediterranean;portuguese;tapas", "name": "Tapabento", "opening_hours": "Mo-Su 12:00-24:00; Fr,Sa 00:00-02:00,12:00-24:00", "outdoor_seating": "yes", "phone": "+351 912 881272", "smoking": "separated"}}, {"type": "node", "id": 3442647361, "lat": 41.1477795, "lon": -8.6133177, "tags": {"amenity": "restaurant", "cuisine": "portuguese", "delivery": "no", "name": "Aviz", "smoking": "outside", "takeaway": "yes"}}, {"type": "node", "id": 3442647362, "lat": 41.1476655, "lon": -8.6131955, "tags": {"amenity": "restaurant", "cuisine": "portuguese", "name": "Book", "smoking": "outside"}}, {"type": "node", "id": 3444991242, "lat": 41.1763108, "lon": -8.5857108, "tags": {"addr:city": "Porto", "addr:housenumber": "2331", "addr:postcode": "4200-232", "addr:street": "Rua de Costa Cabral", "amenity": "restaurant", "description": "Francesinhas", "name": "Yuko Tavern", "opening_hours": "Mo-Sa 19:00-01:00", "phone": "+351 225 482 291", "website": "http://www.yuko.com.pt/"}}, {"type": "node", "id": 3457211704, "lat": 41.1435296, "lon": -8.6142499, "tags": {"addr:city": "Porto", "addr:country": "PT", "addr:housenumber": "32", "addr:street": "Rua das Flores", "amenity": "restaurant", "name": "Cantina 32", "phone": "+351 222 039069", "website": "http://www.cantina32.com"}}, {"type": "node", "id": 3474224188, "lat": 41.1409211, "lon": -8.6165485, "tags": {"addr:city": "Porto", "addr:country": "PT", "addr:housenumber": "12A", "addr:postcode": "4050-548", "addr:street": "Rua de S\u00e3o Francisco", "amenity": "restaurant", "delivery": "no", "diet:vegetarian": "yes", "name": "Casa da Horta", "opening_hours": "Tu-Sa 12:00-24:00", "phone": "+351 222 024123", "website": "http://casadahorta.pegada.net/"}}, {"type": "node", "id": 3540123559, "lat": 41.149713, "lon": -8.6142073, "tags": {"addr:housenumber": "199", "amenity": "restaurant", "name": "comme Ca", "website": "https://restaurantecommeca.wordpress.com/"}}, {"type": "node", "id": 3545361963, "lat": 41.1484413, "lon": -8.6155147, "tags": {"addr:city": "Porto", "addr:country": "PT", "addr:housenumber": "89", "addr:postcode": "4050-158", "addr:street": "Pra\u00e7a de Carlos Alberto", "amenity": "restaurant", "capacity": "35", "cuisine": "portuguese", "name": "Andor Violeta", "phone": "+351 222 016618", "website": "http://www.andorvileta.pt", "wheelchair": "limited"}}, {"type": "node", "id": 3615583459, "lat": 41.1453439, "lon": -8.6126587, "tags": {"addr:city": "Porto", "addr:country": "PT", "addr:housenumber": "60;62", "addr:postcode": "4050", "addr:street": "Rua dos Caldeireiros", "amenity": "restaurant", "name": "Adega Vila Me\u00e3"}}, {"type": "node", "id": 3622670566, "lat": 41.1492526, "lon": -8.6116365, "tags": {"addr:city": "Porto", "addr:country": "PT", "addr:housenumber": "28", "addr:postcode": "4000", "addr:street": "Rua de Ramalho Ortig\u00e3o", "amenity": "restaurant", "cuisine": "regional;portuguese", "name": "Cervejaria Bras\u00e3o", "opening_hours": "Mo-We 12:00-14:30, 19:00-24:00; Th-Sa 12:00-14:30, 19:00-02:00; Su 12:00-14:30, 19:00-24:00", "phone": "+351 934 158672", "website": "https://www.brasao.pt/"}}, {"type": "node", "id": 3622679110, "lat": 41.1764432, "lon": -8.5856618, "tags": {"addr:city": "Porto", "addr:housenumber": "2343;2345", "addr:postcode": "4200-233", "addr:street": "Rua de Costa Cabral", "amenity": "restaurant", "cuisine": "regional", "name": "O Paparico", "opening_hours": "Mo-Su 19:30-23:00", "phone": "+351 225 400 548", "website": "https://www.opaparico.com/"}}, {"type": "node", "id": 3651247727, "lat": 41.145959, "lon": -8.596312, "tags": {"addr:city": "Porto", "addr:country": "PT", "addr:street": "Avenida Rodrigues de Freitas", "amenity": "restaurant", "cuisine": "portuguese", "name": "Restaurante Snack-Bar Madureira's", "outdoor_seating": "no", "smoking": "no", "takeaway": "yes", "wheelchair": "limited"}}, {"type": "node", "id": 3691010236, "lat": 41.1468232, "lon": -8.6048827, "tags": {"amenity": "restaurant", "name": "O Tripeiro"}}, {"type": "node", "id": 3692643851, "lat": 41.1478143, "lon": -8.6075408, "tags": {"amenity": "restaurant", "name": "Porto Douro"}}, {"type": "node", "id": 3694222310, "lat": 41.1483682, "lon": -8.6096885, "tags": {"amenity": "restaurant", "cuisine": "seafood", "name": "Neptuno"}}, {"type": "node", "id": 3694406025, "lat": 41.1488211, "lon": -8.609809, "tags": {"amenity": "restaurant", "name": "Al Forno Baixa"}}, {"type": "node", "id": 3694532877, "lat": 41.1501137, "lon": -8.6092902, "tags": {"amenity": "restaurant", "name": "Olh\u00f3 Pap\u00e3o"}}, {"type": "node", "id": 3694543962, "lat": 41.1502793, "lon": -8.6093975, "tags": {"amenity": "restaurant", "name": "Cantinho do Bonjardim"}}, {"type": "node", "id": 3695870167, "lat": 41.1501419, "lon": -8.6058329, "tags": {"amenity": "restaurant", "name": "Rampinha"}}, {"type": "node", "id": 3696384285, "lat": 41.1481398, "lon": -8.6040681, "tags": {"amenity": "restaurant", "name": "O Z\u00e9", "wheelchair": "limited"}}, {"type": "node", "id": 3699879672, "lat": 41.1429264, "lon": -8.6175363, "tags": {"addr:housenumber": "17C", "addr:street": "Rua das Taipas", "amenity": "restaurant", "name": "As 7 Maravilhas", "phone": "+351 222 032116", "website": "https://www.as7maravilhas.com/"}}, {"type": "node", "id": 3699880226, "lat": 41.1426292, "lon": -8.6170193, "tags": {"amenity": "restaurant", "name": "Tasca Caseira"}}, {"type": "node", "id": 3707976442, "lat": 41.1465857, "lon": -8.6033032, "tags": {"amenity": "restaurant", "name": "Salm\u00e3o", "opening_hours": "Mo-Sa 11:00-15:00,18:00-23:00"}}, {"type": "node", "id": 3707977004, "lat": 41.1465544, "lon": -8.6034534, "tags": {"amenity": "restaurant", "name": "Mesa Antiga", "wheelchair": "no"}}, {"type": "node", "id": 3765172457, "lat": 41.1407529, "lon": -8.6166119, "tags": {"amenity": "restaurant", "cuisine": "italian", "name": "Tram", "wheelchair": "limited"}}, {"type": "node", "id": 3765179369, "lat": 41.1563911, "lon": -8.6047518, "tags": {"amenity": "restaurant", "name": "Bufet Fase", "name:fr": "58", "opening_hours": "Mo-Fr 12:00-16:00, 18:00-21:30"}}, {"type": "node", "id": 3776568196, "lat": 41.1460257, "lon": -8.6041749, "tags": {"addr:city": "Porto", "addr:country": "PT", "addr:housenumber": "72", "addr:postcode": "4000-393", "addr:street": "Pra\u00e7a dos Poveiros", "amenity": "restaurant", "cuisine": "regional", "name": "Santa Francesinha", "name:es": "Santa Francesinha", "phone": "+351 223 260 363", "website": "https://www.tripadvisor.de/Restaurant_Review-g189180-d2093056-Reviews-Casa_Guedes-Porto_Porto_District_Northern_Portugal.html", "wheelchair": "yes"}}, {"type": "node", "id": 3793950875, "lat": 41.1506706, "lon": -8.6388467, "tags": {"amenity": "restaurant", "cuisine": "regional", "delivery": "no", "name": "Planet\u00e1rio", "smoking": "outside", "takeaway": "no"}}, {"type": "node", "id": 3864194632, "lat": 41.1456093, "lon": -8.6296872, "tags": {"addr:city": "Porto", "addr:country": "PT", "addr:street": "Rua do Cais das Pedras", "amenity": "restaurant", "cuisine": "japanese", "name": "Gull", "smoking": "outside"}}, {"type": "node", "id": 3878021174, "lat": 41.1602191, "lon": -8.628335, "tags": {"amenity": "restaurant", "internet_access": "wlan", "internet_access:fee": "no", "name": "Bo\u00e9mia"}}, {"type": "node", "id": 3896080902, "lat": 41.1476425, "lon": -8.60668, "tags": {"addr:city": "Porto", "addr:housenumber": "161", "addr:postcode": "4000-450", "addr:street": "Rua de Santa Catarina", "alt_name": "Mengos Pastelaria Restaurante", "amenity": "restaurant", "name": "Mengos", "start_date": "1978", "wheelchair": "limited"}}, {"type": "node", "id": 3978742560, "lat": 41.1469508, "lon": -8.6101987, "tags": {"amenity": "restaurant", "name": "Costume Bistr\u00f4"}}, {"type": "node", "id": 3978743404, "lat": 41.1468418, "lon": -8.6102443, "tags": {"amenity": "restaurant", "name": "Braseira"}}, {"type": "node", "id": 3993075873, "lat": 41.1472336, "lon": -8.6083628, "tags": {"amenity": "restaurant", "name": "La Ricotta"}}, {"type": "node", "id": 4003450032, "lat": 41.1536923, "lon": -8.6096351, "tags": {"amenity": "restaurant", "cuisine": "chinese", "name": "Hong Kong Grande P\u00e1lacio", "name:pt": "Hong Kong Grande P\u00e1lacio", "opening_hours": "Mo-Su 12:00-15:00, 18:00-00:30"}}, {"type": "node", "id": 4024564889, "lat": 41.1459569, "lon": -8.6101607, "tags": {"amenity": "restaurant", "name": "Adega Quim"}}, {"type": "node", "id": 4024594525, "lat": 41.1459601, "lon": -8.6098843, "tags": {"amenity": "restaurant", "name": "Viseu no Porto"}}, {"type": "node", "id": 4025646592, "lat": 41.1460716, "lon": -8.6082786, "tags": {"addr:city": "Porto", "addr:housenumber": "174", "addr:postcode": "4000-452", "addr:street": "Rua 31 de Janeiro", "historic": "yes", "name": "Vicent", "shop": "clothes", "tourism": "attraction", "wikidata": "Q5047893"}}, {"type": "node", "id": 4025656791, "lat": 41.1460813, "lon": -8.6078751, "tags": {"addr:city": "Porto", "addr:housenumber": "200", "addr:street": "Rua 31 de Janeiro", "historic": "yes", "name": "Machado Joalheiro", "old_name": "Ourivesaria Cunha", "shop": "jewelry", "tourism": "attraction"}}, {"type": "node", "id": 4027106011, "lat": 41.1455401, "lon": -8.607606, "tags": {"amenity": "restaurant", "name": "Churrasqueira Brasa", "opening_hours": "Mo-Su 09:00-22:00", "toilets:wheelchair": "no", "wheelchair": "limited"}}, {"type": "node", "id": 4100762986, "lat": 41.1480652, "lon": -8.6495702, "tags": {"addr:street": "Rua do Ouro", "amenity": "restaurant", "name": "Tasquinha do Ouro", "opening_hours": "Mo-Sa 08:30-20:00", "phone": "+351226100021"}}, {"type": "node", "id": 4106360393, "lat": 41.148445, "lon": -8.6490948, "tags": {"amenity": "restaurant", "name": "Restaurante Tia Aninhas"}}, {"type": "node", "id": 4143616582, "lat": 41.1449948, "lon": -8.6124943, "tags": {"amenity": "restaurant", "cuisine": "african;fish;portuguese", "name": "Casa 31"}}, {"type": "node", "id": 4146938994, "lat": 41.1453788, "lon": -8.6291829, "tags": {"amenity": "restaurant", "cuisine": "tapas", "name": "Taberna do Cais das Pedras"}}, {"type": "node", "id": 4165132890, "lat": 41.1453412, "lon": -8.6131903, "tags": {"addr:housenumber": "100", "addr:street": "Rua Caldeireiros", "amenity": "restaurant", "name": "Miss Opo"}}, {"type": "node", "id": 4179082389, "lat": 41.1563007, "lon": -8.6293174, "tags": {"amenity": "restaurant", "description": "Japanese restaurant / sushi", "name": "Buri", "opening_hours": "Mo-Fr 12:00-15:00; Mo-Th, Su 20:00-23:00; Sa, Su 13:00-15:30; Fr, Sa 20:00-00:00", "phone": "226009244 / 910433941", "website": "buri.pt"}}, {"type": "node", "id": 4239325300, "lat": 41.1431646, "lon": -8.6149087, "tags": {"addr:city": "Porto", "addr:housenumber": "56", "addr:postcode": "4050-545", "addr:street": "Largo de S\u00e3o Domingos", "amenity": "restaurant", "cuisine": "portuguese", "description": "Picota - a mesa do largo, francesinhas, peticos, comida portuguesa, bebidas", "email": "mesa@picota.pt", "internet_access": "wlan", "name": "Picota", "outdoor_seating": "yes", "phone": "+351 22 200 60 24", "website": "http://www.picota.pt", "wheelchair": "yes"}}, {"type": "node", "id": 4239862889, "lat": 41.1496303, "lon": -8.6130529, "tags": {"addr:street": "Rua da Picaria", "amenity": "restaurant", "cuisine": "burger", "name": "baixa burger"}}, {"type": "node", "id": 4241119918, "lat": 41.1481737, "lon": -8.5862947, "tags": {"amenity": "restaurant", "name": "Idian Tandoori Restaurant"}}, {"type": "node", "id": 4241120675, "lat": 41.1499998, "lon": -8.6146717, "tags": {"addr:city": "Porto", "addr:housenumber": "106", "addr:street": "Rua da Concei\u00e7\u00e3o", "amenity": "restaurant", "cuisine": "burger", "name": "\u00d3 Maria"}}, {"type": "node", "id": 4241120789, "lat": 41.148421, "lon": -8.6140313, "tags": {"amenity": "restaurant", "diet:vegan": "yes", "diet:vegetarian": "yes", "name": "Cultura dos Sabores"}}, {"type": "node", "id": 4241354744, "lat": 41.1556981, "lon": -8.6023039, "tags": {"addr:city": "Porto", "addr:housenumber": "598", "addr:postcode": "4000-037", "addr:street": "Rua da Alegria", "amenity": "restaurant", "capacity": "60", "cuisine": "regional;internacional,_tradicional_Portuguesa", "description": "Restaurante panor\u00e2mico com magn\u00edfica paisagem sobre toda a cidade, mar e montanhas. Ponto mais elevado do Porto. Parque gr\u00e1tis Restaurant .with magnificent  view of all the town, ocean and mountains. Portuguese Traditional and International. Free Park.\n", "name": "Portucale Restaurant", "smoking": "isolated"}}, {"type": "node", "id": 4273681794, "lat": 41.1476042, "lon": -8.6153774, "tags": {"addr:city": "Porto", "addr:housenumber": "33", "addr:postcode": "4050-527", "addr:street": "Rua S\u00e1 de Noronha", "alt_name": "Restaurante Reitoria", "amenity": "restaurant", "cuisine": "regional,_steakhouse,_wine_bar", "ele": "1", "name": "Reitoria", "opening_hours": "12:00-24:00", "phone": "+351 927 608 628", "website": "https://www.reitoria.pt/"}}, {"type": "node", "id": 4278009290, "lat": 41.1513262, "lon": -8.6138836, "tags": {"addr:city": "Cedofeita, Santo Ildefonso, S\u00e9, Miragaia, S\u00e3o Nicolau e Vit\u00f3ria", "addr:housenumber": "130", "addr:postcode": "4050", "addr:street": "Rua dos M\u00e1rtires da Liberdade", "amenity": "restaurant", "contact:instagram": "https://www.instagram.com/entropia.porto/", "cuisine": "asian", "diet:lactose_free": "yes", "diet:vegan": "yes", "email": "entropia.porto@gmail.com", "facebook": "https://www.facebook.com/entropia.porto", "name": "Entropia", "opening_hours": "Th 19:00-23:00; Fr-Sa 12:30-15:00 19:00-23:00; Su 12:30-15:30"}}, {"type": "node", "id": 4295673490, "lat": 41.1501889, "lon": -8.6721308, "tags": {"amenity": "restaurant", "name": "Pedro Lemos ", "wikidata": "Q88811929"}}, {"type": "node", "id": 4306352458, "lat": 41.153109, "lon": -8.5877856, "tags": {"amenity": "restaurant", "name": "Bufete Os Compadres"}}, {"type": "node", "id": 4306352460, "lat": 41.1586068, "lon": -8.5838093, "tags": {"amenity": "restaurant", "name": "Restaurante Portas de S\u00e3o Roque"}}, {"type": "node", "id": 4309985889, "lat": 41.1582954, "lon": -8.6331693, "tags": {"amenity": "restaurant", "cuisine": "regional", "name": "Uga Uga"}}, {"type": "node", "id": 4313410592, "lat": 41.1560337, "lon": -8.6210023, "tags": {"amenity": "restaurant", "name": "Presun\u00e7\u00e3o e \u00c1gua Benta"}}, {"type": "node", "id": 4318701792, "lat": 41.1451816, "lon": -8.6135153, "tags": {"addr:housenumber": "137", "addr:street": "Rua dos Caldeireiros", "amenity": "restaurant", "name": "Caleireiros", "opening_hours": "Mo-Sa 13:00-15:00, 18:00-00:00"}}, {"type": "node", "id": 4354290607, "lat": 41.1464177, "lon": -8.603219, "tags": {"addr:housenumber": "75", "addr:street": "Largo da Ramadinha", "amenity": "restaurant", "name": "Salm\u00e3no", "name:en": "Salm\u00e3o", "name:pt": "Salm\u00e3o", "toilets:wheelchair": "no", "wheelchair": "limited"}}, {"type": "node", "id": 4376038476, "lat": 41.1473706, "lon": -8.6152366, "tags": {"addr:street": "Pra\u00e7a Gomes Teixeira", "amenity": "restaurant", "name": "Trinkas", "phone": "+351 222 032 108"}}, {"type": "node", "id": 4376038633, "lat": 41.1495098, "lon": -8.6049419, "tags": {"addr:housenumber": "535", "addr:street": "Rua Fernandes Tom\u00e1s", "amenity": "restaurant", "name": "A Case do Evaristo", "phone": "+351222011398", "website": "http://www.facebook.com/acasadoevaristo"}}, {"type": "node", "id": 4378211496, "lat": 41.1487819, "lon": -8.586944, "tags": {"amenity": "restaurant", "name": "A Viela", "opening_hours": "Mo-Su 08:00-24:00"}}, {"type": "node", "id": 4378211498, "lat": 41.1493229, "lon": -8.5864679, "tags": {"amenity": "restaurant", "name": "Eus\u00e9bio dos Frangos Take-Away", "opening_hours": "Mo-Su 09:00-22:00; Tu off", "takeaway": "yes"}}, {"type": "node", "id": 4378211510, "lat": 41.1493709, "lon": -8.5864551, "tags": {"amenity": "restaurant", "cuisine": "kebab;pizza", "name": "O Indiano", "opening_hours": "Mo-Su 09:00-22:00; Tu off", "takeaway": "yes"}}, {"type": "node", "id": 4395076910, "lat": 41.1630742, "lon": -8.572919, "tags": {"amenity": "restaurant", "name": "S. Gon\u00e7alo"}}, {"type": "node", "id": 4413751496, "lat": 41.156037, "lon": -8.6207784, "tags": {"addr:housenumber": "252", "addr:street": "Rua de An\u00edbal Cunha", "amenity": "restaurant", "name": "Restaurante Universal"}}, {"type": "node", "id": 4470178155, "lat": 41.1469808, "lon": -8.5964343, "tags": {"addr:city": "Porto", "addr:housenumber": "56", "addr:postcode": "4300-197", "addr:street": "Rua de Ferreira Cardoso", "amenity": "restaurant", "cuisine": "regional", "level": "0", "name": "Nova Era", "opening_hours": "09:00-00:00", "phone": "+351 22 536 0708", "takeaway": "yes", "website": "http://www.novaerarestaurante.com/", "wheelchair": "no"}}, {"type": "node", "id": 4475890895, "lat": 41.1479601, "lon": -8.6157847, "tags": {"addr:street": "Rua de Carlos Alberto", "amenity": "restaurant", "cuisine": "pizza", "diet:vegetarian": "yes", "name": "Mr. Pizza", "outdoor_seating": "yes"}}, {"type": "node", "id": 4498827290, "lat": 41.1620967, "lon": -8.6067632, "tags": {"amenity": "restaurant", "name": "Chamigo", "name:en": "Chamigo"}}, {"type": "node", "id": 4526777785, "lat": 41.1707367, "lon": -8.6561367, "tags": {"amenity": "restaurant", "name": "Restaurante Snack-Bar O Sult\u00e3o"}}, {"type": "node", "id": 4534545201, "lat": 41.1772545, "lon": -8.5881673, "tags": {"amenity": "restaurant", "name": "Churrasqueira Dom Brasas", "name:pt": "Currasqueira Dom Brasas"}}, {"type": "node", "id": 4552715143, "lat": 41.1433498, "lon": -8.6122805, "tags": {"amenity": "restaurant", "fixme": "aparentemente est\u00e1 fechado (pr\u00e9dio est\u00e1 \u00e0 venda), a confirmar", "name": "Taberna do Anjo"}}, {"type": "node", "id": 4552748334, "lat": 41.142469, "lon": -8.6100568, "tags": {"amenity": "restaurant", "cuisine": "chinese", "name": "Restaurante Chin\u00eas", "toilets:wheelchair": "no", "wheelchair": "limited"}}, {"type": "node", "id": 4552783884, "lat": 41.1431576, "lon": -8.6127014, "tags": {"amenity": "restaurant", "name": "Casti\u00e7o"}}, {"type": "node", "id": 4552786338, "lat": 41.1425802, "lon": -8.6133851, "tags": {"amenity": "restaurant", "name": "Portugu\u00eas de Gema"}}, {"type": "node", "id": 4552844256, "lat": 41.1445146, "lon": -8.6116163, "tags": {"addr:city": "Porto", "addr:housenumber": "298", "addr:street": "Rua Mouzinho da Silveira", "amenity": "restaurant", "cuisine": "sushi", "name": "Kanpai Downtown"}}, {"type": "node", "id": 4553000619, "lat": 41.1431775, "lon": -8.613441, "tags": {"addr:city": "Porto", "addr:housenumber": "166", "addr:postcode": "4050-416", "addr:street": "Rua de Mouzinho da Silveira", "amenity": "restaurant", "name": "Cantinho do Avillez", "phone": "+351 223227879", "website": "http://cantinhodoavillez.pt/cantinho-porto/"}}, {"type": "node", "id": 4553016820, "lat": 41.1426851, "lon": -8.6138519, "tags": {"amenity": "restaurant", "name": "Barrete Encarnado"}}, {"type": "node", "id": 4554071955, "lat": 41.1418372, "lon": -8.6135661, "tags": {"amenity": "restaurant", "name": "Ribermel"}}, {"type": "node", "id": 4554353181, "lat": 41.1407125, "lon": -8.6124241, "tags": {"amenity": "restaurant", "name": "Alzira"}}, {"type": "node", "id": 4554353182, "lat": 41.1407265, "lon": -8.6122629, "tags": {"amenity": "restaurant", "cuisine": "portuguese", "name": "Escondidinho do Barredo"}}, {"type": "node", "id": 4554388038, "lat": 41.1413062, "lon": -8.6128745, "tags": {"amenity": "restaurant", "name": "Portu's"}}, {"type": "node", "id": 4554544642, "lat": 41.1431424, "lon": -8.6099147, "tags": {"amenity": "restaurant", "name": "Carmelita Bistr\u00f4"}}, {"type": "node", "id": 4556163343, "lat": 41.1411992, "lon": -8.60861, "tags": {"amenity": "restaurant", "name": "Beira Douro"}}, {"type": "node", "id": 4565596979, "lat": 41.1481237, "lon": -8.6493503, "tags": {"addr:street": "Rua do Ouro", "amenity": "restaurant", "cuisine": "regional", "name": "Adega Rio Douro - Casa Piedade"}}, {"type": "node", "id": 4580404190, "lat": 41.1426735, "lon": -8.6162038, "tags": {"addr:housenumber": "70", "addr:street": "Rua de Belomonte", "amenity": "restaurant", "cuisine": "sandwich", "internet_access": "wlan", "name": "Puorto"}}, {"type": "node", "id": 4581763229, "lat": 41.1499646, "lon": -8.6732605, "tags": {"amenity": "restaurant", "name": "Museu dos Presuntos"}}, {"type": "node", "id": 4586105089, "lat": 41.150158, "lon": -8.6171014, "tags": {"name": "Rua de Miguel bombarda", "name:it": "Rua de Miguel Bombarda(Tutta)", "tourism": "attraction"}}, {"type": "node", "id": 4587108605, "lat": 41.1498961, "lon": -8.6145564, "tags": {"addr:housenumber": "63", "addr:street": "Rua da Concei\u00e7\u00e3o", "amenity": "restaurant", "cuisine": "mediterranean", "internet_access": "wlan", "name": "Flow", "name:pt": "Flow"}}, {"type": "node", "id": 4593193831, "lat": 41.1731297, "lon": -8.6551744, "tags": {"amenity": "restaurant", "name": "Restaurante Proa de Pereir\u00f3", "shop": "bakery"}}, {"type": "node", "id": 4606966389, "lat": 41.1464475, "lon": -8.6047763, "tags": {"addr:housenumber": "226", "addr:street": "Rua de Passos Manuel", "amenity": "restaurant", "cuisine": "local;portuguese;sandwich;steak_house", "name": "Caf\u00e9 Santiago", "opening_hours": "Mo-Sa 11:00-23:00", "website": "https://cafesantiago.pt/", "wheelchair": "limited"}}, {"type": "node", "id": 4606989599, "lat": 41.1655252, "lon": -8.6293883, "tags": {"addr:housenumber": "1196", "addr:postcode": "4250-365", "addr:street": "Rua Pedro Hispano", "amenity": "restaurant", "diet:vegan": "yes", "diet:vegetarian": "yes", "name": "Ess\u00eancia - Restaurante Vegetariano", "opening_hours": "Mo-Sa 12:30-15:00, 20:00-22:30", "phone": "+351 960 492 992", "reservation": "yes", "website": "http://www.essenciarestaurantevegetariano.com/"}}, {"type": "node", "id": 4608514182, "lat": 41.1438311, "lon": -8.6022764, "tags": {"amenity": "restaurant", "name": "Bufete Baia"}}, {"type": "node", "id": 4608585146, "lat": 41.1454773, "lon": -8.6021331, "tags": {"historic": "monument", "name": "Antigo Recolhimento da Esperan\u00e7a", "tourism": "attraction"}}, {"type": "node", "id": 4612031729, "lat": 41.1560582, "lon": -8.6212242, "tags": {"amenity": "restaurant", "cuisine": "regional", "name": "O Migalhas 2"}}, {"type": "node", "id": 4612842419, "lat": 41.1437147, "lon": -8.6044584, "tags": {"amenity": "restaurant", "name": "Adega Ribatejo"}}, {"type": "node", "id": 4612888035, "lat": 41.1438066, "lon": -8.6045872, "tags": {"amenity": "restaurant", "name": "A Minhota"}}, {"type": "node", "id": 4614807078, "lat": 41.1450516, "lon": -8.6041928, "tags": {"addr:housenumber": "228", "addr:street": "Rua Duque de Loul\u00e9", "amenity": "restaurant", "contact:facebook": "https://www.facebook.com/CasaArvoredoMundo/", "diet:vegan": "only", "name": "\u00c1rvore do Mundo"}}, {"type": "node", "id": 4614846723, "lat": 41.1451849, "lon": -8.6042372, "tags": {"amenity": "restaurant", "cuisine": "burger", "name": "Morfes"}}, {"type": "node", "id": 4614846725, "lat": 41.1451636, "lon": -8.6040656, "tags": {"amenity": "restaurant", "name": "Tasca Barriga Negra"}}, {"type": "node", "id": 4615862978, "lat": 41.1435761, "lon": -8.6024079, "tags": {"amenity": "restaurant", "name": "Bufete Su\u00ed\u00e7a"}}, {"type": "node", "id": 4615875108, "lat": 41.1434114, "lon": -8.6027164, "tags": {"amenity": "restaurant", "cuisine": "burger", "name": "Hamburgueria do Bairro"}}, {"type": "node", "id": 4621518200, "lat": 41.1434219, "lon": -8.6077491, "tags": {"addr:housenumber": "238", "addr:street": "Rua do Sol", "amenity": "restaurant", "cuisine": "sushi;japanese", "name": "Shiko", "opening_hours": "Mo 12:30-15:00;Tu-Sa 12:30-15:00, 20:00-23:00"}}, {"type": "node", "id": 4621625628, "lat": 41.1442108, "lon": -8.6058107, "tags": {"amenity": "restaurant", "cuisine": "regional", "name": "Biscuit"}}, {"type": "node", "id": 4675765486, "lat": 41.1837265, "lon": -8.5999819, "tags": {"amenity": "restaurant", "name": "O nosso armaz\u00e9m"}}, {"type": "node", "id": 4679272920, "lat": 41.143087, "lon": -8.6146285, "tags": {"addr:city": "Porto", "addr:housenumber": "84", "addr:street": "Largo de S\u00e3o Domingos", "amenity": "restaurant", "name": "Puro 4050"}}, {"type": "node", "id": 4680822490, "lat": 41.1440397, "lon": -8.6133825, "tags": {"addr:housenumber": "110", "addr:street": "Rua das Flores", "amenity": "restaurant", "name": "Mercearia das Flores", "name:pt": "Mercearia das flores"}}, {"type": "node", "id": 4689659295, "lat": 41.1530658, "lon": -8.6083816, "tags": {"addr:housenumber": "147", "addr:postcode": "4000-060", "addr:street": "Largo Doutor Tito Fontes", "amenity": "restaurant", "cuisine": "portuguese", "name": "Tapabento Trindade", "opening_hours": "Mo-Sa 07:00-23:55", "phone": "+351963477131", "website": "http://tapabento.com"}}, {"type": "node", "id": 4689669289, "lat": 41.1458494, "lon": -8.6033678, "tags": {"addr:housenumber": "5", "addr:postcode": "4000-098", "addr:street": "Passeio de S\u00e3o L\u00e1zaro", "amenity": "restaurant", "name": "Dama P\u00e9 de Cabra", "opening_hours": "Tu-Th 09:30-15:30; Fr-Sa 09:30-15:30, 19:00-23:00", "phone": "+351223196776", "wheelchair": "limited"}}, {"type": "node", "id": 4689678092, "lat": 41.1408311, "lon": -8.6110003, "tags": {"addr:housenumber": "14-16", "addr:postcode": "4050", "addr:street": "Rua da Lada", "amenity": "restaurant", "cuisine": "portuguese", "name": "Bacchus Vinci", "opening_hours": "We-Mo 10:30-00:00", "phone": "+351912852580"}}, {"type": "node", "id": 4689678193, "lat": 41.1484927, "lon": -8.615487, "tags": {"addr:housenumber": "83", "addr:postcode": "4050-158", "addr:street": "Pra\u00e7a de Carlos Alberto", "amenity": "restaurant", "cuisine": "portuguese", "name": "Camefeu", "opening_hours": "Mo-Su 06:30-22:30", "phone": "+351 937493557"}}, {"type": "node", "id": 4689785692, "lat": 41.1529548, "lon": -8.6079941, "tags": {"addr:housenumber": "680", "addr:postcode": "4000-124", "addr:street": "Rua do Bonjardim", "amenity": "restaurant", "cuisine": "portuguese", "name": "Restaurante Celta Endov\u00e9lico", "opening_hours": "Tu-Th 17:00-23:00; Fr 17:00-00:00; Sa 17:00-19:00", "phone": "+351962002820"}}, {"type": "node", "id": 4689869189, "lat": 41.1413553, "lon": -8.6129667, "tags": {"addr:housenumber": "36", "addr:street": "Rua dos Mercadores", "amenity": "restaurant", "name": "Taberna dos Mercadores", "opening_hours": "Tu-Su 12:30-23:00", "phone": "+351 222 010 510"}}, {"type": "node", "id": 4689924789, "lat": 41.1472406, "lon": -8.613968, "tags": {"addr:housenumber": "117", "addr:postcode": "4000", "addr:street": "Rua C\u00e2ndido dos Reis", "amenity": "restaurant", "name": "Tapas na Boca", "opening_hours": "We-Mo 07:30-23:00", "phone": "+351915203939"}}, {"type": "node", "id": 4708552364, "lat": 41.1615986, "lon": -8.6005267, "tags": {"amenity": "restaurant", "name": "Lima 5"}}, {"type": "node", "id": 4710940318, "lat": 41.1784389, "lon": -8.5842239, "tags": {"addr:city": "Porto", "addr:housenumber": "2598-2606", "addr:postcode": "4200-219", "addr:street": "Rua de Costa Cabral", "amenity": "restaurant", "cuisine": "regional", "name": "A Cozinha do Martinho", "opening_hours": "Mo-Sa 12:00-15:00, 19:00-22:00", "phone": "+351 224 961 859"}}, {"type": "node", "id": 4747813769, "lat": 41.1702815, "lon": -8.6721024, "tags": {"name": "N\u00facleo Rural", "tourism": "attraction"}}, {"type": "node", "id": 4750650968, "lat": 41.1602437, "lon": -8.6403418, "tags": {"addr:city": "Porto", "addr:housenumber": "1430", "addr:postcode": "4100-114", "addr:street": "Avenida da Boavista", "amenity": "restaurant", "cuisine": "brazilian", "name": "Restaurante Alto Astral", "opening_hours": "Mo-Fr 12:00-15:00, 19:00-23:00; Sa 19:00-0:00; Su 19:00-23:00"}}, {"type": "node", "id": 4750650969, "lat": 41.1604638, "lon": -8.6402828, "tags": {"addr:city": "Porto", "addr:housenumber": "1430", "addr:street": "Avenida da Boavista", "amenity": "restaurant", "cuisine": "indian", "name": "Restaurante Mendi"}}, {"type": "node", "id": 4764895242, "lat": 41.1449921, "lon": -8.623772, "tags": {"amenity": "restaurant", "name": "Sardinha Alf\u00e2ndega"}}, {"type": "node", "id": 4764895427, "lat": 41.1456992, "lon": -8.6033265, "tags": {"amenity": "restaurant", "name": "Dama P\u00e9 de Cabra"}}, {"type": "node", "id": 4775055726, "lat": 41.1531675, "lon": -8.6381706, "tags": {"amenity": "restaurant", "cuisine": "regional", "internet_access": "no", "level": "0", "name": "Alicantina", "outdoor_seating": "yes", "phone": "+351 226008455", "website": "http://alicantina.pt/"}}, {"type": "node", "id": 4812305742, "lat": 41.1443122, "lon": -8.6122856, "tags": {"addr:city": "Porto", "addr:housenumber": "249", "addr:street": "Rua de Mouzinho da Silveira", "amenity": "restaurant", "contact:facebook": "https://www.facebook.com/daTerraVegetariano", "contact:instagram": "https://www.instagram.com/daterra_vegetariano/", "craft": "caterer", "cuisine": "portuguese", "diet:gluten_free": "yes", "diet:vegan": "only", "name": "daTerra", "opening_hours": "Mo-Su 08:30-23:00", "phone": "223199257", "reservation": "yes", "self_service": "yes", "takeaway": "yes", "website": "https://www.daterra.pt/"}}, {"type": "node", "id": 4824721424, "lat": 41.1473691, "lon": -8.6010676, "tags": {"addr:housenumber": "404", "addr:street": "Rua Santo Ildefonso", "amenity": "restaurant", "name": "Euskalduna Studio", "website": "http://www.euskaldunastudio.pt"}}, {"type": "node", "id": 4825983121, "lat": 41.1498947, "lon": -8.619869, "tags": {"addr:housenumber": "273-282", "addr:street": "Rua de Miguel Bombarda", "amenity": "restaurant", "name": "Oficina"}}, {"type": "node", "id": 4831030810, "lat": 41.1603696, "lon": -8.6008023, "tags": {"addr:city": "Porto", "addr:housenumber": "961", "addr:postcode": "4000-048", "addr:street": "Rua da Alegria", "amenity": "restaurant", "cuisine": "regional", "name": "Estrela do Lima", "phone": "+351 225 505 795"}}, {"type": "node", "id": 4840143221, "lat": 41.1465877, "lon": -8.6149938, "tags": {"name": "Passeio Dos Clerigos", "name:pt": "Passeio Dos Clerigos", "tourism": "attraction"}}, {"type": "node", "id": 4840143921, "lat": 41.145264, "lon": -8.6157208, "tags": {"name": "Porto.", "tourism": "attraction", "website": "http://www.visitporto.travel/Visitar/Paginas/default.aspx"}}, {"type": "node", "id": 4860839959, "lat": 41.150647, "lon": -8.6100464, "tags": {"addr:city": "Porto", "addr:housenumber": "985", "addr:postcode": "4000-220", "addr:street": "Rua de Fernandes Tom\u00e1s", "alt_name": "Garden Porto Caf\u00e9", "amenity": "restaurant", "contact:mobile": "+351 925618179", "name": "Garden Porto", "opening_hours": "Mo-Su 08:30-19:30", "phone": "+351 22 110 8540", "website": "https://gardenporto.eatbu.com/"}}, {"type": "node", "id": 4868801574, "lat": 41.1452909, "lon": -8.6118978, "tags": {"addr:city": "Porto", "addr:housenumber": "36", "addr:postcode": "4050-618", "addr:street": "Rua Trindade Coelho", "amenity": "restaurant", "contact:email": "geral@thecorkhouse.pt", "contact:facebook": "https://www.facebook.com/restaurant.thecorkhouse/", "contact:phone": "+351 222011300", "contact:website": "http://thecorkhouse.pt/", "name": "The Cork House", "opening_hours": "Mo-Sa 12:00-00:00"}}, {"type": "node", "id": 4908911358, "lat": 41.1477789, "lon": -8.6149361, "tags": {"addr:housenumber": "57", "amenity": "restaurant", "name": "Pizza & Drinks"}}, {"type": "node", "id": 4908911472, "lat": 41.1479305, "lon": -8.614913, "tags": {"amenity": "restaurant", "name": "Steak n Shake"}}, {"type": "node", "id": 4917557621, "lat": 41.1426026, "lon": -8.6167072, "tags": {"amenity": "restaurant", "name": "Belos Aires", "name:pt": "Belos Aires"}}, {"type": "node", "id": 4921086921, "lat": 41.1585076, "lon": -8.6339171, "tags": {"addr:housenumber": "859", "addr:street": "Avenida da Boavista", "amenity": "restaurant", "cuisine": "regional;portuguese", "name": "Casa Isa", "name:pt": "Casa Isa"}}, {"type": "node", "id": 4921340165, "lat": 41.1445507, "lon": -8.6088179, "tags": {"amenity": "restaurant", "name": "Dom Miguel", "wheelchair": "no"}}, {"type": "node", "id": 4927968057, "lat": 41.1747979, "lon": -8.5847637, "tags": {"amenity": "restaurant", "name": "TidBit Ristorante Pizzeria"}}, {"type": "node", "id": 4935683322, "lat": 41.143568, "lon": -8.6180407, "tags": {"amenity": "restaurant", "diet:vegetarian": "yes", "name": "Porta 4", "name:pt": "Porta 4", "opening_hours": "PH,Mo-Su 19:30-23:30"}}, {"type": "node", "id": 4998013526, "lat": 41.1573279, "lon": -8.6101065, "tags": {"amenity": "restaurant", "cuisine": "portuguese;steak;grill", "name": "Casa Para\u00edso", "name:en": "Churrasqueira Para\u00edso", "name:pt": "Casa Para\u00edso"}}, {"type": "node", "id": 4998330431, "lat": 41.1529738, "lon": -8.6049022, "tags": {"addr:housenumber": "777", "addr:street": "Rua de Santa Catarina", "amenity": "restaurant", "name": "Churrascaria Fogo No Douro", "wheelchair": "limited"}}, {"type": "node", "id": 4998358426, "lat": 41.1545128, "lon": -8.6048092, "tags": {"amenity": "restaurant", "name": "Meidin Pizza", "name:en": "Meidin Pizza", "name:pt": "Meidin Pizza"}}, {"type": "node", "id": 5000456823, "lat": 41.1463194, "lon": -8.6045384, "tags": {"amenity": "restaurant", "cuisine": "grill;local;pizza;pasta;sandwich;seafood;portuguese", "name": "Casa Ribeiro", "wheelchair": "limited"}}, {"type": "node", "id": 5001825822, "lat": 41.1460116, "lon": -8.6042618, "tags": {"amenity": "restaurant", "cuisine": "portuguese", "name": "Baju", "wheelchair": "limited"}}, {"type": "node", "id": 5001825823, "lat": 41.146185, "lon": -8.6045515, "tags": {"addr:housenumber": "30", "addr:postcode": "4000-393", "addr:street": "Pra\u00e7a dos Poveiros", "amenity": "restaurant", "name": "Rep\u00fablica dos Cachorros", "nif": "510901298", "official_name": "Nuances Tropicais, Lda.", "phone": "+351 222 007 639", "website": "http://www.republicadoscachorros.pt/", "wheelchair": "limited"}}, {"type": "node", "id": 5023887152, "lat": 41.1483969, "lon": -8.6155466, "tags": {"addr:housenumber": "86", "addr:postcode": "4050-158", "addr:street": "Pra\u00e7a de Carlos Alberto", "amenity": "restaurant", "name": "Zenith", "name:en": "Zenith", "name:pt": "Zenith", "name:zh": "Zenith - Brunch & Cocktails Bar", "opening_hours": "Mo-Su 09:00-19:00"}}, {"type": "node", "id": 5032684521, "lat": 41.1455127, "lon": -8.6148698, "tags": {"amenity": "restaurant", "name": "Casa Portuguesa do Pastel de Bacalhau", "name:pt": "Casa portuguesa du pastel de bacalhau", "shop": "confectionery"}}, {"type": "node", "id": 5041666125, "lat": 41.1467708, "lon": -8.6025997, "tags": {"addr:street": "Rua de Santo Ildefonso", "amenity": "restaurant", "cuisine": "portuguese", "internet_access": "wlan", "name": "Pacanha", "name:en": "Pacanha cafe bar restaurant", "name:pt": "Pacanha"}}, {"type": "node", "id": 5063304825, "lat": 41.1711857, "lon": -8.6876575, "tags": {"amenity": "restaurant", "level": "0"}}, {"type": "node", "id": 5063304826, "lat": 41.1715005, "lon": -8.6878721, "tags": {"amenity": "restaurant", "name": "Cufra Grill", "name:pt": "Cufra Grill"}}, {"type": "node", "id": 5064100721, "lat": 41.1447277, "lon": -8.6185195, "tags": {"addr:housenumber": "1", "addr:street": "Rua Azevedo Albuquerque", "amenity": "restaurant", "email": "arvore.restaurante@gmail.com", "name": "\u00c1rvore", "name:pt": "\u00c1rvore", "phone": "+351919544881"}}, {"type": "node", "id": 5111919121, "lat": 41.1463614, "lon": -8.5930338, "tags": {"addr:housenumber": "176", "addr:street": "Rua do Hero\u00edsmo", "amenity": "restaurant", "name": "Cozinha do Manel", "phone": "351 22 536 3388"}}, {"type": "node", "id": 5118310522, "lat": 41.1407564, "lon": -8.6107394, "tags": {"addr:housenumber": "9", "addr:street": "Rua do Cais da Ribeira", "amenity": "restaurant", "name": "Casinha S\u00e3o Joao", "wheelchair": "no"}}, {"type": "node", "id": 5118379023, "lat": 41.1494101, "lon": -8.6223284, "tags": {"amenity": "restaurant", "name": "Rota do Ch\u00e1"}}, {"type": "node", "id": 5118388923, "lat": 41.1403593, "lon": -8.6141193, "tags": {"addr:housenumber": "111", "addr:street": "Cais da Estiva", "amenity": "restaurant", "name": "Wine Quay Bar"}}, {"type": "node", "id": 5118415321, "lat": 41.1488717, "lon": -8.6062625, "tags": {"addr:housenumber": "303", "addr:street": "Rua de Santa Catarina", "amenity": "restaurant", "name": "Saboriccia", "phone": "+351 22 099 6595"}}, {"type": "node", "id": 5118446523, "lat": 41.1496745, "lon": -8.6158886, "tags": {"addr:housenumber": "24", "addr:street": "Travessa de Cedofeita", "amenity": "restaurant", "name": "Rua Tapas& Music bar"}}, {"type": "node", "id": 5118446524, "lat": 41.1472098, "lon": -8.6135376, "tags": {"addr:housenumber": "141", "addr:street": "Rua do Conde de Vizela", "amenity": "restaurant", "name": "c\u00e1BAR\u00e9"}}, {"type": "node", "id": 5118446525, "lat": 41.1486136, "lon": -8.6492267, "tags": {"addr:housenumber": "55", "addr:street": "Rua do Senhor da Boa Morte", "amenity": "restaurant", "name": "O Antigo Carteiro Restaurante"}}, {"type": "node", "id": 5118451421, "lat": 41.1499897, "lon": -8.6144126, "tags": {"addr:housenumber": "94", "addr:street": "Rua da Concei\u00e7\u00e3o", "amenity": "restaurant", "name": "\u00c9leB\u00ea Centro"}}, {"type": "node", "id": 5118451422, "lat": 41.1408139, "lon": -8.6128833, "tags": {"addr:housenumber": "16", "addr:street": "Pra\u00e7a da Ribeira", "amenity": "restaurant", "name": "Ribeira Square Restaurante"}}, {"type": "node", "id": 5118451423, "lat": 41.1471576, "lon": -8.6135572, "tags": {"addr:housenumber": "141", "addr:street": "Rua do Conde de Vizela", "amenity": "restaurant", "name": "A despensa"}}, {"type": "node", "id": 5118451424, "lat": 41.1494012, "lon": -8.6129473, "tags": {"addr:city": "Porto", "addr:housenumber": "68", "addr:street": "Rua da Picaria", "amenity": "restaurant", "cuisine": "regional;portuguese;traditional", "name": "T\u00e1bua Rasa", "phone": "+351223197789", "website": "www.tabua-rasa.com"}}, {"type": "node", "id": 5118451425, "lat": 41.1474916, "lon": -8.6133443, "tags": {"addr:housenumber": "73", "addr:street": "Rua da F\u00e1brica", "amenity": "restaurant", "name": "Ostras&Coisas Restaurante SA"}}, {"type": "node", "id": 5119711324, "lat": 41.1610977, "lon": -8.6583032, "tags": {"addr:city": "Porto", "addr:street": "Rua Jorge Reinel", "amenity": "restaurant", "cuisine": "regional", "name": "Lareia - Serralves", "source": "Local", "website": "www.restaurantelareira.pt"}}, {"type": "node", "id": 5120113633, "lat": 41.1627577, "lon": -8.6621497, "tags": {"addr:city": "Porto", "addr:street": "Rua de T\u00e2nger", "amenity": "restaurant", "cuisine": "international", "name": "Pateo de T\u00e2nger", "source": "Local", "website": "www.facebook.com/pateodetanger"}}, {"type": "node", "id": 5131550322, "lat": 41.1605215, "lon": -8.6050231, "tags": {"amenity": "restaurant", "cuisine": "italian", "name": "Mamma Mia"}}, {"type": "node", "id": 5141758923, "lat": 41.1421115, "lon": -8.6181868, "tags": {"amenity": "restaurant", "description": "Restaurante com varanda virada para o rio Douro", "name": "Intrigo", "opening_hours": "Mo-Su 12:00-22:00", "website": "https://m.facebook.com/intrigobreadandsoul"}}, {"type": "node", "id": 5159458121, "lat": 41.1745332, "lon": -8.584161, "tags": {"addr:street": "Avenida de Fern\u00e3o de Magalh\u00e3es", "amenity": "restaurant", "internet_access": "wlan", "name": "Top\u00e1zio"}}, {"type": "node", "id": 5165234721, "lat": 41.1491328, "lon": -8.6118203, "tags": {"addr:street": "Rua de Ramalho Ortig\u00e3o", "amenity": "restaurant", "name": "Cervejaria Bras\u00e3o Aliados"}}, {"type": "node", "id": 5195044421, "lat": 41.1477612, "lon": -8.608317, "tags": {"amenity": "restaurant", "name": "Palmeira"}}, {"type": "node", "id": 5218930721, "lat": 41.1650347, "lon": -8.6110431, "tags": {"addr:housenumber": "783", "addr:street": "Rua do Vale Formoso", "amenity": "restaurant", "cuisine": "portuguese", "name": "Rito"}}, {"type": "node", "id": 5223167123, "lat": 41.1476875, "lon": -8.6122239, "tags": {"amenity": "restaurant", "name": "tasc\u00f6"}}, {"type": "node", "id": 5223167124, "lat": 41.1481583, "lon": -8.6153437, "tags": {"amenity": "restaurant", "name": "Solar Moinho de Vento", "opening_hours": "Mo-Sa 12:00-15:00, 19:00-22:00; Su 12:30-15:00"}}, {"type": "node", "id": 5223287625, "lat": 41.1485509, "lon": -8.6148807, "tags": {"amenity": "restaurant", "name": "Solar Moinho de Vento"}}, {"type": "node", "id": 5223771708, "lat": 41.1426925, "lon": -8.6143937, "tags": {"amenity": "restaurant", "name": "10 em S\u00e3o Domingos", "outdoor_seating": "yes", "takeaway": "yes"}}, {"type": "node", "id": 5254791422, "lat": 41.1483502, "lon": -8.6151285, "tags": {"amenity": "restaurant", "name": "Solar Moinho de Vento"}}, {"type": "node", "id": 5278909712, "lat": 41.1471075, "lon": -8.6076402, "tags": {"addr:city": "Porto", "addr:housenumber": "226", "addr:street": "Rua de Passos Manuel", "addr:unit": "1", "amenity": "restaurant", "capacity": "200", "cuisine": "sandwich;regional;steak_house", "name": "Caf\u00e9 Santiago", "opening_hours": "Mo-Su 10:00-22:00", "smoking": "no", "takeaway": "yes"}}, {"type": "node", "id": 5316076222, "lat": 41.1482651, "lon": -8.6122349, "tags": {"addr:housenumber": "203", "addr:postcode": "4050-032", "addr:street": "Rua do Almada", "amenity": "restaurant", "cuisine": "portuguese;italian", "name": "Ris8tto da Baixa", "opening_hours": "Mo-Su 11:00-00:00", "phone": "+351 22 316 2119", "website": "http://www.ris8tto.com/"}}, {"type": "node", "id": 5325836974, "lat": 41.1464622, "lon": -8.6149325, "tags": {"addr:city": "Porto", "addr:housenumber": "151", "addr:postcode": "4050-162", "addr:street": "Rua das Carmelitas", "amenity": "restaurant", "email": "info@clerigos.net", "name": "Cl\u00e9rigos", "phone": "+351 223 400 770", "website": "http://clerigos.net"}}, {"type": "node", "id": 5334374621, "lat": 41.1476126, "lon": -8.6122022, "tags": {"amenity": "restaurant", "name": "MUU Steakhouse"}}, {"type": "node", "id": 5334374623, "lat": 41.150382, "lon": -8.6117833, "tags": {"amenity": "restaurant", "name": "Entre Tanto"}}, {"type": "node", "id": 5348077822, "lat": 41.1443837, "lon": -8.6122811, "tags": {"addr:housenumber": "109", "addr:street": "Rua Afonso Martins Alho", "amenity": "restaurant", "name": "Voltaria Petisqueria"}}, {"type": "node", "id": 5351739221, "lat": 41.1491431, "lon": -8.604148, "tags": {"amenity": "restaurant", "name": "Leit\u00f5es Palace"}}, {"type": "node", "id": 5357415521, "lat": 41.1489833, "lon": -8.6121967, "tags": {"amenity": "restaurant", "name": "Frankie HotDogs"}}, {"type": "node", "id": 5357415621, "lat": 41.1483828, "lon": -8.6121397, "tags": {"amenity": "restaurant", "name": "A Lojinha do Leit\u00e3o"}}, {"type": "node", "id": 5370574321, "lat": 41.1502446, "lon": -8.6119874, "tags": {"amenity": "restaurant", "name": "Lhau ! Lhau ! Maria !"}}, {"type": "node", "id": 5397410935, "lat": 41.1712156, "lon": -8.6788371, "tags": {"name": "Entrada Norte / da Circunvala\u00e7\u00e3o", "tourism": "attraction"}}, {"type": "node", "id": 5397410937, "lat": 41.1699985, "lon": -8.6799576, "tags": {"name": "Esta\u00e7\u00e3o Meteorol\u00f3gica", "substation": "yes", "tourism": "attraction"}}, {"type": "node", "id": 5397410942, "lat": 41.1709677, "lon": -8.6742939, "tags": {"name": "S\u00edtio das Cam\u00e9lias", "tourism": "attraction"}}, {"type": "node", "id": 5397410951, "lat": 41.169485, "lon": -8.6813739, "tags": {"name": "Estadia do Mirante", "tourism": "attraction"}}, {"type": "node", "id": 5397410952, "lat": 41.1684937, "lon": -8.678937, "tags": {"name": "Estadia dos Pl\u00e1tanos", "tourism": "attraction"}}, {"type": "node", "id": 5397410953, "lat": 41.1679152, "lon": -8.6784998, "tags": {"name": "Ponte das Esferas", "tourism": "attraction"}}, {"type": "node", "id": 5397410989, "lat": 41.1703297, "lon": -8.6721934, "tags": {"name": "Centro de Educa\u00e7\u00e3o Ambiental", "tourism": "attraction"}}, {"type": "node", "id": 5397410996, "lat": 41.1681963, "lon": -8.6814636, "tags": {"name": "Miradouro da Nora", "tourism": "attraction"}}, {"type": "node", "id": 5494274795, "lat": 41.1575098, "lon": -8.6275814, "tags": {"addr:city": "Porto", "addr:housenumber": "313", "addr:street": "Avenida da Boavista", "amenity": "restaurant", "internet_access": "wlan", "name": "Restaurante Churrasc\u00e3o Ga\u00facho", "opening_hours": "Mo-Sa 12:00-15:30,19:00-23:00"}}, {"type": "node", "id": 5531827968, "lat": 41.1561959, "lon": -8.6192333, "tags": {"addr:housenumber": "692", "addr:street": "Rua de Cedofeita", "amenity": "restaurant", "cuisine": "regional", "delivery": "no", "name": "Caf\u00e9 Restaurante Universal", "opening_hours": "Mo-Sa 12:00-15:30,18:30-22:00", "outdoor_seating": "no", "smoking": "no", "takeaway": "yes", "wheelchair": "limited"}}, {"type": "node", "id": 5536402023, "lat": 41.1462475, "lon": -8.6047201, "tags": {"amenity": "restaurant", "name": "\u00e9LeB\u00e9 Baixa", "wheelchair": "no"}}, {"type": "node", "id": 5552228421, "lat": 41.1464225, "lon": -8.6139293, "tags": {"amenity": "restaurant", "cuisine": "pizza"}}, {"type": "node", "id": 5600625322, "lat": 41.1473032, "lon": -8.5875102, "tags": {"addr:street": "Rua do Freixo", "amenity": "restaurant", "name": "Casa Aleixo", "name:en": "Aleixo house"}}, {"type": "node", "id": 5600625323, "lat": 41.1427843, "lon": -8.6131431, "tags": {"addr:street": "Largo da Penaventosa", "amenity": "restaurant", "cuisine": "portuguese", "name": "Cerca Velha"}}, {"type": "node", "id": 5618476591, "lat": 41.1556414, "lon": -8.6184218, "tags": {"addr:city": "Porto", "addr:housenumber": "52", "addr:postcode": "4050-257", "addr:street": "Travessa da Figueir\u00f4a", "amenity": "restaurant", "cuisine": "mediterranean;portuguese;european", "name": "Arco da Velha, Bistro & Wine Bar", "opening_hours": "Tu-Th 19:00-23:00; Fr,Sa 19:00-24:00", "outdoor_seating": "yes", "phone": "+351 933 681 474", "smoking": "outside", "website": "https://arcodavelha.wordpress.com"}}, {"type": "node", "id": 5618476596, "lat": 41.1554712, "lon": -8.6186353, "tags": {"addr:city": "Porto", "addr:housenumber": "28", "addr:postcode": "4050-257", "addr:street": "Travessa da Figueir\u00f4a", "amenity": "restaurant", "cuisine": "japanese;sushi", "name": "Lapamaki", "opening_hours": "Tu-Su 19:00-23:00", "phone": "+351 220 177 276", "takeaway": "yes"}}, {"type": "node", "id": 5626594321, "lat": 41.1627232, "lon": -8.6108552, "tags": {"addr:housenumber": "1065", "addr:postcode": "4200-202", "addr:street": "Rua da Constitui\u00e7\u00e3o", "amenity": "restaurant", "name": "Augusto Restaurante", "opening_hours": "Mo-Su 09:00-22:00", "phone": "22 502 0750"}}, {"type": "node", "id": 5635099123, "lat": 41.1448938, "lon": -8.612511, "tags": {"amenity": "restaurant", "cuisine": "seafood", "name": "Arcos"}}, {"type": "node", "id": 5640956822, "lat": 41.1451354, "lon": -8.6059458, "tags": {"addr:housenumber": "38", "addr:postcode": "4000-198", "addr:street": "Rua de Entreparedes", "amenity": "restaurant", "name": "Aurora"}}, {"type": "node", "id": 5656385722, "lat": 41.1452537, "lon": -8.6126601, "tags": {"addr:city": "Porto", "addr:housenumber": "73", "addr:postcode": "4000", "addr:street": "Rua dos Caldeireiros", "amenity": "restaurant", "cuisine": "portuguese", "name": "Novo Mondo"}}, {"type": "node", "id": 5693183958, "lat": 41.1452764, "lon": -8.6114983, "tags": {"amenity": "restaurant", "name": "Com Cuore (gluten free)", "opening_hours": "Mo-Su 10:30-19:30"}}, {"type": "node", "id": 5707312521, "lat": 41.1452583, "lon": -8.6136715, "tags": {"amenity": "restaurant", "name": "Folias de Baco"}}, {"type": "node", "id": 5707386621, "lat": 41.140613, "lon": -8.6138524, "tags": {"amenity": "restaurant", "name": "Casa Lopes"}}, {"type": "node", "id": 5736895821, "lat": 41.1503534, "lon": -8.6069107, "tags": {"addr:housenumber": "490", "addr:street": "Rua de S\u00e1 da Bandeira", "amenity": "restaurant", "cuisine": "portuguese", "internet_access": "wlan", "name": "Bulha"}}, {"type": "node", "id": 5749678021, "lat": 41.1436766, "lon": -8.6210954, "tags": {"addr:housenumber": "123", "addr:street": "Rua de Miragaia", "amenity": "restaurant", "name": "Taberna do Barqueiro", "opening_hours": "We-Th 11:00-22:30; Fr-Sa 11:00-23:00; Mo 11:00-22:30; Tu 11:00-16:00", "phone": "+351937691732"}}, {"type": "node", "id": 5782916553, "lat": 41.1492361, "lon": -8.6166064, "tags": {"addr:housenumber": "102", "addr:street": "Travessa do Carregal", "amenity": "restaurant", "cuisine": "regional", "name": "A Taberna do Carregal", "opening_hours": "Mo-Sa 12:00-15:00,19:30-22:00"}}, {"type": "node", "id": 5796480530, "lat": 41.1453307, "lon": -8.6112159, "tags": {"addr:city": "Porto", "addr:housenumber": "16", "addr:street": "Pra\u00e7a de Almeida Garrett", "amenity": "restaurant", "name": "Sabores da Invicta - Confeitaria, Restaurante, Sal\u00e3o de Ch\u00e1"}}, {"type": "node", "id": 5796669237, "lat": 41.1443536, "lon": -8.6127117, "tags": {"amenity": "restaurant", "name": "Mercador Caf\u00e9"}}, {"type": "node", "id": 5832101685, "lat": 41.1476066, "lon": -8.6120471, "tags": {"addr:city": "Porto", "addr:country": "PT", "addr:housenumber": "160", "addr:postcode": "4000-196", "addr:street": "Rua do Almada", "amenity": "restaurant", "name": "Francesinhas da Baixa", "phone": "+351 912 551 855", "website": "https://www.facebook.com/francesinhasalfornodabaixa"}}, {"type": "node", "id": 5846945686, "lat": 41.1450171, "lon": -8.6151989, "tags": {"addr:street": "Rua de S\u00e3o Bento da Vit\u00f3ria", "amenity": "restaurant", "name": "Brasil", "opening_hours": "We-Mo 09:00-23:00", "phone": "+351 22 200 1002"}}, {"type": "node", "id": 5856752085, "lat": 41.1433355, "lon": -8.611308, "tags": {"addr:city": "Porto", "addr:street": "Rua Escura", "amenity": "restaurant", "name": "Varanda da Saudade"}}, {"type": "node", "id": 5858949487, "lat": 41.1582946, "lon": -8.6322859, "tags": {"amenity": "restaurant", "name": "Bo La Falafel"}}, {"type": "node", "id": 5862502988, "lat": 41.1445901, "lon": -8.6123651, "tags": {"addr:street": "Rua das Flores", "name": "Rua das Flores", "name:en": "Street Art installations", "tourism": "attraction"}}, {"type": "node", "id": 5890338087, "lat": 41.1521014, "lon": -8.6063359, "tags": {"amenity": "restaurant", "name": "Negra Cafe"}}, {"type": "node", "id": 5906124223, "lat": 41.1413555, "lon": -8.6130436, "tags": {"addr:housenumber": "36", "addr:street": "Rua dos Mercadores", "amenity": "restaurant", "name": "Taberna dos Mercadores", "opening_hours": "Tu-Su 12:30-15:30, 19:00-23:00", "phone": "+351 222 010 510"}}, {"type": "node", "id": 5907719886, "lat": 41.1425728, "lon": -8.6166534, "tags": {"addr:housenumber": "96", "addr:street": "Rua de Belomonte", "amenity": "restaurant", "cuisine": "seafood", "name": "Adega Mercearia Bebe Se Mal", "opening_hours": "Tu-Su 19:00-00:00", "phone": "+351 911 119 909"}}, {"type": "node", "id": 5908100686, "lat": 41.1453185, "lon": -8.6041696, "tags": {"addr:housenumber": "411", "addr:street": "Avenida de Rodrigues de Freitas", "amenity": "restaurant", "cuisine": "portuguese;mediterranean", "name": "Patio do Duque", "opening_hours": "Tu-Th 18:00-23:00; Fr-Sa 18:00-00:00", "phone": "+351910241451", "wheelchair": "limited"}}, {"type": "node", "id": 5910066885, "lat": 41.1527956, "lon": -8.6333076, "tags": {"addr:city": "Porto", "addr:housenumber": "416", "addr:postcode": "4150-170", "addr:street": "Rua do Campo Alegre", "amenity": "restaurant", "cuisine": "japanese", "email": "reservas@ikeda.pt", "name": "Ikeda", "phone": "+351 915 499 363", "website": "http://www.ikeda.pt/"}}, {"type": "node", "id": 5910078619, "lat": 41.1523034, "lon": -8.6350846, "tags": {"addr:city": "Porto", "addr:housenumber": "553", "addr:postcode": "4150-179", "addr:street": "Rua do Campo Alegre", "amenity": "restaurant", "name": "Rem\u00e9dio Santo", "opening_hours": "Mo-Sa 12:00-15:00, 19:30-22:30", "website": "https://www.facebook.com/REMEDIOSANTOporto/"}}, {"type": "node", "id": 5915298486, "lat": 41.1501938, "lon": -8.6756494, "tags": {"addr:housenumber": "97", "addr:street": "Rua da Senhora da Luz", "amenity": "restaurant", "name": "Tentacoes no Prato", "opening_hours": "Tu-Sa 12:30-15:00, 19:30-22:00; Su 12:30-15:00", "phone": "+351226182738"}}, {"type": "node", "id": 5915299085, "lat": 41.1424322, "lon": -8.6156957, "tags": {"addr:housenumber": "191", "addr:street": "Rua de O Com\u00e9rcio do Porto", "amenity": "restaurant", "name": "Bota & Bira", "opening_hours": "Mo-Sa 12:00-15:00, 19:00-23:00", "phone": "+351 960 244 918"}}, {"type": "node", "id": 5915346085, "lat": 41.1453334, "lon": -8.6131136, "tags": {"addr:housenumber": "121", "addr:street": "Rua dos Caldeireiros", "amenity": "restaurant", "name": "Restaurante Cana Verde", "opening_hours": "Mo-Th 11:30-14:30; Fr 11:30-14:30, 19:30-01:00", "phone": "+351222018042"}}, {"type": "node", "id": 5915346285, "lat": 41.1462045, "lon": -8.6052648, "tags": {"addr:housenumber": "68", "addr:street": "Rua de Santo Ildefonso", "amenity": "restaurant", "name": "Gondarem Baixa", "phone": "+351223287877"}}, {"type": "node", "id": 5915428086, "lat": 41.1464223, "lon": -8.6045534, "tags": {"addr:housenumber": "118", "addr:street": "Rua de Santo Ildefonso", "amenity": "restaurant", "name": "eLeBe Baixa", "opening_hours": "Mo 18:00-23:00; We 18:00-23:00; Th-Su 11:00-23:00", "phone": "+351222032455", "wheelchair": "no"}}, {"type": "node", "id": 5915446485, "lat": 41.1526304, "lon": -8.6779491, "tags": {"addr:housenumber": "424", "addr:street": "Rua da Senhora da Luz", "amenity": "restaurant", "name": "Casa Rocha", "opening_hours": "Mo-Su 12:00-15:00, 19:00-23:00", "phone": "+351965595556"}}, {"type": "node", "id": 5915520403, "lat": 41.1497529, "lon": -8.6744526, "tags": {"addr:housenumber": "63", "addr:street": "Esplanada do Castelo", "amenity": "restaurant", "name": "A Capoeira", "opening_hours": "Mo-Su 12:30-14:30, 20:00-23:00", "phone": "+351226181589"}}, {"type": "node", "id": 5961210575, "lat": 41.1447899, "lon": -8.6124012, "tags": {"amenity": "restaurant", "name": "Tasquinha dos Lo\u00edos"}}, {"type": "node", "id": 5970509388, "lat": 41.143752, "lon": -8.613024, "tags": {"amenity": "restaurant", "name": "Tapisco"}}, {"type": "node", "id": 5976433985, "lat": 41.1431024, "lon": -8.6139201, "tags": {"amenity": "restaurant", "cuisine": "chinese", "name": "Mar Norte", "name:zh": "\u5317\u6d77\u9152\u697c"}}, {"type": "node", "id": 6013614686, "lat": 41.1418554, "lon": -8.6137648, "tags": {"amenity": "restaurant", "cuisine": "portuguese", "name": "Tapas 65"}}, {"type": "node", "id": 6018289992, "lat": 41.1405942, "lon": -8.6126072, "tags": {"addr:city": "Porto", "addr:housenumber": "57; 58; 59; 60", "addr:street": "Rua de Cima do Muro", "amenity": "restaurant", "cuisine": "tapas", "name": "Ribeira 50"}}, {"type": "node", "id": 6019390148, "lat": 41.1434239, "lon": -8.6209387, "tags": {"amenity": "restaurant", "name": "Alf\u00e2ndega Douro"}}, {"type": "node", "id": 6032796585, "lat": 41.1497971, "lon": -8.6151581, "tags": {"amenity": "restaurant", "name": "Museu d\u2019Av\u00f3", "opening_hours": "Mo-Sa 20:00-04:00"}}, {"type": "node", "id": 6032865585, "lat": 41.1443166, "lon": -8.6155732, "tags": {"addr:housenumber": "48", "addr:street": "Rua de S\u00e3o Bento da Vit\u00f3ria", "amenity": "restaurant", "name": "Taberna d\u2019Av\u00f3"}}, {"type": "node", "id": 6058416686, "lat": 41.1459592, "lon": -8.6063698, "tags": {"addr:housenumber": "12A", "addr:postcode": "4000-463", "addr:street": "Pra\u00e7a da Batalha", "amenity": "restaurant", "name": "Cervejaria Artesanal Levare", "name:en": "Levare Craft Brewery", "opening_hours": "Th-Tu 12:00-00:00", "phone": "222059118", "website": "https://levare.pt/"}}, {"type": "node", "id": 6113095885, "lat": 41.1434573, "lon": -8.617551, "tags": {"amenity": "restaurant", "name": "Capela 51"}}, {"type": "node", "id": 6116709985, "lat": 41.1498886, "lon": -8.623089, "tags": {"amenity": "restaurant", "name": "Frida"}}, {"type": "node", "id": 6120836025, "lat": 41.1490172, "lon": -8.6202165, "tags": {"amenity": "restaurant", "name": "Restaurante Pimenta Rosa"}}, {"type": "node", "id": 6128236686, "lat": 41.1499265, "lon": -8.6742505, "tags": {"addr:housenumber": "1150", "addr:postcode": "4150-202", "addr:street": "Rua do Padre Lu\u00eds Cabral", "amenity": "restaurant", "cuisine": "italian", "name": "Pizzaria Casa da Foz", "name:es": "Pizzer\u00eda Casa da Foz", "opening_hours": "24/7", "phone": "+351 22 617 7636", "website": "http://casadafoz.pt"}}, {"type": "node", "id": 6142335228, "lat": 41.1464627, "lon": -8.6021514, "tags": {"addr:housenumber": "51", "addr:postcode": "4000-508", "addr:street": "Passeio de S\u00e3o L\u00e1zaro", "amenity": "restaurant", "cuisine": "burger; sandwich", "diet:vegetarian": "yes", "facebook": "facebook.com/TasquinhaDoCaco", "name": "Tasquinha do Caco", "opening_hours": "Mo-Th 12:00-15:00, 19:30-22:00; Fr, Sa 12:00-15:00, 19:30-23:30; Su 19:00-22:30; PH 12:30-15:30,19:30-22:30", "phone": "+351 224 940 183", "toilets:wheelchair": "no", "wheelchair": "limited"}}, {"type": "node", "id": 6142758486, "lat": 41.148409, "lon": -8.6409896, "tags": {"addr:housenumber": "680", "addr:street": "Rua do Ouro", "name": "Porto Bridge Climb", "tourism": "attraction"}}, {"type": "node", "id": 6147487385, "lat": 41.1402473, "lon": -8.6152951, "tags": {"amenity": "restaurant", "name": "Gomos de Saudade"}}, {"type": "node", "id": 6152900785, "lat": 41.1413602, "lon": -8.6149583, "tags": {"addr:housenumber": "4050-450", "addr:street": "Rua do Infante Dom Henrique", "name": "Pra\u00e7a do Infante Dom Henrique", "name:en": "Monumento ao Infante Dom Henrique", "name:zh": "\u6069\u91cc\u514b\u738b\u5b50\u5ee3\u5834", "opening_hours": "24/7", "tourism": "attraction"}}, {"type": "node", "id": 6168057685, "lat": 41.1488678, "lon": -8.6093863, "tags": {"addr:housenumber": "312", "addr:postcode": "4000-124", "addr:street": "Rua do Bonjardim", "amenity": "restaurant", "name": "Pedro dos frangos 2", "opening_hours": "Th-Tu 11:00-00:00"}}, {"type": "node", "id": 6181655185, "lat": 41.1508106, "lon": -8.6141933, "tags": {"amenity": "restaurant", "diet:vegan": "yes", "name": "O Burrito", "phone": "+351 22 203 2167"}}, {"type": "node", "id": 6209017285, "lat": 41.1427665, "lon": -8.6147312, "tags": {"amenity": "restaurant", "name": "DOP"}}, {"type": "node", "id": 6214921285, "lat": 41.1430637, "lon": -8.6173866, "tags": {"amenity": "restaurant", "name": "Hungry Biker"}}, {"type": "node", "id": 6214952585, "lat": 41.1562482, "lon": -8.680924, "tags": {"addr:housenumber": "454", "addr:postcode": "4150-153", "addr:street": "Avenida do Brasil", "amenity": "restaurant", "cuisine": "japanese;sushi", "name": "Ichiban", "opening_hours": "Tu-Th 12:30-15:00, 19:30-23:00;\nFr 12:30-15:00, 19:30-00:00;\nSa 12:30-16:00, 19:30-00:00;\nSu 12:30-16:00", "phone": "+351226186111"}}, {"type": "node", "id": 6214952785, "lat": 41.1478886, "lon": -8.620438, "tags": {"addr:housenumber": "22", "addr:street": "Rua do Ros\u00e1rio", "amenity": "restaurant", "diet:vegan": "yes", "name": "\u00c9poca Porto", "opening_hours": "Tu-Fr 09:00-17:00; Sa 10:00-16:00"}}, {"type": "node", "id": 6214984885, "lat": 41.1476392, "lon": -8.6144841, "tags": {"addr:housenumber": "56", "addr:postcode": "4050-639", "addr:street": "Pra\u00e7a Guilherme Gomes Fernandes", "amenity": "restaurant", "cuisine": "japanese;sushi", "name": "Kyoto na Baixa", "opening_hours": "Mo-Th 12:00-15:00, 19:30-23:00;\nFr 12:00-15:00, 19:30-00:00;\nSa 12:30-15:30, 19:30-00:00"}}, {"type": "node", "id": 6214994685, "lat": 41.1464421, "lon": -8.6166185, "tags": {"amenity": "restaurant", "cuisine": "japanese;sushi", "name": "Subenshi", "outdoor_seating": "yes"}}, {"type": "node", "id": 6215003785, "lat": 41.1424986, "lon": -8.6156505, "tags": {"addr:housenumber": "197", "addr:postcode": "4050-209", "addr:street": "Rua de O Com\u00e9rcio do Porto", "amenity": "restaurant", "cuisine": "japanese;sushi", "name": "Gion", "opening_hours": "Tu-Sa 12:30-23:00;\nSu 12:30-15:00"}}, {"type": "node", "id": 6264717186, "lat": 41.1492777, "lon": -8.6130356, "tags": {"amenity": "restaurant", "name": "Boa-Bao"}}, {"type": "node", "id": 6268201085, "lat": 41.1479936, "lon": -8.586312, "tags": {"addr:city": "Campanh\u00e3", "addr:housenumber": "70", "addr:postcode": "4300-171", "addr:street": "Rua da Esta\u00e7\u00e3o", "amenity": "restaurant", "cuisine": "regional", "name": "Churrasqueira de Campanh\u00e3"}}, {"type": "node", "id": 6273385085, "lat": 41.1466725, "lon": -8.6045245, "tags": {"amenity": "restaurant", "name": "Bras\u00e3o Cervejaria Coliseu", "wheelchair": "limited"}}, {"type": "node", "id": 6351253499, "lat": 41.1552346, "lon": -8.6136479, "tags": {"addr:housenumber": "21", "addr:street": "Rua da Boavista", "amenity": "restaurant", "cuisine": "regional", "name": "Za in Porto", "opening_hours": "Tu-Su 12:00-23:00"}}, {"type": "node", "id": 6366118027, "lat": 41.1506702, "lon": -8.6094024, "tags": {"amenity": "restaurant", "name": "DOMO Sushi"}}, {"type": "node", "id": 6368266511, "lat": 41.1425319, "lon": -8.6125886, "tags": {"amenity": "restaurant", "name": "Tapas Bar O Muro Velho Restaurante"}}, {"type": "node", "id": 6381868258, "lat": 41.1590526, "lon": -8.5928227, "tags": {"amenity": "restaurant", "cuisine": "steak_house", "facebook": "https://www.facebook.com/casadapicanha.porto/", "name": "A Casa da Picanha"}}, {"type": "node", "id": 6384549512, "lat": 41.1487736, "lon": -8.61201, "tags": {"addr:city": "Porto", "addr:country": "PT", "addr:housenumber": "61", "addr:postcode": "4000-407", "addr:street": "Rua de Ramalho Ortig\u00e3o", "alt_name": "RO ramen e outros", "amenity": "restaurant", "cuisine": "japanese", "facebook": "https://pt-pt.facebook.com/ROrameneoutros/", "name": "Ro", "phone": "+351 967 307 887"}}, {"type": "node", "id": 6387904485, "lat": 41.1415759, "lon": -8.6134224, "tags": {"amenity": "restaurant", "name": "Sagarda"}}, {"type": "node", "id": 6417073440, "lat": 41.1707914, "lon": -8.606258, "tags": {"addr:city": "Porto", "addr:housenumber": "162", "addr:postcode": "4200-326", "addr:street": "Rua Igreja de Paranhos", "amenity": "restaurant", "cuisine": "regional;portuguese", "name": "Flor de Paranhos", "opening_hours": "Mo-Sa 10:30-23:30", "outdoor_seating": "no"}}, {"type": "node", "id": 6441679649, "lat": 41.1628141, "lon": -8.5936978, "tags": {"amenity": "restaurant", "name": "Restaurante Barril", "outdoor_seating": "yes"}}, {"type": "node", "id": 6477878085, "lat": 41.1499428, "lon": -8.6733679, "tags": {"addr:housenumber": "1080", "addr:postcode": "4150-461", "addr:street": "Rua do Padre Lu\u00eds Cabral", "amenity": "restaurant", "cuisine": "grill;tapas", "email": "casaabertainfo@gmail.com", "internet_access": "wlan", "name": "Casa Aberta, Open Bar & Food House", "opening_hours": "Tu-Sa 12:30-14:30, 19:30-22:30", "phone": "915963272"}}, {"type": "node", "id": 6480251286, "lat": 41.1476751, "lon": -8.6144696, "tags": {"amenity": "restaurant", "name": "Stash"}}, {"type": "node", "id": 6501831709, "lat": 41.1592226, "lon": -8.6591883, "tags": {"amenity": "restaurant", "contact:phone": "+351 226170355", "name": "Restaurante de Serralves", "opening_hours": "Mo-Su 12:00-15:00", "operator": "Ibersol"}}, {"type": "node", "id": 6532026785, "lat": 41.142832, "lon": -8.6152011, "tags": {"amenity": "restaurant", "name": "Viva Creative Kitchen"}}, {"type": "node", "id": 6535942086, "lat": 41.149745, "lon": -8.6130365, "tags": {"amenity": "restaurant", "name": "Salve Simpatico"}}, {"type": "node", "id": 6541145452, "lat": 41.1473345, "lon": -8.6163608, "tags": {"alt_name": "Casa mais estreita do Porto", "name": "Casa Escondida", "name:en": "Hidden House", "tourism": "attraction"}}, {"type": "node", "id": 6545541627, "lat": 41.1433469, "lon": -8.6131947, "tags": {"addr:city": "Porto", "addr:street": "Rua Mouzinho da Silveira", "amenity": "restaurant", "name": "Wine & Tapas"}}, {"type": "node", "id": 6550884970, "lat": 41.1467978, "lon": -8.6108277, "tags": {"addr:street": "Pra\u00e7a da Liberdade", "amenity": "restaurant", "cuisine": "kebab", "name": "Estambul D\u00f6ner Kebap Pizza", "opening_hours": "PH,Mo-Su 11:00-02:30"}}, {"type": "node", "id": 6550894026, "lat": 41.1401243, "lon": -8.6147611, "tags": {"amenity": "restaurant", "name": "O Muro"}}, {"type": "node", "id": 6550894117, "lat": 41.1500277, "lon": -8.6112579, "tags": {"addr:housenumber": "307", "amenity": "restaurant", "description": "Restaurante, Caf\u00e9, Snack-Bar", "name": "Via Garret"}}, {"type": "node", "id": 6615113185, "lat": 41.1508943, "lon": -8.6205972, "tags": {"amenity": "restaurant", "name": "Casa Ferreira"}}, {"type": "node", "id": 6621069085, "lat": 41.1408233, "lon": -8.6119854, "tags": {"amenity": "restaurant", "cuisine": "regional", "name": "Restaurante do Terreirinho"}}, {"type": "node", "id": 6621069105, "lat": 41.140667, "lon": -8.6115549, "tags": {"addr:city": "Porto", "addr:housenumber": "22", "addr:street": "Rua de Cima do Muro", "amenity": "restaurant", "layer": "1"}}, {"type": "node", "id": 6621069107, "lat": 41.1406862, "lon": -8.6114855, "tags": {"addr:city": "Porto", "addr:housenumber": "18; 19; 20", "addr:street": "Rua de Cima do Muro", "amenity": "restaurant", "internet_access": "wlan", "internet_access:fee": "no", "layer": "1", "name": "O Muro Antigo", "opening_hours": "Mo-Su 12:00-17:00,19:00-23:00", "wheelchair": "limited"}}, {"type": "node", "id": 6621069108, "lat": 41.1408283, "lon": -8.6111858, "tags": {"amenity": "restaurant", "name": "Porto Escondido"}}, {"type": "node", "id": 6621069156, "lat": 41.1406985, "lon": -8.6111398, "tags": {"addr:city": "Porto", "addr:housenumber": "23; 22; 21", "addr:street": "Cais da Ribeira", "amenity": "restaurant", "name": "Fiume Douro", "wheelchair": "limited"}}, {"type": "node", "id": 6621069176, "lat": 41.140641, "lon": -8.6114818, "tags": {"addr:city": "Porto", "addr:housenumber": "29", "addr:street": "Cais da Ribeira", "amenity": "restaurant", "name": "A Marina", "wheelchair": "limited"}}, {"type": "node", "id": 6621069210, "lat": 41.1406086, "lon": -8.6116991, "tags": {"addr:city": "Porto", "addr:housenumber": "34; 33A; 33", "addr:street": "Cais da Ribeira", "amenity": "restaurant", "description": "Restaurante Mercearia", "name": "Terra Nova", "wheelchair": "limited"}}, {"type": "node", "id": 6621069211, "lat": 41.1406016, "lon": -8.6117624, "tags": {"addr:city": "Porto", "addr:housenumber": "35", "addr:street": "Cais da Ribeira", "amenity": "restaurant", "cuisine": "japanese", "description": "Cais 35 - restaurante japon\u00eas", "name": "Cais 35", "wheelchair": "limited"}}, {"type": "node", "id": 6621069236, "lat": 41.1405671, "lon": -8.6122987, "tags": {"addr:city": "Porto", "addr:housenumber": "45", "addr:postcode": "4050-511", "addr:street": "Cais da Ribeira", "amenity": "restaurant", "name": "DeOURO", "nif": "515759570", "official_name": "Codigos e Latitudes, Lda"}}, {"type": "node", "id": 6647690031, "lat": 41.1431491, "lon": -8.612842, "tags": {"addr:city": "Porto", "addr:housenumber": "80", "addr:postcode": "4050-084", "addr:street": "Rua da Bainharia", "amenity": "restaurant", "name": "O Casti\u00e7o da S\u00e9"}}, {"type": "node", "id": 6647824136, "lat": 41.1475895, "lon": -8.6066998, "tags": {"addr:city": "Porto", "addr:postcode": "4000-450", "addr:street": "Rua de Santa Catarina", "amenity": "restaurant", "name": "Porto Douro", "wheelchair": "limited"}}, {"type": "node", "id": 6647824242, "lat": 41.1501253, "lon": -8.6057536, "tags": {"alt_name": "Restaurante Rampinha", "amenity": "restaurant", "name": "A Rampinha"}}, {"type": "node", "id": 6647824301, "lat": 41.1500399, "lon": -8.6056041, "tags": {"amenity": "restaurant", "description": "Traditional Greeek Food", "name": "Casa das Waffles Artesanal", "opening_hours": "Mo-Sa 11:00-19:00"}}, {"type": "node", "id": 6652912628, "lat": 41.1449676, "lon": -8.6075014, "tags": {"amenity": "restaurant", "description": "Cafetaria restaurante", "name": "Kapadokya"}}, {"type": "node", "id": 6652912634, "lat": 41.1448297, "lon": -8.6078154, "tags": {"addr:city": "Porto", "addr:housenumber": "18", "addr:street": "Travessa Cimo de Vila", "amenity": "restaurant", "description": "Caf\u00e9 Bar Restaurante", "internet_access": "wlan", "internet_access:fee": "no", "name": "Boca de Cena", "wheelchair": "limited"}}, {"type": "node", "id": 6654714200, "lat": 41.1500766, "lon": -8.6130507, "tags": {"amenity": "restaurant"}}, {"type": "node", "id": 6655726387, "lat": 41.1573557, "lon": -8.6018247, "tags": {"amenity": "restaurant", "cuisine": "portuguese", "name": "Solar d'Alegria", "opening_hours": "Mo-Fr 09:00-16:00,18:00-23:00"}}, {"type": "node", "id": 6677280216, "lat": 41.1535414, "lon": -8.6793695, "tags": {"amenity": "restaurant", "name": "Praia da Luz"}}, {"type": "node", "id": 6703292985, "lat": 41.1516551, "lon": -8.617653, "tags": {"amenity": "restaurant", "cuisine": "american", "name": "BAO\u2019S", "opening_hours": "Su-Th 12:30-23:00; Fr,Sa 12:00-24:00"}}, {"type": "node", "id": 6742373885, "lat": 41.1475829, "lon": -8.6005453, "tags": {"addr:housenumber": "409", "addr:postcode": "4000-472", "addr:street": "Rua Santo Ildefonso", "amenity": "restaurant", "name": "Ruial Francesinhas"}}, {"type": "node", "id": 6778108585, "lat": 41.1628211, "lon": -8.6108958, "tags": {"addr:housenumber": "1064", "addr:street": "Rua da Constitui\u00e7\u00e3o", "amenity": "restaurant", "name": "Restaurante Augusto"}}, {"type": "node", "id": 6779373485, "lat": 41.1405472, "lon": -8.6141363, "tags": {"amenity": "restaurant", "name": "Adega do Conde"}}, {"type": "node", "id": 6780906958, "lat": 41.1444983, "lon": -8.6175101, "tags": {"addr:city": "Porto", "addr:housenumber": "71", "addr:postcode": "4050-091", "addr:street": "Rua Doutor Barbosa de Castro", "amenity": "restaurant", "cuisine": "regional", "name": "Canto Doce", "outdoor_seating": "yes", "phone": "+351 222 014 141", "website": "https://www.facebook.com/Canto-Doce-116285178432762/"}}, {"type": "node", "id": 6781668612, "lat": 41.1571438, "lon": -8.6101212, "tags": {"amenity": "restaurant", "name": "Casa Para\u00edso 2"}}, {"type": "node", "id": 6781729485, "lat": 41.1515893, "lon": -8.5972591, "tags": {"addr:housenumber": "188", "addr:street": "Avenida de Fern\u00e3o de Magalh\u00e3es", "amenity": "restaurant", "name": "La Maison Rouge 48"}}, {"type": "node", "id": 6809914134, "lat": 41.152442, "lon": -8.6057072, "tags": {"amenity": "restaurant", "name": "Restaurante Portista", "opening_hours": "We-Fr 11:00-23:00; Su-Tu 11:00-15:00", "wheelchair": "no"}}, {"type": "node", "id": 6879999970, "lat": 41.1445018, "lon": -8.611976, "tags": {"amenity": "restaurant", "name": "Petisqueira Voltaria"}}, {"type": "node", "id": 6880031652, "lat": 41.1454854, "lon": -8.6134815, "tags": {"amenity": "restaurant", "name": "Casa Bragan\u00e7a"}}, {"type": "node", "id": 6883889678, "lat": 41.148141, "lon": -8.6507771, "tags": {"amenity": "restaurant", "name": "Nhac! Nhac!"}}, {"type": "node", "id": 6913845085, "lat": 41.1456753, "lon": -8.6121609, "tags": {"amenity": "restaurant", "name": "Restaurant Raiz", "opening_hours": "Mo-Su 19:00-23:55", "website": "http://www.raiz.com.pt/"}}, {"type": "node", "id": 6917056211, "lat": 41.1671834, "lon": -8.6522163, "tags": {"amenity": "restaurant", "cuisine": "pizza", "name": "Pizza Piaza"}}, {"type": "node", "id": 6917070871, "lat": 41.1667342, "lon": -8.6515511, "tags": {"amenity": "restaurant", "cuisine": "japanese", "name": "Sushihana", "opening_hours": "Tu-Su 12:30-15:00,20:00-23:00"}}, {"type": "node", "id": 6917070934, "lat": 41.1454813, "lon": -8.6117815, "tags": {"amenity": "restaurant", "name": "Tutti Buoni"}}, {"type": "node", "id": 6925527585, "lat": 41.1622106, "lon": -8.6061694, "tags": {"addr:housenumber": "672", "addr:street": "Rua da Constitui\u00e7\u00e3o", "amenity": "restaurant", "cuisine": "portuguese", "internet_access": "wlan", "name": "Sabores de Basto"}}, {"type": "node", "id": 6939469989, "lat": 41.1454153, "lon": -8.6127514, "tags": {"amenity": "restaurant", "internet_access": "wlan", "name": "Miss'Opo"}}, {"type": "node", "id": 6939469990, "lat": 41.1453018, "lon": -8.6127324, "tags": {"amenity": "restaurant", "name": "All in Porto"}}, {"type": "node", "id": 6966390323, "lat": 41.1473777, "lon": -8.6126787, "tags": {"addr:housenumber": "34", "addr:street": "Rua da F\u00e1brica", "amenity": "restaurant", "cuisine": "indian", "name": "Thali Aromas e Sabores da \u00cdndia", "opening_hours": "Mo-Sa 12:00-14:30; Mo-Th 19:00-22:30; Fr, Sa 19:00-23:30"}}, {"type": "node", "id": 6966392365, "lat": 41.1474661, "lon": -8.6129393, "tags": {"addr:housenumber": "46", "addr:street": "Rua da F\u00e1brica", "amenity": "restaurant", "name": "Presto pizza"}}, {"type": "node", "id": 7009474665, "lat": 41.1614159, "lon": -8.6842774, "tags": {"amenity": "restaurant", "name": "Restaurante Vila Foz"}}, {"type": "node", "id": 7020910116, "lat": 41.1600658, "lon": -8.608005, "tags": {"addr:city": "Porto", "addr:housenumber": "309", "addr:postcode": "4000-203", "addr:street": "Rua de Faria Guimar\u00e3es", "amenity": "restaurant", "cuisine": "regional;portuguese", "name": "PAJU", "opening_hours": "21:00-05:00", "phone": "+351225021555"}}, {"type": "node", "id": 7040435042, "lat": 41.1595976, "lon": -8.6656172, "tags": {"amenity": "restaurant", "cuisine": "italian", "name": "The Pizza"}}, {"type": "node", "id": 7058113829, "lat": 41.1552858, "lon": -8.6480972, "tags": {"amenity": "restaurant", "cuisine": "japanese;sushi", "name": "Gokobe"}}, {"type": "node", "id": 7058113834, "lat": 41.1615873, "lon": -8.6577183, "tags": {"amenity": "restaurant", "name": "chef tapioca"}}, {"type": "node", "id": 7058113839, "lat": 41.1620154, "lon": -8.6523056, "tags": {"amenity": "restaurant"}}, {"type": "node", "id": 7058113840, "lat": 41.1558482, "lon": -8.663941, "tags": {"amenity": "restaurant", "cuisine": "sushi", "name": "temako"}}, {"type": "node", "id": 7061316219, "lat": 41.1558801, "lon": -8.6638689, "tags": {"amenity": "restaurant", "internet_access": "wlan", "name": "Apetites"}}, {"type": "node", "id": 7063446764, "lat": 41.1617413, "lon": -8.6856598, "tags": {"amenity": "restaurant"}}, {"type": "node", "id": 7063446767, "lat": 41.1613597, "lon": -8.6846378, "tags": {"addr:city": "Porto", "addr:street": "Av. de Montevideu 236", "amenity": "restaurant", "name": "Restaurante Flor de Lis"}}, {"type": "node", "id": 7067350039, "lat": 41.1550812, "lon": -8.6799428, "tags": {"amenity": "restaurant", "name": "a mascara"}}, {"type": "node", "id": 7070254500, "lat": 41.1754935, "lon": -8.6275444, "tags": {"amenity": "restaurant", "name": "Churrasqueira Portuguesa S.A."}}, {"type": "node", "id": 7070354805, "lat": 41.1594332, "lon": -8.6845397, "tags": {"addr:city": "Porto", "addr:street": "Praia do Molhe", "amenity": "restaurant", "name": "Novo Molhe"}}, {"type": "node", "id": 7070354806, "lat": 41.1587224, "lon": -8.684022, "tags": {"addr:city": "Porto", "addr:street": "Esplanada de 28 de Maio", "amenity": "restaurant", "name": "Restaurante do Molhe"}}, {"type": "node", "id": 7070696548, "lat": 41.1572249, "lon": -8.6809052, "tags": {"addr:city": "Porto", "addr:housenumber": "487", "addr:postcode": "4150-377", "addr:street": "Rua de Gondar\u00e9m", "amenity": "restaurant", "name": "Cervejaria Bras\u00e3o Foz", "phone": "+351 934 113 658", "website": "https://brasao.pt/"}}, {"type": "node", "id": 7070697006, "lat": 41.1567025, "lon": -8.6797626, "tags": {"amenity": "restaurant", "name": "Restaurante Terra"}}, {"type": "node", "id": 7072732552, "lat": 41.1526891, "lon": -8.6780055, "tags": {"addr:city": "Porto", "addr:housenumber": "448", "addr:postcode": "4150-695", "addr:street": "R. da Sra. da Luz", "amenity": "restaurant", "cuisine": "burger", "name": "Peebz"}}, {"type": "node", "id": 7076289385, "lat": 41.1735878, "lon": -8.6025159, "tags": {"addr:housenumber": "216", "addr:street": "Rua Doutor Manuel Pereira da Silva", "amenity": "restaurant", "internet_access": "wlan", "name": "Alfarroba", "opening_hours": "Mo-Fr 09:00-00:00; Sa 10:00-00:00; Su 17:00-23:00"}}, {"type": "node", "id": 7095226886, "lat": 41.1785591, "lon": -8.6491754, "tags": {"amenity": "restaurant", "name": "Istilo"}}, {"type": "node", "id": 7123321885, "lat": 41.1488073, "lon": -8.6093649, "tags": {"addr:housenumber": "302", "addr:postcode": "4000-115", "addr:street": "Rua do Bonjardim", "amenity": "restaurant", "diet:vegan": "yes", "name": "Kind Kitchen", "opening_hours": "Tu-Sa 12:00-15:00, 19:00-22:00"}}, {"type": "node", "id": 7153554685, "lat": 41.1445302, "lon": -8.6125013, "tags": {"name": "Rua das Flores", "name:en": "Street rua das flores", "tourism": "attraction"}}, {"type": "node", "id": 7167730385, "lat": 41.142426, "lon": -8.6138677, "tags": {"amenity": "restaurant", "name": "Portogues"}}, {"type": "node", "id": 7169083755, "lat": 41.1645676, "lon": -8.6250662, "tags": {"amenity": "restaurant", "name": "Sabor Atl\u00e2ntico"}}, {"type": "node", "id": 7172732785, "lat": 41.1620901, "lon": -8.6513346, "tags": {"addr:housenumber": "35", "addr:postcode": "4100-454", "addr:street": "Rua de S\u00e3o Jo\u00e3o de Brito", "amenity": "restaurant", "name": "LI JIN", "opening_hours": "Mo-Su 12:00-15:00,19:00-23:00", "phone": "+351226175072"}}, {"type": "node", "id": 7178242400, "lat": 41.1672131, "lon": -8.6345468, "tags": {"addr:city": "Porto", "addr:housenumber": "8", "addr:postcode": "4250-192", "addr:street": "Rua Central de Francos", "amenity": "restaurant", "cuisine": "steak_house", "name": "Churrasqueira Central de Francos", "opening_hours": "Mo-Su 09:00-21:00", "payment": "visa_debit", "payment:bitcoin": "yes", "phone": "22 831 6426", "takeaway": "yes"}}, {"type": "node", "id": 7192070888, "lat": 41.1525446, "lon": -8.6200183, "tags": {"addr:city": "Porto", "addr:housenumber": "134", "addr:postcode": "4050-609", "addr:street": "Rua da Torrinha", "amenity": "restaurant", "brewery": "various", "cuisine": "burger", "email": "geral@realhamburgueria.pt", "name": "Real Hamburgueria Portuguesa", "opening_hours": "Tu-Sa 12:00-23:00", "phone": "+351 222 011 930", "smoking": "isolated", "takeaway": "yes", "website": "https://www.realhamburgueria.pt/"}}, {"type": "node", "id": 7192148562, "lat": 41.1539084, "lon": -8.6185584, "tags": {"addr:city": "Porto", "addr:housenumber": "502", "addr:postcode": "4050-122", "addr:street": "Rua de Cedofeita", "amenity": "restaurant", "capacity": "20", "cuisine": "vietnamese", "email": "fabio@linkhanoi.com", "name": "VietView", "opening_hours": "Tu-Th 12:00-15:00, 19:00-23:00; Fr-Sa 12:00-15, 19:00-00:00; Su 12:30-15:00, 19:00-23:00; Mo 19:00-22:30", "phone": "+351 964 109 354", "smoking": "no", "website": "https://vietview.pt"}}, {"type": "node", "id": 7196006102, "lat": 41.1630608, "lon": -8.6224517, "tags": {"addr:housenumber": "490", "addr:street": "Rua Egas Moniz", "amenity": "restaurant", "name": "Santo Burga", "phone": "220738874"}}, {"type": "node", "id": 7243507921, "lat": 41.1594891, "lon": -8.6060061, "tags": {"addr:housenumber": "1071", "addr:street": "Rua do Bom Jardim", "amenity": "restaurant", "name": "Ricciardi's Rock Pizza", "opening_hours": "Tu-Su 11:00-15:00, 19:00-01:00", "payment:cash": "yes", "phone": "221108441"}}, {"type": "node", "id": 7250391484, "lat": 41.1516574, "lon": -8.617609, "tags": {"addr:city": "Porto", "addr:housenumber": "322", "addr:postcode": "4050-174", "addr:street": "Rua de Cedofeita", "amenity": "restaurant", "check_date:opening_hours": "2021-09-21", "contact:email": "info@capimdourado.pt", "contact:facebook": "https://www.facebook.com/restaurantecapimdourado/", "contact:instagram": "https://www.instagram.com/capimdourado.pt/", "contact:phone": "+351 915 500 081", "contact:website": "https://capimdourado.pt/en/home/", "cuisine": "brazilian", "name": "Capim Dourado", "opening_hours": "We,Th 12:30-15:00,19:30-23:00; Fr 12:30-15:00,19:30-24:00; Sa 13:00-16:00,19:30-24:00; Su 13:00-16:00,19:30-23:00"}}, {"type": "node", "id": 7260494986, "lat": 41.1520462, "lon": -8.6105662, "tags": {"amenity": "restaurant", "name": "Namaste cafe"}}, {"type": "node", "id": 7275469228, "lat": 41.1507567, "lon": -8.6087906, "tags": {"addr:housenumber": "435", "addr:street": "Rua de Bonjardim", "amenity": "restaurant", "name": "Niku sushi", "opening_hours": "Tu-Sa 19:00-23:00; Su 19:00-22:30", "phone": "911785529"}}, {"type": "node", "id": 7486311473, "lat": 41.1502806, "lon": -8.61682, "tags": {"amenity": "restaurant", "cuisine": "brasilian", "name": "Capim Dourado", "opening_hours": "We-Th 12:30-15:00,19:30-23:00;  Fr  12:30-15:00,19:30-24:00; Sa 13:00-16:00,19:30-24:00; Su 13:00-16:00,19:30-23:00", "phone": "+351 915 500 081", "website": "https://capimdourado.pt"}}, {"type": "node", "id": 7504228485, "lat": 41.15077, "lon": -8.5976978, "tags": {"addr:housenumber": "44", "addr:street": "Avenida de Fern\u00e3o de Magalh\u00e3es", "amenity": "restaurant", "cuisine": "portuguese", "name": "Triunfante 2", "name:en": "Triunfante 2"}}, {"type": "node", "id": 7811024185, "lat": 41.152591, "lon": -8.6176271, "tags": {"amenity": "restaurant", "name": "Siktak (korean)"}}, {"type": "node", "id": 7811026385, "lat": 41.1431712, "lon": -8.5981587, "tags": {"amenity": "restaurant", "name": "Ondo Korean Kitchen"}}, {"type": "node", "id": 7827886685, "lat": 41.1536506, "lon": -8.6087934, "tags": {"addr:housenumber": "198", "addr:postcode": "4000265", "addr:street": "Rua de Gon\u00e7alo Crist\u00f3v\u00e3o", "amenity": "restaurant", "cuisine": "fine_dining", "email": "thelingerierestaurant@gmail.com", "internet_access": "wlan", "name": "The Lingerie Restaurant", "name:en": "The Lingerie Restaurant - Porto", "name:fr": "The Lingerie Restaurant - Porto", "name:pt": "The Lingerie Restaurant - Porto", "phone": "00351915672450"}}, {"type": "node", "id": 7837883767, "lat": 41.1543215, "lon": -8.595661, "tags": {"amenity": "restaurant", "name": "Mogadourense"}}, {"type": "node", "id": 7851321827, "lat": 41.1509471, "lon": -8.594269, "tags": {"amenity": "restaurant", "name": "Capa Negra II"}}, {"type": "node", "id": 7858195770, "lat": 41.1512893, "lon": -8.6066894, "tags": {"addr:street": "Rua S\u00e1 da Bandeira", "amenity": "restaurant", "name": "Beher"}}, {"type": "node", "id": 7880640688, "lat": 41.1474654, "lon": -8.6285272, "tags": {"addr:city": "Porto", "addr:housenumber": "220", "addr:postcode": "4050-240", "addr:street": "Rua de Entre Quintas", "amenity": "restaurant", "cuisine": "regional", "diet:vegetarian": "yes", "name": "Antiquum", "website": "http://www.antiqvvm.pt", "wikidata": "Q88801996"}}, {"type": "node", "id": 7893898285, "lat": 41.1495369, "lon": -8.6042325, "tags": {"addr:housenumber": "478", "addr:postcode": "4000-211", "addr:street": "Rua de Fernandes Tom\u00e1s", "amenity": "restaurant", "name": "Aquele Tasco"}}, {"type": "node", "id": 7894678985, "lat": 41.1467333, "lon": -8.6049032, "tags": {"addr:housenumber": "205", "addr:postcode": "4000-385", "addr:street": "Rua de Passos Manuel", "amenity": "restaurant", "name": "Cervejaria Bras\u00e3o"}}, {"type": "node", "id": 8069009001, "lat": 41.14711, "lon": -8.6259577, "tags": {"amenity": "restaurant", "opening_hours": "Mo-Su 09:00-21:00"}}, {"type": "node", "id": 8286130777, "lat": 41.1524648, "lon": -8.6366988, "tags": {"amenity": "restaurant", "name": "Cantina da FCUP"}}, {"type": "node", "id": 8293379623, "lat": 41.1479906, "lon": -8.6657348, "tags": {"amenity": "restaurant", "cuisine": "ice_cream", "name": "cremosi"}}, {"type": "node", "id": 8293379624, "lat": 41.1480342, "lon": -8.6656624, "tags": {"amenity": "restaurant", "cuisine": "burger;coffee_shop;sandwich;ice_cream", "name": "Cam\u00e9lia"}}, {"type": "node", "id": 8365076605, "lat": 41.1677587, "lon": -8.6457346, "tags": {"amenity": "restaurant", "name": "A Cunha 2"}}, {"type": "node", "id": 8387218265, "lat": 41.1663731, "lon": -8.6555385, "tags": {"addr:city": "Porto", "addr:housenumber": "437", "addr:postcode": "4100-031", "addr:street": "Rua do Doutor Alberto de Macedo", "amenity": "restaurant", "cuisine": "portuguese", "delivery": "yes", "name": "Tasca da Badalhoca", "name:de": "Tasca da Badalhoca", "opening_hours": "Mo-Fr 09:00-14:00, 15:30-20:00; Sa 09:00-14:00", "outdoor_seating": "no", "smoking": "no", "website": "https://www.tascas.pt/a-badalhoca-porto/"}}, {"type": "node", "id": 8426376396, "lat": 41.1649269, "lon": -8.6726317, "tags": {"amenity": "restaurant", "cuisine": "francesinha", "name": "My palace"}}, {"type": "node", "id": 8475638690, "lat": 41.1699928, "lon": -8.6733738, "tags": {"tourism": "attraction"}}, {"type": "node", "id": 8475638703, "lat": 41.1694259, "lon": -8.674334, "tags": {"name": "Caminho das Vinhas", "tourism": "attraction"}}, {"type": "node", "id": 8475638704, "lat": 41.1699563, "lon": -8.6721953, "tags": {"name": "Antigo Anel Equestre", "tourism": "attraction"}}, {"type": "node", "id": 8475642186, "lat": 41.1672491, "lon": -8.676909, "tags": {"name": "Fonte das \u00c1guas Ferreas", "tourism": "attraction"}}, {"type": "node", "id": 8636657672, "lat": 41.1526294, "lon": -8.6373755, "tags": {"amenity": "restaurant", "name": "Cozinha da Am\u00e9lia"}}, {"type": "node", "id": 8636657675, "lat": 41.1523581, "lon": -8.6361254, "tags": {"amenity": "restaurant", "brand": "Pizza Hut", "brand:wikidata": "Q191615", "brand:wikipedia": "en:Pizza Hut", "cuisine": "pizza", "name": "Pizza Hut"}}, {"type": "node", "id": 8643627365, "lat": 41.1524511, "lon": -8.6328823, "tags": {"amenity": "restaurant", "cuisine": "regional", "name": "Madureira's"}}, {"type": "node", "id": 8643627368, "lat": 41.1525941, "lon": -8.6327222, "tags": {"amenity": "restaurant", "cuisine": "regional", "name": "Madureira's Take Away"}}, {"type": "node", "id": 8656396399, "lat": 41.1467731, "lon": -8.6165419, "tags": {"amenity": "restaurant", "cuisine": "pizza", "name": "Nonna Piazza", "outdoor_seating": "yes"}}, {"type": "node", "id": 8656396405, "lat": 41.14674, "lon": -8.6174795, "tags": {"amenity": "restaurant", "name": "Boteco Mexicano", "outdoor_seating": "yes"}}, {"type": "node", "id": 8656396406, "lat": 41.1470121, "lon": -8.617043, "tags": {"amenity": "restaurant", "name": "Churrasqueira Papagaio"}}, {"type": "node", "id": 8672804647, "lat": 41.1482761, "lon": -8.6162729, "tags": {"addr:housenumber": "15", "addr:street": "Rua Actor Jo\u00e3o Guedes", "amenity": "restaurant", "name": "Casa Vi\u00fava", "phone": "+351222000672"}}, {"type": "node", "id": 8672804656, "lat": 41.1471094, "lon": -8.6168513, "tags": {"amenity": "restaurant", "cuisine": "regional", "name": "Adega Bodega"}}, {"type": "node", "id": 8672804659, "lat": 41.1471351, "lon": -8.6170789, "tags": {"amenity": "restaurant", "name": "Calhambeque"}}, {"type": "node", "id": 8672804661, "lat": 41.1471268, "lon": -8.6172544, "tags": {"amenity": "restaurant", "contact:email": "geral@atasquinha.com", "contact:phone": "+351 223 322145", "contact:website": "http://www.atasquinha.com", "name": "A Tasquinha", "outdoor_seating": "yes"}}, {"type": "node", "id": 8672804662, "lat": 41.146947, "lon": -8.6174051, "tags": {"amenity": "restaurant", "name": "Bufete Santo Ant\u00f3nio", "outdoor_seating": "yes"}}, {"type": "node", "id": 8677637946, "lat": 41.1458022, "lon": -8.6211797, "tags": {"amenity": "restaurant", "cuisine": "pizza", "name": "Go Pizza"}}, {"type": "node", "id": 8778800517, "lat": 41.1645617, "lon": -8.6021169, "tags": {"addr:city": "Paranhos", "addr:housenumber": "90", "addr:street": "Rua de \u00c1lvaro Castel\u00f5es", "amenity": "restaurant", "diet:vegan": "yes", "diet:vegetarian": "yes", "name": "Salpicos Verdes"}}, {"type": "node", "id": 8786438724, "lat": 41.1724185, "lon": -8.6553125, "tags": {"amenity": "restaurant", "cuisine": "regional", "name": "A Cozinha da Maria Eug\u00e9nia", "opening_hours": "Mo-Sa 12:00-15:00,19:00-22:00"}}, {"type": "node", "id": 8839103818, "lat": 41.1844109, "lon": -8.602697, "tags": {"amenity": "restaurant", "name": "Origin - Sushi & Gin"}}, {"type": "node", "id": 8839105017, "lat": 41.1841827, "lon": -8.6030157, "tags": {"amenity": "restaurant", "name": "Munchie"}}, {"type": "node", "id": 8848499717, "lat": 41.1839252, "lon": -8.6023241, "tags": {"addr:city": "Porto", "addr:street": "Estrada Exterior da Circunvala\u00e7\u00e3o", "amenity": "restaurant", "cuisine": "burger", "name": "Tropical Burger"}}, {"type": "node", "id": 8849254017, "lat": 41.1434358, "lon": -8.5723553, "tags": {"name": "Quinta de Vilar d'Allen", "tourism": "attraction"}}, {"type": "node", "id": 8901434406, "lat": 41.1471845, "lon": -8.6088979, "tags": {"amenity": "restaurant", "cuisine": "portuguese", "name": "Restaurante Girassol"}}, {"type": "node", "id": 8904982717, "lat": 41.1448143, "lon": -8.6066043, "tags": {"amenity": "restaurant", "cuisine": "regional", "name": "Prego Batalha"}}, {"type": "node", "id": 8904982817, "lat": 41.1448494, "lon": -8.6065593, "tags": {"amenity": "restaurant", "name": "Gazela"}}, {"type": "node", "id": 8911435921, "lat": 41.1559685, "lon": -8.5946856, "tags": {"amenity": "restaurant", "name": "Bonanza"}}, {"type": "node", "id": 8911435922, "lat": 41.1560716, "lon": -8.5946349, "tags": {"amenity": "restaurant", "name": "Tasquinha da Mia"}}, {"type": "node", "id": 9006875223, "lat": 41.1632862, "lon": -8.6651967, "tags": {"amenity": "restaurant", "cuisine": "sushi", "name": "Sete Banhos"}}, {"type": "node", "id": 9008531017, "lat": 41.163628, "lon": -8.6672151, "tags": {"amenity": "restaurant", "cuisine": "pizza", "name": "Pizza Uau"}}, {"type": "node", "id": 9008531018, "lat": 41.1635263, "lon": -8.6672432, "tags": {"amenity": "restaurant", "name": "C\u00eapaviz"}}, {"type": "node", "id": 9008531019, "lat": 41.1634576, "lon": -8.667262, "tags": {"amenity": "restaurant", "cuisine": "sushi", "name": "Kanpai Fusion Sushi"}}, {"type": "node", "id": 9008531020, "lat": 41.1633298, "lon": -8.6672972, "tags": {"amenity": "restaurant", "name": "Mykai Poke Bowls"}}, {"type": "node", "id": 9008531126, "lat": 41.1633859, "lon": -8.6672817, "tags": {"amenity": "restaurant", "cuisine": "indian", "name": "Indian Palace"}}, {"type": "node", "id": 9021003585, "lat": 41.162526, "lon": -8.6583629, "tags": {"addr:city": "Porto", "addr:street": "Avenida da Boavista", "name": "Edif\u00edcio Vodafone", "source": "Local", "tourism": "attraction"}}, {"type": "node", "id": 9024466791, "lat": 41.1762875, "lon": -8.6472746, "tags": {"addr:city": "Porto", "addr:housenumber": "936", "addr:postcode": "4100-246", "addr:street": "Rua Engenheiro Ferreira Dias", "amenity": "restaurant", "name": "Aviz", "nif": "510647995", "official_name": "Superlativopaladar - Unipessoal Lda", "opening_hours": "Mo-Fr 12:00-16:00"}}, {"type": "node", "id": 9024466792, "lat": 41.1768226, "lon": -8.6473342, "tags": {"addr:city": "Porto", "addr:housenumber": "978", "addr:postcode": "4149-008", "addr:street": "Rua Engenheiro Ferreira Dias", "addr:unit": "Loja 16,17A", "amenity": "restaurant", "diet:vegetarian": "yes", "name": "daTerra", "opening_hours": "Mo-Fr 12:00-20:00", "phone": "+351 221 119 948", "website": "https://www.daterra.pt/contactos/"}}, {"type": "node", "id": 9025035660, "lat": 41.1601296, "lon": -8.6437793, "tags": {"amenity": "restaurant", "cuisine": "sushi", "name": "Yes Sushi"}}, {"type": "node", "id": 9029367976, "lat": 41.1583869, "lon": -8.6347104, "tags": {"amenity": "restaurant", "name": "Restaurante Calorias"}}, {"type": "node", "id": 9033241942, "lat": 41.1585201, "lon": -8.6335438, "tags": {"amenity": "restaurant", "cuisine": "pizza", "name": "Pizzaria Luggo"}}, {"type": "node", "id": 9035669682, "lat": 41.1593603, "lon": -8.6316775, "tags": {"addr:street": "Rua Of\u00e9lia diogo", "amenity": "restaurant", "name": "Terrela"}}, {"type": "node", "id": 9036186369, "lat": 41.1592006, "lon": -8.6332014, "tags": {"amenity": "restaurant", "cuisine": "pizza", "name": "Art Pizza"}}, {"type": "node", "id": 9036186371, "lat": 41.1589688, "lon": -8.6332722, "tags": {"amenity": "restaurant", "name": "Rosa do Porto"}}, {"type": "node", "id": 9037828762, "lat": 41.1591902, "lon": -8.6359298, "tags": {"amenity": "restaurant", "cuisine": "steak_house;chicken", "name": "S. Francisco"}}, {"type": "node", "id": 9038311060, "lat": 41.1603637, "lon": -8.6403075, "tags": {"amenity": "restaurant", "name": "RetroVade"}}, {"type": "node", "id": 9038311243, "lat": 41.1602868, "lon": -8.6410885, "tags": {"amenity": "restaurant", "name": "SOMOS Restaurante & Lounge"}}, {"type": "node", "id": 9043542407, "lat": 41.1635725, "lon": -8.6478925, "tags": {"amenity": "restaurant", "name": "Sou Green"}}, {"type": "node", "id": 9048753728, "lat": 41.1635586, "lon": -8.6613966, "tags": {"addr:housenumber": "3206", "addr:street": "Avenida da Boavista", "air_conditioning": "yes", "amenity": "restaurant", "capacity": "130", "contact:facebook": "www.facebook.com/tourigalo.porto/", "cuisine": "portuguese", "internet_access": "wlan", "man_made": "surveillance", "name": "Tourigalo", "opening_hours": "Mo-Su 12:00-23:00", "outdoor_seating": "no", "phone": "+351 226 162 058", "reservation": "yes", "smoking": "no", "surveillance": "indoor", "takeaway": "yes", "toilets": "yes", "toilets:access": "customers", "toilets:disposal": "flush", "toilets:wheelchair": "yes", "wheelchair": "yes"}}, {"type": "node", "id": 9060633618, "lat": 41.1465085, "lon": -8.616564, "tags": {"amenity": "restaurant", "cuisine": "regional", "name": "Enche o Bandulho"}}, {"type": "node", "id": 9084293617, "lat": 41.1487451, "lon": -8.6129042, "tags": {"addr:housenumber": "10", "addr:street": "Rua da Picaria", "amenity": "restaurant", "cuisine": "italian;italian_pizza;pizza", "name": "Obic\u00e0 Mozzarella Bar e Restaurante"}}, {"type": "node", "id": 9106279215, "lat": 41.149742, "lon": -8.605255, "tags": {"name": "Baloi\u00e7o do Mercado Tempor\u00e1rio do Bolh\u00e3o", "playground": "swing", "source:pkey": "baloico-do-mercado-temporario-do-bolhao-porto", "source:url": "https://abaloicar.com/atracoes/baloico-do-mercado-temporario-do-bolhao-porto/", "tourism": "attraction"}}, {"type": "node", "id": 9186944917, "lat": 41.1418593, "lon": -8.6149565, "tags": {"amenity": "restaurant", "name": "Mercado"}}, {"type": "node", "id": 9193106512, "lat": 41.1513338, "lon": -8.6071512, "tags": {"addr:housenumber": "124", "addr:street": "Rua do Bolh\u00e3o", "amenity": "restaurant", "cuisine": "american", "name": "BOP caf\u00e9", "opening_hours": "Tu 17:30-24:00; We, Th 10:00-24:00; Fr, Sa 10:00-01:00; Su 10:00-22:00"}}, {"type": "node", "id": 9195658804, "lat": 41.1430281, "lon": -8.6148333, "tags": {"addr:housenumber": "45-55", "addr:street": "Largo de S\u00e3o Domingos", "amenity": "restaurant", "name": "Galeria do Largo"}}, {"type": "node", "id": 9197980918, "lat": 41.1464565, "lon": -8.6118687, "tags": {"amenity": "restaurant", "name": "Avenida"}}, {"type": "node", "id": 9254964819, "lat": 41.1493773, "lon": -8.5878214, "tags": {"addr:city": "Campanh\u00e3", "addr:housenumber": "148", "addr:postcode": "4300-430", "addr:street": "Rua Pinto Bessa", "amenity": "restaurant", "cuisine": "african", "mobile": "+351 914 622 823", "name": "Tia Orlanda", "phone": "+351 22 208 5710", "reservation": "yes", "takeaway": "yes", "toilets": "yes"}}, {"type": "node", "id": 9300234981, "lat": 41.1569939, "lon": -8.6298801, "tags": {"amenity": "restaurant", "cuisine": "steak_house", "name": "Churrasqueira Rotunda da Boavista"}}, {"type": "node", "id": 9330242209, "lat": 41.1461902, "lon": -8.5940116, "tags": {"addr:city": "Porto", "addr:housenumber": "286", "addr:postcode": "4300-256", "addr:street": "Rua do Hero\u00edsmo", "amenity": "restaurant", "name": "Caf\u00e9 Restaurante Marinho"}}, {"type": "node", "id": 9460739517, "lat": 41.1460267, "lon": -8.6041053, "tags": {"amenity": "restaurant", "name": "Casa Guedes 2"}}, {"type": "node", "id": 9468970154, "lat": 41.1625902, "lon": -8.6331575, "tags": {"amenity": "restaurant", "name": "Canal 3"}}, {"type": "node", "id": 9474222292, "lat": 41.1533294, "lon": -8.6307967, "tags": {"amenity": "restaurant", "name": "Imperador"}}, {"type": "node", "id": 9474236860, "lat": 41.1533647, "lon": -8.6304693, "tags": {"amenity": "restaurant", "name": "Ol\u00e1 Vietnam"}}, {"type": "node", "id": 9474330694, "lat": 41.1639716, "lon": -8.6342009, "tags": {"amenity": "restaurant", "name": "Latinocaf\u00e9"}}, {"type": "node", "id": 9487276469, "lat": 41.1668223, "lon": -8.633235, "tags": {"amenity": "restaurant", "name": "O Pote Velho"}}, {"type": "node", "id": 9494903717, "lat": 41.1460055, "lon": -8.6040403, "tags": {"addr:city": "Porto", "addr:country": "PT", "addr:housenumber": "88", "addr:postcode": "4000-382", "addr:street": "Pra\u00e7a dos Poveiros", "alt_name": "Caf\u00e9 Santiago da Pra\u00e7a", "amenity": "restaurant", "cuisine": "local;portuguese;sandwich;steak_house", "email": "geral@cafesantiago.pt", "name": "Santiago da Pra\u00e7a", "name:en": "Caf\u00e9 Santiago da Pra\u00e7a", "name:pt": "Caf\u00e9 Santiago da Pra\u00e7a", "phone": "+351 222 055 083", "website": "https://cafesantiago.pt/"}}, {"type": "node", "id": 9504350222, "lat": 41.1483685, "lon": -8.6205385, "tags": {"amenity": "restaurant", "cuisine": "indian", "name": "Indian Italian Restaurant"}}, {"type": "node", "id": 9535657748, "lat": 41.1404741, "lon": -8.61537, "tags": {"amenity": "restaurant", "name": "Silvas"}}, {"type": "node", "id": 9536730517, "lat": 41.1484127, "lon": -8.6128678, "tags": {"addr:housenumber": "177", "addr:street": "Pra\u00e7a Dona Filipa de Lencastre", "amenity": "restaurant", "name": "Munchie"}}, {"type": "node", "id": 9566149815, "lat": 41.1409837, "lon": -8.6166097, "tags": {"amenity": "restaurant", "name": "Cozza Rio"}}, {"type": "node", "id": 9566165019, "lat": 41.1411661, "lon": -8.6156382, "tags": {"amenity": "restaurant", "contact:phone": "+351 223 322 019 ;+351 918 838 649", "name": "O Comercial", "opening_hours:kitchen": "Mo 19:30-23:00; Tu-Sa 12:30-15:00,19:30-23:00"}}, {"type": "node", "id": 9568337558, "lat": 41.1444471, "lon": -8.6122905, "tags": {"amenity": "restaurant", "name": "O Caseirinho"}}, {"type": "node", "id": 9585742568, "lat": 41.1615249, "lon": -8.6208605, "tags": {"amenity": "restaurant", "name": "Caf\u00e9 Serpa Pinto"}}, {"type": "node", "id": 9654678292, "lat": 41.144263, "lon": -8.6174801, "tags": {"amenity": "restaurant", "name": "Farinha"}}, {"type": "node", "id": 9654711120, "lat": 41.1441212, "lon": -8.6176073, "tags": {"amenity": "restaurant", "name": "Taberna Real Fado"}}, {"type": "node", "id": 9656065644, "lat": 41.1498792, "lon": -8.6154955, "tags": {"addr:housenumber": "51", "addr:street": "Traversa de Cedofeita", "amenity": "restaurant", "name": "Coupage", "opening_hours": "Tu-Su 18:00-00:00", "phone": "+351222081136"}}, {"type": "node", "id": 9659060217, "lat": 41.1533682, "lon": -8.6304789, "tags": {"amenity": "restaurant", "cuisine": "vietnamese", "name": "Ola Vietname"}}]}